"Longitude (x)","Latitude (y)","Station Name","Climate ID","Date/Time (LST)","Year","Month","Day","Time (LST)","Temp (°C)","Temp Flag","Dew Point Temp (°C)","Dew Point Temp Flag","Rel Hum (%)","Rel Hum Flag","Precip. Amount (mm)","Precip. Amount Flag","Wind Dir (10s deg)","Wind Dir Flag","Wind Spd (km/h)","Wind Spd Flag","Visibility (km)","Visibility Flag","Stn Press (kPa)","Stn Press Flag","Hmdx","Hmdx Flag","Wind Chill","Wind Chill Flag","Weather"
"-52.75","47.62","ST. JOHN'S INTL A","8403505","2022-04-01 00:30","2022","04","01","00:30","-0.5","","-1.9","","90","","","","34","","31","","24.1","","98.91","","","","-7","","NA"
"-52.75","47.62","ST. JOHN'S INTL A","8403505","2022-04-01 01:30","2022","04","01","01:30","-0.8","","-2.7","","86","","","","34","","26","","24.1","","98.99","","","","-7","","NA"
"-52.75","47.62","ST. JOHN'S INTL A","8403505","2022-04-01 02:30","2022","04","01","02:30","-1.0","","-3.6","","82","","","","33","","31","","24.1","","99.13","","","","-8","","Cloudy"
"-52.75","47.62","ST. JOHN'S INTL A","8403505","2022-04-01 03:30","2022","04","01","03:30","-1.5","","-3.7","","85","","","","34","","24","","24.1","","99.09","","","","-8","","NA"
"-52.75","47.62","ST. JOHN'S INTL A","8403505","2022-04-01 04:30","2022","04","01","04:30","-1.7","","-3.6","","87","","","","32","","20","","24.1","","99.15","","","","-7","","NA"
"-52.75","47.62","ST. JOHN'S INTL A","8403505","2022-04-01 05:30","2022","04","01","05:30","-1.9","","-3.6","","88","","","","34","","20","","24.1","","99.19","","","","-8","","Mostly Cloudy"
"-52.75","47.62","ST. JOHN'S INTL A","8403505","2022-04-01 06:30","2022","04","01","06:30","-1.8","","-3.3","","89","","","","34","","19","","24.1","","99.24","","","","-7","","NA"
"-52.75","47.62","ST. JOHN'S INTL A","8403505","2022-04-01 07:30","2022","04","01","07:30","-1.2","","-2.9","","88","","","","34","","15","","24.1","","99.23","","","","-6","","NA"
"-52.75","47.62","ST. JOHN'S INTL A","8403505","2022-04-01 08:30","2022","04","01","08:30","-0.5","","-2.6","","86","","","","34","","9","","24.1","","99.33","","","","-4","","Cloudy"
"-52.75","47.62","ST. JOHN'S INTL A","8403505","2022-04-01 09:30","2022","04","01","09:30","0.5","","-2.2","","82","","","","28","","9","","24.1","","99.36","","","","","","NA"
"-52.75","47.62","ST. JOHN'S INTL A","8403505","2022-04-01 10:30","2022","04","01","10:30","2.3","","-1.5","","76","","","","30","","13","","24.1","","99.38","","","","","","NA"
"-52.75","47.62","ST. JOHN'S INTL A","8403505","2022-04-01 11:30","2022","04","01","11:30","4.0","","-1.7","","66","","","","21","","9","","24.1","","99.31","","","","","","Mostly Cloudy"
"-52.75","47.62","ST. JOHN'S INTL A","8403505","2022-04-01 12:30","2022","04","01","12:30","3.3","","-1.6","","70","","","","15","","13","","24.1","","99.29","","","","","","NA"
"-52.75","47.62","ST. JOHN'S INTL A","8403505","2022-04-01 13:30","2022","04","01","13:30","2.7","","-1.4","","74","","","","15","","18","","24.1","","99.21","","","","","","NA"
"-52.75","47.62","ST. JOHN'S INTL A","8403505","2022-04-01 14:30","2022","04","01","14:30","4.3","","-1.1","","68","","","","19","","22","","24.1","","99.18","","","","","","Mostly Cloudy"
"-52.75","47.62","ST. JOHN'S INTL A","8403505","2022-04-01 15:30","2022","04","01","15:30","3.5","","-1.4","","70","","","","18","","18","","24.1","","99.04","","","","","","NA"
"-52.75","47.62","ST. JOHN'S INTL A","8403505","2022-04-01 16:30","2022","04","01","16:30","1.0","","-0.3","","91","","","","16","","22","","24.1","","99.03","","","","","","Rain Showers"
"-52.75","47.62","ST. JOHN'S INTL A","8403505","2022-04-01 17:30","2022","04","01","17:30","0.0","","-1.3","","91","","","","18","","27","","24.1","","98.97","","","","-6","","Rain"
"-52.75","47.62","ST. JOHN'S INTL A","8403505","2022-04-01 18:30","2022","04","01","18:30","-0.5","","-1.3","","94","","","","19","","31","","24.1","","98.94","","","","-7","","Freezing Rain"
"-52.75","47.62","ST. JOHN'S INTL A","8403505","2022-04-01 19:30","2022","04","01","19:30","-0.5","","-1.1","","96","","","","18","","42","","24.1","","98.78","","","","-8","","Freezing Rain"
"-52.75","47.62","ST. JOHN'S INTL A","8403505","2022-04-01 20:30","2022","04","01","20:30","-0.6","","-1.1","","97","","","","18","","56","","24.1","","98.68","","","","-9","","Freezing Rain"
"-52.75","47.62","ST. JOHN'S INTL A","8403505","2022-04-01 21:30","2022","04","01","21:30","-0.6","","-0.9","","97","","","","17","","46","","24.1","","98.63","","","","-9","","Freezing Rain"
"-52.75","47.62","ST. JOHN'S INTL A","8403505","2022-04-01 22:30","2022","04","01","22:30","-0.2","","-0.7","","97","","","","17","","47","","24.1","","98.45","","","","-8","","Freezing Rain"
"-52.75","47.62","ST. JOHN'S INTL A","8403505","2022-04-01 23:30","2022","04","01","23:30","-0.1","","-0.4","","98","","","","18","","49","","4.8","","98.33","","","","-8","","Freezing Rain,Fog"
"-52.75","47.62","ST. JOHN'S INTL A","8403505","2022-04-02 00:30","2022","04","02","00:30","0.0","","-0.2","","98","","","","17","","46","","12.9","","98.18","","","","-8","","Freezing Rain"
"-52.75","47.62","ST. JOHN'S INTL A","8403505","2022-04-02 01:30","2022","04","02","01:30","0.4","","0.1","","99","","","","17","","35","","0.8","","98.05","","","","","","Rain,Fog"
"-52.75","47.62","ST. JOHN'S INTL A","8403505","2022-04-02 02:30","2022","04","02","02:30","0.5","","0.4","","99","","","","17","","19","","12.9","","97.96","","","","","","Rain"
"-52.75","47.62","ST. JOHN'S INTL A","8403505","2022-04-02 03:30","2022","04","02","03:30","1.0","","0.8","","99","","","","16","","14","","2.4","","97.86","","","","","","Rain,Fog"
"-52.75","47.62","ST. JOHN'S INTL A","8403505","2022-04-02 04:30","2022","04","02","04:30","1.4","","1.2","","99","","","","10","","4","","0.8","","97.77","","","","","","Moderate Rain,Fog"
"-52.75","47.62","ST. JOHN'S INTL A","8403505","2022-04-02 05:30","2022","04","02","05:30","2.7","","2.5","","99","","","","13","","3","","0.8","","97.68","","","","","","Rain,Fog"
"-52.75","47.62","ST. JOHN'S INTL A","8403505","2022-04-02 06:30","2022","04","02","06:30","2.7","","2.6","","99","","","","6","","4","","0.4","","97.63","","","","","","Drizzle,Fog"
"-52.75","47.62","ST. JOHN'S INTL A","8403505","2022-04-02 07:30","2022","04","02","07:30","5.2","","5.1","","99","","","","17","","25","","0.4","","97.54","","","","","","Fog"
"-52.75","47.62","ST. JOHN'S INTL A","8403505","2022-04-02 08:30","2022","04","02","08:30","8.7","","8.7","","100","","","","19","","29","","24.1","","97.38","","","","","","Cloudy"
"-52.75","47.62","ST. JOHN'S INTL A","8403505","2022-04-02 09:30","2022","04","02","09:30","6.9","","6.8","","99","","","","17","","33","","0.4","","97.23","","","","","","Rain Showers,Fog"
"-52.75","47.62","ST. JOHN'S INTL A","8403505","2022-04-02 10:30","2022","04","02","10:30","6.8","","6.7","","100","","","","20","","27","","0.8","","97.15","","","","","","Drizzle,Fog"
"-52.75","47.62","ST. JOHN'S INTL A","8403505","2022-04-02 11:30","2022","04","02","11:30","8.3","","7.9","","97","","","","25","","28","","24.1","","97.06","","","","","","Drizzle"
"-52.75","47.62","ST. JOHN'S INTL A","8403505","2022-04-02 12:30","2022","04","02","12:30","5.9","","5.2","","95","","","","25","","34","","19.3","","97.05","","","","","","NA"
"-52.75","47.62","ST. JOHN'S INTL A","8403505","2022-04-02 13:30","2022","04","02","13:30","5.4","","4.0","","91","","","","25","","37","","24.1","","97.08","","","","","","NA"
"-52.75","47.62","ST. JOHN'S INTL A","8403505","2022-04-02 14:30","2022","04","02","14:30","4.9","","3.5","","90","","","","24","","32","","24.1","","97.08","","","","","","Cloudy"
"-52.75","47.62","ST. JOHN'S INTL A","8403505","2022-04-02 15:30","2022","04","02","15:30","3.7","","2.4","","91","","","","23","","40","","24.1","","97.07","","","","","","NA"
"-52.75","47.62","ST. JOHN'S INTL A","8403505","2022-04-02 16:30","2022","04","02","16:30","3.4","","2.1","","91","","","","25","","27","","24.1","","97.16","","","","","","NA"
"-52.75","47.62","ST. JOHN'S INTL A","8403505","2022-04-02 17:30","2022","04","02","17:30","2.6","","1.7","","94","","","","26","","34","","19.3","","97.23","","","","","","Drizzle"
"-52.75","47.62","ST. JOHN'S INTL A","8403505","2022-04-02 18:30","2022","04","02","18:30","2.0","","0.3","","89","","","","24","","33","","24.1","","97.32","","","","","","NA"
"-52.75","47.62","ST. JOHN'S INTL A","8403505","2022-04-02 19:30","2022","04","02","19:30","1.6","","-0.3","","87","","","","24","","33","","24.1","","97.38","","","","","","NA"
"-52.75","47.62","ST. JOHN'S INTL A","8403505","2022-04-02 20:30","2022","04","02","20:30","1.1","","-1.0","","85","","","","24","","34","","24.1","","97.41","","","","","","Mostly Cloudy"
"-52.75","47.62","ST. JOHN'S INTL A","8403505","2022-04-02 21:30","2022","04","02","21:30","1.1","","-1.1","","85","","","","24","","32","","24.1","","97.40","","","","","","NA"
"-52.75","47.62","ST. JOHN'S INTL A","8403505","2022-04-02 22:30","2022","04","02","22:30","0.7","","-0.4","","93","","","","24","","26","","19.3","","97.43","","","","","","Snow Showers"
"-52.75","47.62","ST. JOHN'S INTL A","8403505","2022-04-02 23:30","2022","04","02","23:30","0.4","","-1.0","","90","","","","22","","27","","24.1","","97.42","","","","","","Snow Showers"
"-52.75","47.62","ST. JOHN'S INTL A","8403505","2022-04-03 00:30","2022","04","03","00:30","0.5","","-0.8","","91","","","","22","","30","","19.3","","97.40","","","","","","Snow Showers"
"-52.75","47.62","ST. JOHN'S INTL A","8403505","2022-04-03 01:30","2022","04","03","01:30","0.3","","-1.0","","91","","","","23","","26","","24.1","","97.38","","","","","","Snow Showers"
"-52.75","47.62","ST. JOHN'S INTL A","8403505","2022-04-03 02:30","2022","04","03","02:30","0.2","","-1.2","","90","","","","22","","33","","24.1","","97.35","","","","","","Snow Showers"
"-52.75","47.62","ST. JOHN'S INTL A","8403505","2022-04-03 03:30","2022","04","03","03:30","0.0","","-1.0","","93","","","","22","","31","","4.8","","97.32","","","","-7","","Snow Showers"
"-52.75","47.62","ST. JOHN'S INTL A","8403505","2022-04-03 04:30","2022","04","03","04:30","0.1","","-1.1","","92","","","","22","","33","","16.1","","97.29","","","","","","Snow Showers"
"-52.75","47.62","ST. JOHN'S INTL A","8403505","2022-04-03 05:30","2022","04","03","05:30","0.2","","-1.2","","90","","","","23","","32","","19.3","","97.29","","","","","","Snow Showers"
"-52.75","47.62","ST. JOHN'S INTL A","8403505","2022-04-03 06:30","2022","04","03","06:30","0.5","","-0.8","","92","","","","24","","31","","24.1","","97.32","","","","","","Snow Showers"
"-52.75","47.62","ST. JOHN'S INTL A","8403505","2022-04-03 07:30","2022","04","03","07:30","0.6","","-0.2","","94","","","","26","","35","","24.1","","97.37","","","","","","Snow Showers"
"-52.75","47.62","ST. JOHN'S INTL A","8403505","2022-04-03 08:30","2022","04","03","08:30","1.1","","-0.2","","91","","","","25","","40","","24.1","","97.40","","","","","","Snow Showers"
"-52.75","47.62","ST. JOHN'S INTL A","8403505","2022-04-03 09:30","2022","04","03","09:30","1.5","","0.1","","91","","","","26","","34","","19.3","","97.49","","","","","","Snow Showers"
"-52.75","47.62","ST. JOHN'S INTL A","8403505","2022-04-03 10:30","2022","04","03","10:30","1.7","","0.6","","92","","","","26","","34","","24.1","","97.52","","","","","","Snow Showers"
"-52.75","47.62","ST. JOHN'S INTL A","8403505","2022-04-03 11:30","2022","04","03","11:30","2.6","","1.0","","89","","","","25","","35","","24.1","","97.55","","","","","","Mainly Clear"
"-52.75","47.62","ST. JOHN'S INTL A","8403505","2022-04-03 12:30","2022","04","03","12:30","4.2","","1.1","","81","","","","26","","38","","24.1","","97.58","","","","","","NA"
"-52.75","47.62","ST. JOHN'S INTL A","8403505","2022-04-03 13:30","2022","04","03","13:30","4.4","","0.3","","75","","","","26","","46","","24.1","","97.63","","","","","","NA"
"-52.75","47.62","ST. JOHN'S INTL A","8403505","2022-04-03 14:30","2022","04","03","14:30","4.6","","0.0","","72","","","","27","","49","","24.1","","97.67","","","","","","Mostly Cloudy"
"-52.75","47.62","ST. JOHN'S INTL A","8403505","2022-04-03 15:30","2022","04","03","15:30","4.6","","-0.5","","70","","","","28","","58","","24.1","","97.72","","","","","","NA"
"-52.75","47.62","ST. JOHN'S INTL A","8403505","2022-04-03 16:30","2022","04","03","16:30","3.6","","-0.8","","73","","","","28","","53","","24.1","","97.81","","","","","","NA"
"-52.75","47.62","ST. JOHN'S INTL A","8403505","2022-04-03 17:30","2022","04","03","17:30","2.2","","-0.5","","82","","","","28","","54","","24.1","","97.97","","","","","","Mostly Cloudy"
"-52.75","47.62","ST. JOHN'S INTL A","8403505","2022-04-03 18:30","2022","04","03","18:30","1.7","","-0.8","","84","","","","28","","50","","24.1","","98.14","","","","","","NA"
"-52.75","47.62","ST. JOHN'S INTL A","8403505","2022-04-03 19:30","2022","04","03","19:30","1.1","","-0.9","","86","","","","27","","34","","24.1","","98.33","","","","","","NA"
"-52.75","47.62","ST. JOHN'S INTL A","8403505","2022-04-03 20:30","2022","04","03","20:30","0.8","","-1.1","","87","","","","27","","45","","24.1","","98.43","","","","","","Mainly Clear"
"-52.75","47.62","ST. JOHN'S INTL A","8403505","2022-04-03 21:30","2022","04","03","21:30","0.3","","-1.3","","89","","","","27","","44","","24.1","","98.58","","","","","","NA"
"-52.75","47.62","ST. JOHN'S INTL A","8403505","2022-04-03 22:30","2022","04","03","22:30","0.1","","-1.6","","88","","","","27","","36","","24.1","","98.70","","","","","","NA"
"-52.75","47.62","ST. JOHN'S INTL A","8403505","2022-04-03 23:30","2022","04","03","23:30","-0.3","","-1.7","","90","","","","25","","24","","24.1","","98.80","","","","-6","","Mainly Clear"
"-52.75","47.62","ST. JOHN'S INTL A","8403505","2022-04-04 00:30","2022","04","04","00:30","-0.5","","-1.8","","91","","","","25","","20","","24.1","","98.87","","","","-6","","NA"
"-52.75","47.62","ST. JOHN'S INTL A","8403505","2022-04-04 01:30","2022","04","04","01:30","-0.1","","-1.7","","89","","","","27","","28","","24.1","","98.89","","","","-6","","NA"
"-52.75","47.62","ST. JOHN'S INTL A","8403505","2022-04-04 02:30","2022","04","04","02:30","-0.2","","-1.9","","88","","","","26","","26","","24.1","","98.93","","","","-6","","Mostly Cloudy"
"-52.75","47.62","ST. JOHN'S INTL A","8403505","2022-04-04 03:30","2022","04","04","03:30","-0.2","","-2.1","","87","","","","24","","24","","24.1","","98.95","","","","-6","","NA"
"-52.75","47.62","ST. JOHN'S INTL A","8403505","2022-04-04 04:30","2022","04","04","04:30","-0.5","","-2.2","","89","","","","27","","29","","24.1","","98.95","","","","-7","","NA"
"-52.75","47.62","ST. JOHN'S INTL A","8403505","2022-04-04 05:30","2022","04","04","05:30","-1.2","","-2.4","","91","","","","25","","20","","24.1","","99.02","","","","-7","","Mostly Cloudy"
"-52.75","47.62","ST. JOHN'S INTL A","8403505","2022-04-04 06:30","2022","04","04","06:30","-0.6","","-2.3","","88","","","","27","","18","","24.1","","99.11","","","","-6","","NA"
"-52.75","47.62","ST. JOHN'S INTL A","8403505","2022-04-04 07:30","2022","04","04","07:30","0.8","","-2.5","","79","","","","26","","22","","24.1","","99.18","","","","","","NA"
"-52.75","47.62","ST. JOHN'S INTL A","8403505","2022-04-04 08:30","2022","04","04","08:30","2.9","","-2.6","","67","","","","28","","25","","24.1","","99.20","","","","","","Mainly Clear"
"-52.75","47.62","ST. JOHN'S INTL A","8403505","2022-04-04 09:30","2022","04","04","09:30","4.6","","-1.7","","64","","","","26","","20","","24.1","","99.24","","","","","","NA"
"-52.75","47.62","ST. JOHN'S INTL A","8403505","2022-04-04 10:30","2022","04","04","10:30","5.9","","-2.2","","56","","","","27","","30","","24.1","","99.21","","","","","","NA"
"-52.75","47.62","ST. JOHN'S INTL A","8403505","2022-04-04 11:30","2022","04","04","11:30","7.2","","-1.5","","54","","","","26","","18","","24.1","","99.17","","","","","","Mostly Cloudy"
"-52.75","47.62","ST. JOHN'S INTL A","8403505","2022-04-04 12:30","2022","04","04","12:30","8.0","","-1.8","","50","","","","24","","12","","24.1","","99.12","","","","","","NA"
"-52.75","47.62","ST. JOHN'S INTL A","8403505","2022-04-04 13:30","2022","04","04","13:30","9.6","","-0.3","","50","","","","19","","5","","24.1","","99.03","","","","","","NA"
"-52.75","47.62","ST. JOHN'S INTL A","8403505","2022-04-04 14:30","2022","04","04","14:30","8.5","","0.0","","55","","","","18","","30","","24.1","","98.99","","","","","","Mainly Clear"
"-52.75","47.62","ST. JOHN'S INTL A","8403505","2022-04-04 15:30","2022","04","04","15:30","8.1","","0.1","","57","","","","17","","22","","24.1","","98.95","","","","","","NA"
"-52.75","47.62","ST. JOHN'S INTL A","8403505","2022-04-04 16:30","2022","04","04","16:30","4.4","","-2.7","","60","","","","16","","27","","24.1","","98.87","","","","","","NA"
"-52.75","47.62","ST. JOHN'S INTL A","8403505","2022-04-04 17:30","2022","04","04","17:30","3.1","","-0.4","","78","","","","18","","26","","24.1","","98.82","","","","","","Cloudy"
"-52.75","47.62","ST. JOHN'S INTL A","8403505","2022-04-04 18:30","2022","04","04","18:30","1.0","","0.6","","97","","","","15","","27","","1.6","","98.64","","","","","","Rain,Fog"
"-52.75","47.62","ST. JOHN'S INTL A","8403505","2022-04-04 19:30","2022","04","04","19:30","1.2","","1.0","","98","","","","13","","25","","0.8","","98.47","","","","","","Rain,Fog"
"-52.75","47.62","ST. JOHN'S INTL A","8403505","2022-04-04 20:30","2022","04","04","20:30","1.0","","0.8","","99","","","","10","","24","","4.8","","98.25","","","","","","Rain,Fog"
"-52.75","47.62","ST. JOHN'S INTL A","8403505","2022-04-04 21:30","2022","04","04","21:30","0.8","","0.7","","99","","","","10","","31","","4.8","","98.00","","","","","","Moderate Rain,Fog"
"-52.75","47.62","ST. JOHN'S INTL A","8403505","2022-04-04 22:30","2022","04","04","22:30","2.0","","1.9","","99","","","","11","","40","","3.2","","97.58","","","","","","Heavy Rain,Fog"
"-52.75","47.62","ST. JOHN'S INTL A","8403505","2022-04-04 23:30","2022","04","04","23:30","2.8","","2.6","","99","","","","14","","37","","3.2","","97.30","","","","","","Moderate Rain,Fog"
"-52.75","47.62","ST. JOHN'S INTL A","8403505","2022-04-05 00:30","2022","04","05","00:30","3.0","","2.9","","99","","","","16","","37","","3.2","","97.10","","","","","","Rain,Fog"
"-52.75","47.62","ST. JOHN'S INTL A","8403505","2022-04-05 01:30","2022","04","05","01:30","2.3","","2.2","","99","","","","25","","36","","9.7","","97.16","","","","","","Rain,Fog"
"-52.75","47.62","ST. JOHN'S INTL A","8403505","2022-04-05 02:30","2022","04","05","02:30","1.1","","0.2","","94","","","","25","","24","","24.1","","97.21","","","","","","Mainly Clear"
"-52.75","47.62","ST. JOHN'S INTL A","8403505","2022-04-05 03:30","2022","04","05","03:30","1.3","","0.5","","94","","","","23","","21","","24.1","","97.21","","","","","","NA"
"-52.75","47.62","ST. JOHN'S INTL A","8403505","2022-04-05 04:30","2022","04","05","04:30","0.5","","0.0","","97","","","","17","","13","","24.1","","97.18","","","","","","NA"
"-52.75","47.62","ST. JOHN'S INTL A","8403505","2022-04-05 05:30","2022","04","05","05:30","0.9","","0.6","","98","","","","14","","14","","1.6","","97.13","","","","","","Fog"
"-52.75","47.62","ST. JOHN'S INTL A","8403505","2022-04-05 06:30","2022","04","05","06:30","0.6","","0.4","","99","","","","12","","10","","0.6","","97.12","","","","","","Rain,Fog"
"-52.75","47.62","ST. JOHN'S INTL A","8403505","2022-04-05 07:30","2022","04","05","07:30","0.0","","-0.1","","99","","","","9","","10","","0.8","","97.08","","","","-3","","Snow,Fog"
"-52.75","47.62","ST. JOHN'S INTL A","8403505","2022-04-05 08:30","2022","04","05","08:30","0.4","","0.4","","99","","","","1","","7","","1.6","","97.04","","","","","","Rain,Snow,Fog"
"-52.75","47.62","ST. JOHN'S INTL A","8403505","2022-04-05 09:30","2022","04","05","09:30","1.5","","1.4","","99","","","","2","","3","","6.4","","97.05","","","","","","Rain,Fog"
"-52.75","47.62","ST. JOHN'S INTL A","8403505","2022-04-05 10:30","2022","04","05","10:30","3.0","","2.8","","99","","","","2","","7","","9.7","","97.06","","","","","","Drizzle,Fog"
"-52.75","47.62","ST. JOHN'S INTL A","8403505","2022-04-05 11:30","2022","04","05","11:30","3.5","","2.7","","94","","","","31","","17","","19.3","","97.07","","","","","","Drizzle"
"-52.75","47.62","ST. JOHN'S INTL A","8403505","2022-04-05 12:30","2022","04","05","12:30","2.8","","2.0","","95","","","","33","","21","","19.3","","97.14","","","","","","NA"
"-52.75","47.62","ST. JOHN'S INTL A","8403505","2022-04-05 13:30","2022","04","05","13:30","2.4","","1.9","","97","","","","32","","25","","9.7","","97.23","","","","","","Rain,Fog"
"-52.75","47.62","ST. JOHN'S INTL A","8403505","2022-04-05 14:30","2022","04","05","14:30","2.8","","2.3","","96","","","","31","","17","","12.9","","97.32","","","","","","Rain"
"-52.75","47.62","ST. JOHN'S INTL A","8403505","2022-04-05 15:30","2022","04","05","15:30","3.8","","3.2","","96","","","","29","","24","","6.4","","97.38","","","","","","Rain,Fog"
"-52.75","47.62","ST. JOHN'S INTL A","8403505","2022-04-05 16:30","2022","04","05","16:30","4.8","","2.5","","85","","","","29","","34","","24.1","","97.41","","","","","","NA"
"-52.75","47.62","ST. JOHN'S INTL A","8403505","2022-04-05 17:30","2022","04","05","17:30","3.4","","1.7","","88","","","","31","","23","","24.1","","97.54","","","","","","Mostly Cloudy"
"-52.75","47.62","ST. JOHN'S INTL A","8403505","2022-04-05 18:30","2022","04","05","18:30","1.5","","0.3","","92","","","","30","","33","","24.1","","97.64","","","","","","NA"
"-52.75","47.62","ST. JOHN'S INTL A","8403505","2022-04-05 19:30","2022","04","05","19:30","0.8","","-0.9","","88","","","","30","","42","","24.1","","97.73","","","","","","NA"
"-52.75","47.62","ST. JOHN'S INTL A","8403505","2022-04-05 20:30","2022","04","05","20:30","0.1","","-1.6","","89","","","","31","","32","","24.1","","97.83","","","","","","Mostly Cloudy"
"-52.75","47.62","ST. JOHN'S INTL A","8403505","2022-04-05 21:30","2022","04","05","21:30","-0.1","","-1.9","","88","","","","31","","37","","24.1","","97.88","","","","-7","","NA"
"-52.75","47.62","ST. JOHN'S INTL A","8403505","2022-04-05 22:30","2022","04","05","22:30","-0.2","","-1.8","","89","","","","30","","37","","24.1","","97.94","","","","-7","","NA"
"-52.75","47.62","ST. JOHN'S INTL A","8403505","2022-04-05 23:30","2022","04","05","23:30","-0.3","","-1.7","","90","","","","30","","34","","16.1","","97.98","","","","-7","","Cloudy"
"-52.75","47.62","ST. JOHN'S INTL A","8403505","2022-04-06 00:30","2022","04","06","00:30","-0.4","","-1.7","","91","","","","30","","36","","24.1","","97.97","","","","-8","","NA"
"-52.75","47.62","ST. JOHN'S INTL A","8403505","2022-04-06 01:30","2022","04","06","01:30","-0.6","","-1.6","","93","","","","30","","44","","9.7","","97.96","","","","-9","","Snow Showers,Blowing Snow"
"-52.75","47.62","ST. JOHN'S INTL A","8403505","2022-04-06 02:30","2022","04","06","02:30","-0.7","","-1.4","","95","","","","29","","36","","9.7","","98.00","","","","-8","","Snow Showers,Blowing Snow"
"-52.75","47.62","ST. JOHN'S INTL A","8403505","2022-04-06 03:30","2022","04","06","03:30","-0.6","","-1.5","","93","","","","29","","42","","6.4","","98.00","","","","-8","","Snow,Blowing Snow"
"-52.75","47.62","ST. JOHN'S INTL A","8403505","2022-04-06 04:30","2022","04","06","04:30","-0.7","","-1.3","","96","","","","29","","40","","2.4","","98.02","","","","-8","","Snow,Blowing Snow"
"-52.75","47.62","ST. JOHN'S INTL A","8403505","2022-04-06 05:30","2022","04","06","05:30","-0.6","","-1.1","","97","","","","30","","40","","1.6","","98.06","","","","-8","","Snow,Blowing Snow"
"-52.75","47.62","ST. JOHN'S INTL A","8403505","2022-04-06 06:30","2022","04","06","06:30","-0.5","","-0.9","","97","","","","30","","47","","2.4","","98.07","","","","-9","","Snow,Fog"
"-52.75","47.62","ST. JOHN'S INTL A","8403505","2022-04-06 07:30","2022","04","06","07:30","0.1","","-1.0","","92","","","","30","","46","","8.1","","98.07","","","","","","Snow,Fog"
"-52.75","47.62","ST. JOHN'S INTL A","8403505","2022-04-06 08:30","2022","04","06","08:30","0.5","","-0.9","","90","","","","30","","50","","24.1","","98.05","","","","","","Cloudy"
"-52.75","47.62","ST. JOHN'S INTL A","8403505","2022-04-06 09:30","2022","04","06","09:30","0.8","","-0.7","","90","","","","30","","41","","24.1","","98.11","","","","","","NA"
"-52.75","47.62","ST. JOHN'S INTL A","8403505","2022-04-06 10:30","2022","04","06","10:30","0.9","","-0.6","","90","","","","29","","39","","24.1","","98.15","","","","","","NA"
"-52.75","47.62","ST. JOHN'S INTL A","8403505","2022-04-06 11:30","2022","04","06","11:30","1.2","","-0.3","","90","","","","30","","50","","19.3","","98.17","","","","","","Drizzle"
"-52.75","47.62","ST. JOHN'S INTL A","8403505","2022-04-06 12:30","2022","04","06","12:30","2.0","","-0.1","","86","","","","30","","49","","24.1","","98.20","","","","","","NA"
"-52.75","47.62","ST. JOHN'S INTL A","8403505","2022-04-06 13:30","2022","04","06","13:30","2.4","","0.6","","88","","","","30","","43","","24.1","","98.20","","","","","","Rain Showers,Snow Showers"
"-52.75","47.62","ST. JOHN'S INTL A","8403505","2022-04-06 14:30","2022","04","06","14:30","2.1","","1.2","","94","","","","30","","40","","19.3","","98.22","","","","","","Rain Showers,Snow Showers"
"-52.75","47.62","ST. JOHN'S INTL A","8403505","2022-04-06 15:30","2022","04","06","15:30","2.2","","0.8","","90","","","","31","","43","","24.1","","98.25","","","","","","Rain Showers"
"-52.75","47.62","ST. JOHN'S INTL A","8403505","2022-04-06 16:30","2022","04","06","16:30","1.9","","1.0","","94","","","","31","","37","","19.3","","98.32","","","","","","Rain Showers"
"-52.75","47.62","ST. JOHN'S INTL A","8403505","2022-04-06 17:30","2022","04","06","17:30","2.1","","1.0","","92","","","","32","","35","","24.1","","98.39","","","","","","Rain Showers,Snow Pellets"
"-52.75","47.62","ST. JOHN'S INTL A","8403505","2022-04-06 18:30","2022","04","06","18:30","1.8","","0.5","","91","","","","32","","35","","24.1","","98.45","","","","","","NA"
"-52.75","47.62","ST. JOHN'S INTL A","8403505","2022-04-06 19:30","2022","04","06","19:30","1.4","","0.2","","92","","","","32","","32","","24.1","","98.54","","","","","","Rain Showers"
"-52.75","47.62","ST. JOHN'S INTL A","8403505","2022-04-06 20:30","2022","04","06","20:30","1.1","","0.0","","93","","","","32","","36","","24.1","","98.60","","","","","","Cloudy"
"-52.75","47.62","ST. JOHN'S INTL A","8403505","2022-04-06 21:30","2022","04","06","21:30","0.7","","-0.3","","93","","","","32","","34","","24.1","","98.65","","","","","","NA"
"-52.75","47.62","ST. JOHN'S INTL A","8403505","2022-04-06 22:30","2022","04","06","22:30","0.5","","-0.4","","94","","","","31","","32","","24.1","","98.69","","","","","","NA"
"-52.75","47.62","ST. JOHN'S INTL A","8403505","2022-04-06 23:30","2022","04","06","23:30","0.3","","-0.5","","94","","","","32","","38","","24.1","","98.68","","","","","","Drizzle"
"-52.75","47.62","ST. JOHN'S INTL A","8403505","2022-04-07 00:30","2022","04","07","00:30","0.3","","-0.5","","95","","","","31","","36","","24.1","","98.69","","","","","","NA"
"-52.75","47.62","ST. JOHN'S INTL A","8403505","2022-04-07 01:30","2022","04","07","01:30","0.2","","-0.7","","94","","","","31","","35","","24.1","","98.70","","","","","","Drizzle"
"-52.75","47.62","ST. JOHN'S INTL A","8403505","2022-04-07 02:30","2022","04","07","02:30","0.1","","-0.6","","95","","","","32","","30","","24.1","","98.75","","","","","","Cloudy"
"-52.75","47.62","ST. JOHN'S INTL A","8403505","2022-04-07 03:30","2022","04","07","03:30","0.0","","-0.5","","96","","","","32","","26","","24.1","","98.79","","","","-6","","NA"
"-52.75","47.62","ST. JOHN'S INTL A","8403505","2022-04-07 04:30","2022","04","07","04:30","-0.1","","-0.4","","98","","","","33","","19","","4.0","","98.85","","","","-5","","Freezing Drizzle,Fog"
"-52.75","47.62","ST. JOHN'S INTL A","8403505","2022-04-07 05:30","2022","04","07","05:30","-0.1","","-0.4","","98","","","","33","","26","","2.4","","98.91","","","","-6","","Freezing Drizzle,Fog"
"-52.75","47.62","ST. JOHN'S INTL A","8403505","2022-04-07 06:30","2022","04","07","06:30","0.0","","-0.3","","98","","","","32","","25","","1.2","","98.95","","","","-6","","Freezing Drizzle,Fog"
"-52.75","47.62","ST. JOHN'S INTL A","8403505","2022-04-07 07:30","2022","04","07","07:30","0.1","","-0.2","","98","","","","34","","21","","2.4","","99.02","","","","","","Drizzle,Fog"
"-52.75","47.62","ST. JOHN'S INTL A","8403505","2022-04-07 08:30","2022","04","07","08:30","0.6","","0.3","","98","","","","33","","25","","9.7","","99.07","","","","","","Fog"
"-52.75","47.62","ST. JOHN'S INTL A","8403505","2022-04-07 09:30","2022","04","07","09:30","0.5","","0.2","","98","","","","34","","29","","0.8","","99.16","","","","","","Fog"
"-52.75","47.62","ST. JOHN'S INTL A","8403505","2022-04-07 10:30","2022","04","07","10:30","0.5","","0.3","","99","","","","34","","25","","0.6","","99.26","","","","","","Drizzle,Fog"
"-52.75","47.62","ST. JOHN'S INTL A","8403505","2022-04-07 11:30","2022","04","07","11:30","0.6","","0.5","","99","","","","34","","29","","2.4","","99.30","","","","","","Drizzle,Fog"
"-52.75","47.62","ST. JOHN'S INTL A","8403505","2022-04-07 12:30","2022","04","07","12:30","1.3","","1.1","","99","","","","36","","31","","3.2","","99.35","","","","","","Drizzle,Fog"
"-52.75","47.62","ST. JOHN'S INTL A","8403505","2022-04-07 13:30","2022","04","07","13:30","1.4","","1.2","","98","","","","36","","28","","6.4","","99.41","","","","","","Fog"
"-52.75","47.62","ST. JOHN'S INTL A","8403505","2022-04-07 14:30","2022","04","07","14:30","1.6","","1.4","","98","","","","36","","28","","1.2","","99.48","","","","","","Drizzle,Fog"
"-52.75","47.62","ST. JOHN'S INTL A","8403505","2022-04-07 15:30","2022","04","07","15:30","1.3","","0.9","","97","","","","35","","30","","2.4","","99.55","","","","","","Drizzle,Fog"
"-52.75","47.62","ST. JOHN'S INTL A","8403505","2022-04-07 16:30","2022","04","07","16:30","0.9","","0.6","","98","","","","36","","25","","2.4","","99.64","","","","","","Drizzle,Snow,Fog"
"-52.75","47.62","ST. JOHN'S INTL A","8403505","2022-04-07 17:30","2022","04","07","17:30","0.7","","0.4","","98","","","","35","","27","","2.4","","99.74","","","","","","Drizzle,Fog"
"-52.75","47.62","ST. JOHN'S INTL A","8403505","2022-04-07 18:30","2022","04","07","18:30","0.5","","0.2","","98","","","","1","","36","","3.2","","99.77","","","","","","Drizzle,Fog"
"-52.75","47.62","ST. JOHN'S INTL A","8403505","2022-04-07 19:30","2022","04","07","19:30","0.2","","-0.2","","97","","","","1","","27","","19.3","","99.89","","","","","","NA"
"-52.75","47.62","ST. JOHN'S INTL A","8403505","2022-04-07 20:30","2022","04","07","20:30","0.1","","-0.5","","96","","","","2","","26","","19.3","","99.93","","","","","","Cloudy"
"-52.75","47.62","ST. JOHN'S INTL A","8403505","2022-04-07 21:30","2022","04","07","21:30","0.0","","-0.4","","97","","","","36","","31","","19.3","","99.99","","","","-7","","NA"
"-52.75","47.62","ST. JOHN'S INTL A","8403505","2022-04-07 22:30","2022","04","07","22:30","-0.2","","-0.5","","98","","","","36","","22","","0.8","","100.05","","","","-6","","Freezing Fog"
"-52.75","47.62","ST. JOHN'S INTL A","8403505","2022-04-07 23:30","2022","04","07","23:30","0.1","","0.0","","99","","","","35","","21","","0.8","","100.08","","","","","","Drizzle,Fog"
"-52.75","47.62","ST. JOHN'S INTL A","8403505","2022-04-08 00:30","2022","04","08","00:30","0.0","","-0.1","","99","","","","35","","27","","3.2","","100.14","","","","-6","","Drizzle,Fog"
"-52.75","47.62","ST. JOHN'S INTL A","8403505","2022-04-08 01:30","2022","04","08","01:30","0.1","","-0.1","","98","","","","36","","26","","4.8","","100.17","","","","","","Drizzle,Fog"
"-52.75","47.62","ST. JOHN'S INTL A","8403505","2022-04-08 02:30","2022","04","08","02:30","-0.1","","-0.3","","98","","","","1","","26","","4.8","","100.21","","","","-6","","Snow Showers,Fog"
"-52.75","47.62","ST. JOHN'S INTL A","8403505","2022-04-08 03:30","2022","04","08","03:30","-0.3","","-0.5","","99","","","","2","","26","","4.8","","100.27","","","","-6","","Snow Showers,Fog"
"-52.75","47.62","ST. JOHN'S INTL A","8403505","2022-04-08 04:30","2022","04","08","04:30","-0.5","","-0.7","","99","","","","2","","26","","19.3","","100.33","","","","-7","","NA"
"-52.75","47.62","ST. JOHN'S INTL A","8403505","2022-04-08 05:30","2022","04","08","05:30","-0.5","","-0.9","","97","","","","1","","25","","19.3","","100.41","","","","-7","","Cloudy"
"-52.75","47.62","ST. JOHN'S INTL A","8403505","2022-04-08 06:30","2022","04","08","06:30","-0.3","","-0.9","","96","","","","1","","23","","19.3","","100.56","","","","-6","","NA"
"-52.75","47.62","ST. JOHN'S INTL A","8403505","2022-04-08 07:30","2022","04","08","07:30","0.1","","-0.6","","95","","","","3","","18","","24.1","","100.53","","","","","","NA"
"-52.75","47.62","ST. JOHN'S INTL A","8403505","2022-04-08 08:30","2022","04","08","08:30","1.3","","-0.5","","88","","","","36","","17","","24.1","","100.60","","","","","","Cloudy"
"-52.75","47.62","ST. JOHN'S INTL A","8403505","2022-04-08 09:30","2022","04","08","09:30","1.9","","0.3","","89","","","","3","","18","","24.1","","100.65","","","","","","NA"
"-52.75","47.62","ST. JOHN'S INTL A","8403505","2022-04-08 10:30","2022","04","08","10:30","3.6","","0.7","","81","","","","1","","19","","24.1","","100.67","","","","","","NA"
"-52.75","47.62","ST. JOHN'S INTL A","8403505","2022-04-08 11:30","2022","04","08","11:30","3.2","","0.0","","80","","","","36","","20","","24.1","","100.69","","","","","","Mainly Clear"
"-52.75","47.62","ST. JOHN'S INTL A","8403505","2022-04-08 12:30","2022","04","08","12:30","3.1","","0.3","","81","","","","1","","23","","24.1","","100.68","","","","","","NA"
"-52.75","47.62","ST. JOHN'S INTL A","8403505","2022-04-08 13:30","2022","04","08","13:30","1.4","","-0.6","","86","","","","3","","21","","24.1","","100.70","","","","","","NA"
"-52.75","47.62","ST. JOHN'S INTL A","8403505","2022-04-08 14:30","2022","04","08","14:30","1.8","","-0.6","","84","","","","2","","22","","24.1","","100.73","","","","","","Cloudy"
"-52.75","47.62","ST. JOHN'S INTL A","8403505","2022-04-08 15:30","2022","04","08","15:30","1.0","","-1.1","","86","","","","1","","18","","24.1","","100.77","","","","","","Snow Showers"
"-52.75","47.62","ST. JOHN'S INTL A","8403505","2022-04-08 16:30","2022","04","08","16:30","0.6","","-1.6","","85","","","","1","","17","","24.1","","100.81","","","","","","NA"
"-52.75","47.62","ST. JOHN'S INTL A","8403505","2022-04-08 17:30","2022","04","08","17:30","-0.1","","-1.9","","88","","","","3","","14","","24.1","","100.84","","","","-4","","Cloudy"
"-52.75","47.62","ST. JOHN'S INTL A","8403505","2022-04-08 18:30","2022","04","08","18:30","-0.5","","-2.4","","87","","","","2","","14","","24.1","","100.83","","","","-5","","NA"
"-52.75","47.62","ST. JOHN'S INTL A","8403505","2022-04-08 19:30","2022","04","08","19:30","-1.1","","-2.5","","90","","","","3","","15","","24.1","","100.86","","","","-6","","NA"
"-52.75","47.62","ST. JOHN'S INTL A","8403505","2022-04-08 20:30","2022","04","08","20:30","-1.3","","-3.0","","88","","","","5","","12","","24.1","","100.85","","","","-5","","Cloudy"
"-52.75","47.62","ST. JOHN'S INTL A","8403505","2022-04-08 21:30","2022","04","08","21:30","-1.9","","-3.5","","88","","","","5","","15","","24.1","","100.83","","","","-7","","NA"
"-52.75","47.62","ST. JOHN'S INTL A","8403505","2022-04-08 22:30","2022","04","08","22:30","-2.1","","-3.6","","89","","","","5","","12","","24.1","","100.80","","","","-6","","NA"
"-52.75","47.62","ST. JOHN'S INTL A","8403505","2022-04-08 23:30","2022","04","08","23:30","-2.4","","-3.9","","89","","","","3","","10","","24.1","","100.82","","","","-6","","Cloudy"
"-52.75","47.62","ST. JOHN'S INTL A","8403505","2022-04-09 00:30","2022","04","09","00:30","-2.7","","-4.1","","90","","","","5","","5","","19.3","","100.78","","","","-5","","Snow"
"-52.75","47.62","ST. JOHN'S INTL A","8403505","2022-04-09 01:30","2022","04","09","01:30","-2.8","","-4.1","","91","","","","5","","8","","16.1","","100.74","","","","-6","","Snow"
"-52.75","47.62","ST. JOHN'S INTL A","8403505","2022-04-09 02:30","2022","04","09","02:30","-2.9","","-4.2","","91","","","","36","","2","","19.3","","100.73","","","","-4","","Snow"
"-52.75","47.62","ST. JOHN'S INTL A","8403505","2022-04-09 03:30","2022","04","09","03:30","-2.9","","-4.1","","91","","","","13","","4","","12.9","","100.68","","","","-4","","Snow"
"-52.75","47.62","ST. JOHN'S INTL A","8403505","2022-04-09 04:30","2022","04","09","04:30","-2.9","","-4.0","","92","","","","14","","8","","12.9","","100.63","","","","-6","","Snow"
"-52.75","47.62","ST. JOHN'S INTL A","8403505","2022-04-09 05:30","2022","04","09","05:30","-3.0","","-4.2","","91","","","","16","","12","","24.1","","100.62","","","","-7","","Snow"
"-52.75","47.62","ST. JOHN'S INTL A","8403505","2022-04-09 06:30","2022","04","09","06:30","-2.6","","-4.0","","90","","","","15","","14","","24.1","","100.60","","","","-7","","Snow"
"-52.75","47.62","ST. JOHN'S INTL A","8403505","2022-04-09 07:30","2022","04","09","07:30","-2.1","","-3.4","","90","","","","16","","19","","24.1","","100.55","","","","-8","","Snow Showers"
"-52.75","47.62","ST. JOHN'S INTL A","8403505","2022-04-09 08:30","2022","04","09","08:30","-1.0","","-3.1","","86","","","","17","","24","","24.1","","100.49","","","","-7","","Snow Showers"
"-52.75","47.62","ST. JOHN'S INTL A","8403505","2022-04-09 09:30","2022","04","09","09:30","0.3","","-2.7","","80","","","","17","","27","","24.1","","100.44","","","","","","NA"
"-52.75","47.62","ST. JOHN'S INTL A","8403505","2022-04-09 10:30","2022","04","09","10:30","0.4","","-3.0","","78","","","","16","","32","","24.1","","100.37","","","","","","NA"
"-52.75","47.62","ST. JOHN'S INTL A","8403505","2022-04-09 11:30","2022","04","09","11:30","0.6","","-2.8","","78","","","","17","","41","","24.1","","100.28","","","","","","Mostly Cloudy"
"-52.75","47.62","ST. JOHN'S INTL A","8403505","2022-04-09 12:30","2022","04","09","12:30","0.6","","-2.3","","81","","","","17","","40","","24.1","","100.12","","","","","","NA"
"-52.75","47.62","ST. JOHN'S INTL A","8403505","2022-04-09 13:30","2022","04","09","13:30","1.2","","-1.7","","81","","","","17","","37","","24.1","","99.98","","","","","","NA"
"-52.75","47.62","ST. JOHN'S INTL A","8403505","2022-04-09 14:30","2022","04","09","14:30","0.1","","-1.9","","86","","","","17","","47","","24.1","","99.97","","","","","","Cloudy"
"-52.75","47.62","ST. JOHN'S INTL A","8403505","2022-04-09 15:30","2022","04","09","15:30","-0.4","","-1.9","","89","","","","17","","35","","24.1","","99.88","","","","-7","","NA"
"-52.75","47.62","ST. JOHN'S INTL A","8403505","2022-04-09 16:30","2022","04","09","16:30","-0.9","","-1.7","","94","","","","16","","30","","24.1","","99.77","","","","-8","","NA"
"-52.75","47.62","ST. JOHN'S INTL A","8403505","2022-04-09 17:30","2022","04","09","17:30","-0.6","","-1.0","","97","","","","14","","26","","2.4","","99.65","","","","-7","","Freezing Rain,Fog"
"-52.75","47.62","ST. JOHN'S INTL A","8403505","2022-04-09 18:30","2022","04","09","18:30","-0.4","","-0.7","","98","","","","16","","32","","4.8","","99.50","","","","-7","","Freezing Rain,Fog"
"-52.75","47.62","ST. JOHN'S INTL A","8403505","2022-04-09 19:30","2022","04","09","19:30","-0.2","","-0.4","","98","","","","16","","26","","4.8","","99.48","","","","-6","","Freezing Rain,Fog"
"-52.75","47.62","ST. JOHN'S INTL A","8403505","2022-04-09 20:30","2022","04","09","20:30","-0.1","","-0.3","","98","","","","16","","33","","6.4","","99.31","","","","-7","","Freezing Rain,Fog"
"-52.75","47.62","ST. JOHN'S INTL A","8403505","2022-04-09 21:30","2022","04","09","21:30","-0.1","","-0.3","","99","","","","15","","32","","4.8","","99.16","","","","-7","","Freezing Rain,Fog"
"-52.75","47.62","ST. JOHN'S INTL A","8403505","2022-04-09 22:30","2022","04","09","22:30","0.0","","-0.2","","99","","","","15","","28","","0.8","","99.03","","","","-6","","Drizzle,Fog"
"-52.75","47.62","ST. JOHN'S INTL A","8403505","2022-04-09 23:30","2022","04","09","23:30","0.2","","0.0","","99","","","","15","","20","","0.8","","98.85","","","","","","Drizzle,Fog"
"-52.75","47.62","ST. JOHN'S INTL A","8403505","2022-04-10 00:30","2022","04","10","00:30","0.4","","0.3","","99","","","","17","","28","","0.8","","98.58","","","","","","Rain,Fog"
"-52.75","47.62","ST. JOHN'S INTL A","8403505","2022-04-10 01:30","2022","04","10","01:30","0.4","","0.3","","99","","","","17","","35","","0.8","","98.38","","","","","","Rain,Fog"
"-52.75","47.62","ST. JOHN'S INTL A","8403505","2022-04-10 02:30","2022","04","10","02:30","1.3","","1.3","","100","","","","16","","10","","2.0","","98.30","","","","","","Rain,Fog"
"-52.75","47.62","ST. JOHN'S INTL A","8403505","2022-04-10 03:30","2022","04","10","03:30","2.5","","2.4","","100","","","","21","","10","","0.8","","98.15","","","","","","Rain,Fog"
"-52.75","47.62","ST. JOHN'S INTL A","8403505","2022-04-10 04:30","2022","04","10","04:30","6.3","","6.3","","100","","","","27","","21","","24.1","","98.10","","","","","","NA"
"-52.75","47.62","ST. JOHN'S INTL A","8403505","2022-04-10 05:30","2022","04","10","05:30","3.9","","3.8","","99","","","","29","","26","","0.8","","98.12","","","","","","Drizzle,Fog"
"-52.75","47.62","ST. JOHN'S INTL A","8403505","2022-04-10 06:30","2022","04","10","06:30","3.4","","3.3","","100","","","","29","","28","","0.4","","98.20","","","","","","Drizzle,Fog"
"-52.75","47.62","ST. JOHN'S INTL A","8403505","2022-04-10 07:30","2022","04","10","07:30","3.9","","3.8","","100","","","","30","","27","","0.8","","98.28","","","","","","Drizzle,Fog"
"-52.75","47.62","ST. JOHN'S INTL A","8403505","2022-04-10 08:30","2022","04","10","08:30","3.2","","3.2","","100","","","","30","","24","","2.0","","98.38","","","","","","Fog"
"-52.75","47.62","ST. JOHN'S INTL A","8403505","2022-04-10 09:30","2022","04","10","09:30","3.5","","3.4","","99","","","","30","","27","","24.1","","98.41","","","","","","NA"
"-52.75","47.62","ST. JOHN'S INTL A","8403505","2022-04-10 10:30","2022","04","10","10:30","4.1","","3.2","","94","","","","29","","22","","24.1","","98.42","","","","","","NA"
"-52.75","47.62","ST. JOHN'S INTL A","8403505","2022-04-10 11:30","2022","04","10","11:30","6.6","","4.8","","88","","","","29","","16","","24.1","","98.43","","","","","","Mostly Cloudy"
"-52.75","47.62","ST. JOHN'S INTL A","8403505","2022-04-10 12:30","2022","04","10","12:30","6.4","","4.3","","87","","","","24","","13","","24.1","","98.43","","","","","","NA"
"-52.75","47.62","ST. JOHN'S INTL A","8403505","2022-04-10 13:30","2022","04","10","13:30","6.0","","4.2","","88","","","","5","","4","","24.1","","98.39","","","","","","NA"
"-52.75","47.62","ST. JOHN'S INTL A","8403505","2022-04-10 14:30","2022","04","10","14:30","4.4","","2.5","","87","","","","7","","14","","24.1","","98.21","","","","","","Mostly Cloudy"
"-52.75","47.62","ST. JOHN'S INTL A","8403505","2022-04-10 15:30","2022","04","10","15:30","2.8","","1.5","","91","","","","6","","16","","24.1","","98.11","","","","","","NA"
"-52.75","47.62","ST. JOHN'S INTL A","8403505","2022-04-10 16:30","2022","04","10","16:30","1.8","","1.5","","97","","","","10","","12","","4.8","","98.06","","","","","","Rain,Fog"
"-52.75","47.62","ST. JOHN'S INTL A","8403505","2022-04-10 17:30","2022","04","10","17:30","1.6","","1.3","","98","","","","6","","15","","0.4","","98.03","","","","","","Rain,Fog"
"-52.75","47.62","ST. JOHN'S INTL A","8403505","2022-04-10 18:30","2022","04","10","18:30","0.6","","0.5","","99","","","","8","","16","","0.6","","97.87","","","","","","Rain,Fog"
"-52.75","47.62","ST. JOHN'S INTL A","8403505","2022-04-10 19:30","2022","04","10","19:30","0.1","","0.0","","99","","","","9","","15","","2.4","","97.87","","","","","","Moderate Rain,Fog"
"-52.75","47.62","ST. JOHN'S INTL A","8403505","2022-04-10 20:30","2022","04","10","20:30","-0.6","","-0.7","","99","","","","10","","29","","2.0","","97.52","","","","-7","","Freezing Rain,Fog"
"-52.75","47.62","ST. JOHN'S INTL A","8403505","2022-04-10 21:30","2022","04","10","21:30","-0.8","","-0.9","","99","","","","11","","28","","0.4","","97.33","","","","-7","","Freezing Rain,Freezing Fog"
"-52.75","47.62","ST. JOHN'S INTL A","8403505","2022-04-10 22:30","2022","04","10","22:30","-0.6","","-0.7","","99","","","","11","","24","","2.0","","97.15","","","","-7","","Freezing Rain,Fog"
"-52.75","47.62","ST. JOHN'S INTL A","8403505","2022-04-10 23:30","2022","04","10","23:30","-0.5","","-0.6","","99","","","","10","","20","","0.4","","96.95","","","","-6","","Freezing Drizzle,Freezing Fog"
"-52.75","47.62","ST. JOHN'S INTL A","8403505","2022-04-11 00:30","2022","04","11","00:30","-0.8","","-0.8","","99","","","","5","","20","","0.6","","96.85","","","","-6","","Freezing Drizzle,Freezing Fog"
"-52.75","47.62","ST. JOHN'S INTL A","8403505","2022-04-11 01:30","2022","04","11","01:30","-1.0","","-1.1","","100","","","","5","","23","","0.6","","96.65","","","","-7","","Freezing Drizzle,Freezing Fog"
"-52.75","47.62","ST. JOHN'S INTL A","8403505","2022-04-11 02:30","2022","04","11","02:30","-1.1","","-1.1","","100","","","","3","","17","","0.6","","96.60","","","","-6","","Freezing Drizzle,Freezing Fog"
"-52.75","47.62","ST. JOHN'S INTL A","8403505","2022-04-11 03:30","2022","04","11","03:30","-1.1","","-1.1","","100","","","","1","","11","","1.6","","96.56","","","","-5","","Fog"
"-52.75","47.62","ST. JOHN'S INTL A","8403505","2022-04-11 04:30","2022","04","11","04:30","-1.2","","-1.3","","100","","","","2","","10","","1.2","","96.49","","","","-5","","Fog"
"-52.75","47.62","ST. JOHN'S INTL A","8403505","2022-04-11 05:30","2022","04","11","05:30","-1.1","","-1.2","","100","","","","36","","7","","0.6","","96.48","","","","-4","","Freezing Fog"
"-52.75","47.62","ST. JOHN'S INTL A","8403505","2022-04-11 06:30","2022","04","11","06:30","-0.7","","-0.7","","100","","","","24","","9","","4.0","","96.47","","","","-4","","Fog"
"-52.75","47.62","ST. JOHN'S INTL A","8403505","2022-04-11 07:30","2022","04","11","07:30","0.2","","0.1","","100","","","","26","","11","","12.9","","96.49","","","","","","NA"
"-52.75","47.62","ST. JOHN'S INTL A","8403505","2022-04-11 08:30","2022","04","11","08:30","-0.2","","-0.3","","100","","","","30","","15","","3.2","","96.47","","","","-5","","Freezing Drizzle,Fog"
"-52.75","47.62","ST. JOHN'S INTL A","8403505","2022-04-11 09:30","2022","04","11","09:30","0.7","","0.6","","99","","","","29","","16","","4.0","","96.46","","","","","","Drizzle,Fog"
"-52.75","47.62","ST. JOHN'S INTL A","8403505","2022-04-11 10:30","2022","04","11","10:30","1.0","","0.7","","98","","","","30","","22","","4.0","","96.43","","","","","","Drizzle,Fog"
"-52.75","47.62","ST. JOHN'S INTL A","8403505","2022-04-11 11:30","2022","04","11","11:30","1.1","","0.5","","96","","","","32","","23","","4.0","","96.41","","","","","","Drizzle,Fog"
"-52.75","47.62","ST. JOHN'S INTL A","8403505","2022-04-11 12:30","2022","04","11","12:30","1.5","","1.1","","97","","","","32","","26","","4.0","","96.39","","","","","","Drizzle,Fog"
"-52.75","47.62","ST. JOHN'S INTL A","8403505","2022-04-11 13:30","2022","04","11","13:30","1.7","","1.0","","96","","","","32","","29","","12.9","","96.42","","","","","","Drizzle"
"-52.75","47.62","ST. JOHN'S INTL A","8403505","2022-04-11 14:30","2022","04","11","14:30","1.4","","0.6","","94","","","","32","","36","","12.9","","96.49","","","","","","Drizzle"
"-52.75","47.62","ST. JOHN'S INTL A","8403505","2022-04-11 15:30","2022","04","11","15:30","1.7","","0.6","","92","","","","32","","32","","24.1","","96.57","","","","","","Drizzle"
"-52.75","47.62","ST. JOHN'S INTL A","8403505","2022-04-11 16:30","2022","04","11","16:30","1.1","","0.2","","94","","","","31","","41","","12.9","","96.66","","","","","","Snow Showers"
"-52.75","47.62","ST. JOHN'S INTL A","8403505","2022-04-11 17:30","2022","04","11","17:30","0.6","","-0.1","","95","","","","32","","39","","8.1","","96.76","","","","","","Snow Showers"
"-52.75","47.62","ST. JOHN'S INTL A","8403505","2022-04-11 18:30","2022","04","11","18:30","0.4","","-0.4","","94","","","","31","","43","","4.0","","96.85","","","","","","Snow"
"-52.75","47.62","ST. JOHN'S INTL A","8403505","2022-04-11 19:30","2022","04","11","19:30","0.5","","-0.7","","92","","","","31","","35","","24.1","","96.97","","","","","","Snow"
"-52.75","47.62","ST. JOHN'S INTL A","8403505","2022-04-11 20:30","2022","04","11","20:30","0.5","","-0.7","","92","","","","31","","37","","24.1","","97.04","","","","","","Snow"
"-52.75","47.62","ST. JOHN'S INTL A","8403505","2022-04-11 21:30","2022","04","11","21:30","0.4","","-0.7","","92","","","","31","","35","","24.1","","97.09","","","","","","Snow"
"-52.75","47.62","ST. JOHN'S INTL A","8403505","2022-04-11 22:30","2022","04","11","22:30","0.5","","-0.7","","92","","","","32","","42","","24.1","","97.15","","","","","","Snow"
"-52.75","47.62","ST. JOHN'S INTL A","8403505","2022-04-11 23:30","2022","04","11","23:30","0.4","","-0.8","","91","","","","33","","49","","24.1","","97.18","","","","","","Snow"
"-52.75","47.62","ST. JOHN'S INTL A","8403505","2022-04-12 00:30","2022","04","12","00:30","0.4","","-1.0","","90","","","","33","","49","","24.1","","97.27","","","","","","Snow"
"-52.75","47.62","ST. JOHN'S INTL A","8403505","2022-04-12 01:30","2022","04","12","01:30","0.4","","-1.3","","88","","","","34","","48","","24.1","","97.32","","","","","","Snow"
"-52.75","47.62","ST. JOHN'S INTL A","8403505","2022-04-12 02:30","2022","04","12","02:30","0.2","","-1.2","","91","","","","33","","53","","19.3","","97.43","","","","","","Snow"
"-52.75","47.62","ST. JOHN'S INTL A","8403505","2022-04-12 03:30","2022","04","12","03:30","0.1","","-1.5","","89","","","","34","","50","","24.1","","97.50","","","","","","Snow"
"-52.75","47.62","ST. JOHN'S INTL A","8403505","2022-04-12 04:30","2022","04","12","04:30","-0.3","","-1.4","","93","","","","34","","45","","9.7","","97.62","","","","-8","","Snow"
"-52.75","47.62","ST. JOHN'S INTL A","8403505","2022-04-12 05:30","2022","04","12","05:30","-0.3","","-1.7","","90","","","","33","","50","","6.4","","97.76","","","","-9","","Snow,Blowing Snow"
"-52.75","47.62","ST. JOHN'S INTL A","8403505","2022-04-12 06:30","2022","04","12","06:30","0.0","","-2.6","","83","","","","33","","52","","24.1","","97.91","","","","-8","","NA"
"-52.75","47.62","ST. JOHN'S INTL A","8403505","2022-04-12 07:30","2022","04","12","07:30","0.1","","-2.4","","83","","","","33","","45","","24.1","","97.97","","","","","","NA"
"-52.75","47.62","ST. JOHN'S INTL A","8403505","2022-04-12 08:30","2022","04","12","08:30","0.4","","-2.0","","83","","","","32","","38","","24.1","","97.99","","","","","","Cloudy"
"-52.75","47.62","ST. JOHN'S INTL A","8403505","2022-04-12 09:30","2022","04","12","09:30","0.7","","-1.7","","84","","","","32","","49","","24.1","","98.03","","","","","","Drizzle"
"-52.75","47.62","ST. JOHN'S INTL A","8403505","2022-04-12 10:30","2022","04","12","10:30","1.8","","-1.5","","79","","","","32","","50","","24.1","","97.99","","","","","","NA"
"-52.75","47.62","ST. JOHN'S INTL A","8403505","2022-04-12 11:30","2022","04","12","11:30","1.6","","-1.6","","79","","","","32","","51","","24.1","","98.05","","","","","","Cloudy"
"-52.75","47.62","ST. JOHN'S INTL A","8403505","2022-04-12 12:30","2022","04","12","12:30","1.4","","-1.2","","83","","","","32","","47","","24.1","","98.10","","","","","","NA"
"-52.75","47.62","ST. JOHN'S INTL A","8403505","2022-04-12 13:30","2022","04","12","13:30","2.3","","-0.9","","79","","","","32","","43","","24.1","","98.09","","","","","","NA"
"-52.75","47.62","ST. JOHN'S INTL A","8403505","2022-04-12 14:30","2022","04","12","14:30","2.3","","-0.9","","79","","","","32","","41","","24.1","","98.15","","","","","","Cloudy"
"-52.75","47.62","ST. JOHN'S INTL A","8403505","2022-04-12 15:30","2022","04","12","15:30","2.6","","-0.6","","79","","","","31","","41","","24.1","","98.18","","","","","","NA"
"-52.75","47.62","ST. JOHN'S INTL A","8403505","2022-04-12 16:30","2022","04","12","16:30","2.7","","-0.8","","78","","","","32","","43","","24.1","","98.22","","","","","","NA"
"-52.75","47.62","ST. JOHN'S INTL A","8403505","2022-04-12 17:30","2022","04","12","17:30","2.6","","-1.0","","77","","","","32","","44","","24.1","","98.23","","","","","","Cloudy"
"-52.75","47.62","ST. JOHN'S INTL A","8403505","2022-04-12 18:30","2022","04","12","18:30","2.6","","-1.3","","75","","","","33","","36","","24.1","","98.30","","","","","","NA"
"-52.75","47.62","ST. JOHN'S INTL A","8403505","2022-04-12 19:30","2022","04","12","19:30","2.4","","-1.3","","77","","","","32","","40","","24.1","","98.36","","","","","","NA"
"-52.75","47.62","ST. JOHN'S INTL A","8403505","2022-04-12 20:30","2022","04","12","20:30","1.9","","-0.9","","81","","","","32","","40","","24.1","","98.41","","","","","","Mostly Cloudy"
"-52.75","47.62","ST. JOHN'S INTL A","8403505","2022-04-12 21:30","2022","04","12","21:30","1.7","","-1.1","","82","","","","32","","39","","24.1","","98.40","","","","","","NA"
"-52.75","47.62","ST. JOHN'S INTL A","8403505","2022-04-12 22:30","2022","04","12","22:30","1.1","","-1.2","","85","","","","32","","42","","24.1","","98.38","","","","","","NA"
"-52.75","47.62","ST. JOHN'S INTL A","8403505","2022-04-12 23:30","2022","04","12","23:30","0.7","","-1.2","","87","","","","32","","37","","24.1","","98.41","","","","","","Cloudy"
"-52.75","47.62","ST. JOHN'S INTL A","8403505","2022-04-13 00:30","2022","04","13","00:30","0.4","","-1.2","","89","","","","32","","28","","24.1","","98.41","","","","","","Snow Showers"
"-52.75","47.62","ST. JOHN'S INTL A","8403505","2022-04-13 01:30","2022","04","13","01:30","0.2","","-0.8","","93","","","","33","","29","","24.1","","98.40","","","","","","Snow Showers"
"-52.75","47.62","ST. JOHN'S INTL A","8403505","2022-04-13 02:30","2022","04","13","02:30","0.2","","-0.7","","94","","","","32","","34","","24.1","","98.38","","","","","","Snow Showers"
"-52.75","47.62","ST. JOHN'S INTL A","8403505","2022-04-13 03:30","2022","04","13","03:30","0.2","","-0.7","","94","","","","33","","29","","24.1","","98.39","","","","","","Snow Showers"
"-52.75","47.62","ST. JOHN'S INTL A","8403505","2022-04-13 04:30","2022","04","13","04:30","0.2","","-0.7","","94","","","","33","","27","","24.1","","98.39","","","","","","NA"
"-52.75","47.62","ST. JOHN'S INTL A","8403505","2022-04-13 05:30","2022","04","13","05:30","0.4","","-0.7","","92","","","","32","","33","","24.1","","98.42","","","","","","Cloudy"
"-52.75","47.62","ST. JOHN'S INTL A","8403505","2022-04-13 06:30","2022","04","13","06:30","0.6","","-0.9","","90","","","","33","","33","","24.1","","98.49","","","","","","NA"
"-52.75","47.62","ST. JOHN'S INTL A","8403505","2022-04-13 07:30","2022","04","13","07:30","0.4","","-0.7","","92","","","","34","","28","","9.7","","98.50","","","","","","Drizzle,Fog"
"-52.75","47.62","ST. JOHN'S INTL A","8403505","2022-04-13 08:30","2022","04","13","08:30","0.6","","0.0","","96","","","","34","","30","","6.4","","98.48","","","","","","Drizzle,Fog"
"-52.75","47.62","ST. JOHN'S INTL A","8403505","2022-04-13 09:30","2022","04","13","09:30","0.6","","-0.1","","95","","","","34","","36","","12.9","","98.50","","","","","","Drizzle"
"-52.75","47.62","ST. JOHN'S INTL A","8403505","2022-04-13 10:30","2022","04","13","10:30","0.4","","-0.2","","96","","","","34","","27","","16.1","","98.51","","","","","","Drizzle"
"-52.75","47.62","ST. JOHN'S INTL A","8403505","2022-04-13 11:30","2022","04","13","11:30","0.6","","0.1","","96","","","","34","","31","","2.4","","98.53","","","","","","Drizzle,Fog"
"-52.75","47.62","ST. JOHN'S INTL A","8403505","2022-04-13 12:30","2022","04","13","12:30","1.0","","0.5","","96","","","","34","","32","","3.2","","98.52","","","","","","Drizzle,Fog"
"-52.75","47.62","ST. JOHN'S INTL A","8403505","2022-04-13 13:30","2022","04","13","13:30","0.9","","0.5","","97","","","","34","","24","","2.4","","98.55","","","","","","Drizzle,Fog"
"-52.75","47.62","ST. JOHN'S INTL A","8403505","2022-04-13 14:30","2022","04","13","14:30","0.9","","0.4","","97","","","","34","","33","","3.2","","98.56","","","","","","Drizzle,Fog"
"-52.75","47.62","ST. JOHN'S INTL A","8403505","2022-04-13 15:30","2022","04","13","15:30","0.6","","0.1","","97","","","","35","","31","","2.4","","98.61","","","","","","Rain,Snow,Fog"
"-52.75","47.62","ST. JOHN'S INTL A","8403505","2022-04-13 16:30","2022","04","13","16:30","0.0","","-0.5","","96","","","","35","","30","","2.4","","98.68","","","","-6","","Rain,Snow,Fog"
"-52.75","47.62","ST. JOHN'S INTL A","8403505","2022-04-13 17:30","2022","04","13","17:30","-0.2","","-0.7","","96","","","","34","","29","","8.1","","98.75","","","","-7","","Snow,Fog"
"-52.75","47.62","ST. JOHN'S INTL A","8403505","2022-04-13 18:30","2022","04","13","18:30","-0.5","","-1.1","","95","","","","35","","36","","6.4","","98.82","","","","-8","","Snow,Fog"
"-52.75","47.62","ST. JOHN'S INTL A","8403505","2022-04-13 19:30","2022","04","13","19:30","-0.6","","-1.3","","95","","","","35","","28","","6.4","","98.91","","","","-7","","Snow,Fog"
"-52.75","47.62","ST. JOHN'S INTL A","8403505","2022-04-13 20:30","2022","04","13","20:30","-0.7","","-1.5","","94","","","","35","","31","","9.7","","99.00","","","","-7","","Fog"
"-52.75","47.62","ST. JOHN'S INTL A","8403505","2022-04-13 21:30","2022","04","13","21:30","-0.8","","-1.7","","93","","","","36","","30","","12.9","","99.05","","","","-8","","Freezing Drizzle"
"-52.75","47.62","ST. JOHN'S INTL A","8403505","2022-04-13 22:30","2022","04","13","22:30","-0.9","","-1.7","","94","","","","35","","33","","19.3","","99.08","","","","-8","","NA"
"-52.75","47.62","ST. JOHN'S INTL A","8403505","2022-04-13 23:30","2022","04","13","23:30","-1.0","","-1.9","","94","","","","36","","37","","19.3","","99.09","","","","-8","","Cloudy"
"-52.75","47.62","ST. JOHN'S INTL A","8403505","2022-04-14 00:30","2022","04","14","00:30","-1.0","","-2.4","","91","","","","36","","30","","24.1","","99.15","","","","-8","","NA"
"-52.75","47.62","ST. JOHN'S INTL A","8403505","2022-04-14 01:30","2022","04","14","01:30","-0.9","","-2.4","","89","","","","35","","39","","24.1","","99.16","","","","-9","","NA"
"-52.75","47.62","ST. JOHN'S INTL A","8403505","2022-04-14 02:30","2022","04","14","02:30","-1.0","","-2.6","","89","","","","35","","28","","24.1","","99.22","","","","-8","","Cloudy"
"-52.75","47.62","ST. JOHN'S INTL A","8403505","2022-04-14 03:30","2022","04","14","03:30","-1.0","","-2.8","","88","","","","34","","28","","24.1","","99.29","","","","-8","","NA"
"-52.75","47.62","ST. JOHN'S INTL A","8403505","2022-04-14 04:30","2022","04","14","04:30","-0.9","","-2.8","","87","","","","33","","37","","24.1","","99.36","","","","-8","","NA"
"-52.75","47.62","ST. JOHN'S INTL A","8403505","2022-04-14 05:30","2022","04","14","05:30","-0.9","","-3.1","","85","","","","33","","28","","24.1","","99.42","","","","-7","","Mostly Cloudy"
"-52.75","47.62","ST. JOHN'S INTL A","8403505","2022-04-14 06:30","2022","04","14","06:30","-0.8","","-3.3","","83","","","","34","","25","","24.1","","99.46","","","","-7","","NA"
"-52.75","47.62","ST. JOHN'S INTL A","8403505","2022-04-14 07:30","2022","04","14","07:30","-0.5","","-3.9","","77","","","","35","","39","","24.1","","99.46","","","","-8","","NA"
"-52.75","47.62","ST. JOHN'S INTL A","8403505","2022-04-14 08:30","2022","04","14","08:30","0.0","","-4.0","","75","","","","36","","35","","24.1","","99.48","","","","-7","","Mostly Cloudy"
"-52.75","47.62","ST. JOHN'S INTL A","8403505","2022-04-14 09:30","2022","04","14","09:30","0.3","","-4.3","","71","","","","36","","41","","24.1","","99.54","","","","","","NA"
"-52.75","47.62","ST. JOHN'S INTL A","8403505","2022-04-14 10:30","2022","04","14","10:30","1.1","","-3.6","","71","","","","35","","39","","24.1","","99.58","","","","","","NA"
"-52.75","47.62","ST. JOHN'S INTL A","8403505","2022-04-14 11:30","2022","04","14","11:30","1.1","","-3.9","","70","","","","35","","40","","24.1","","99.62","","","","","","Mostly Cloudy"
"-52.75","47.62","ST. JOHN'S INTL A","8403505","2022-04-14 12:30","2022","04","14","12:30","1.8","","-4.0","","65","","","","35","","44","","24.1","","99.66","","","","","","NA"
"-52.75","47.62","ST. JOHN'S INTL A","8403505","2022-04-14 13:30","2022","04","14","13:30","1.5","","-4.2","","66","","","","1","","43","","24.1","","99.70","","","","","","NA"
"-52.75","47.62","ST. JOHN'S INTL A","8403505","2022-04-14 14:30","2022","04","14","14:30","2.1","","-3.8","","65","","","","36","","33","","24.1","","99.74","","","","","","Mostly Cloudy"
"-52.75","47.62","ST. JOHN'S INTL A","8403505","2022-04-14 15:30","2022","04","14","15:30","1.9","","-4.3","","63","","","","35","","29","","24.1","","99.76","","","","","","NA"
"-52.75","47.62","ST. JOHN'S INTL A","8403505","2022-04-14 16:30","2022","04","14","16:30","1.1","","-4.2","","67","","","","35","","30","","24.1","","99.83","","","","","","NA"
"-52.75","47.62","ST. JOHN'S INTL A","8403505","2022-04-14 17:30","2022","04","14","17:30","0.3","","-5.1","","67","","","","36","","33","","24.1","","99.90","","","","","","Mainly Clear"
"-52.75","47.62","ST. JOHN'S INTL A","8403505","2022-04-14 18:30","2022","04","14","18:30","-0.9","","-5.1","","73","","","","36","","23","","24.1","","99.99","","","","-7","","NA"
"-52.75","47.62","ST. JOHN'S INTL A","8403505","2022-04-14 19:30","2022","04","14","19:30","-2.1","","-4.2","","85","","","","2","","20","","24.1","","100.06","","","","-8","","NA"
"-52.75","47.62","ST. JOHN'S INTL A","8403505","2022-04-14 20:30","2022","04","14","20:30","-2.2","","-4.7","","83","","","","2","","21","","24.1","","100.12","","","","-8","","Mainly Clear"
"-52.75","47.62","ST. JOHN'S INTL A","8403505","2022-04-14 21:30","2022","04","14","21:30","-2.5","","-4.7","","85","","","","2","","17","","24.1","","100.14","","","","-8","","NA"
"-52.75","47.62","ST. JOHN'S INTL A","8403505","2022-04-14 22:30","2022","04","14","22:30","-2.8","","-5.1","","84","","","","2","","15","","24.1","","100.17","","","","-8","","NA"
"-52.75","47.62","ST. JOHN'S INTL A","8403505","2022-04-14 23:30","2022","04","14","23:30","-3.5","","-5.3","","87","","","","33","","12","","24.1","","100.22","","","","-8","","Mostly Cloudy"
"-52.75","47.62","ST. JOHN'S INTL A","8403505","2022-04-15 00:30","2022","04","15","00:30","-2.4","","-4.7","","84","","","","35","","16","","24.1","","100.26","","","","-8","","NA"
"-52.75","47.62","ST. JOHN'S INTL A","8403505","2022-04-15 01:30","2022","04","15","01:30","-2.1","","-5.0","","81","","","","35","","22","","24.1","","100.29","","","","-8","","NA"
"-52.75","47.62","ST. JOHN'S INTL A","8403505","2022-04-15 02:30","2022","04","15","02:30","-3.0","","-5.5","","83","","","","35","","15","","24.1","","100.34","","","","-8","","Mainly Clear"
"-52.75","47.62","ST. JOHN'S INTL A","8403505","2022-04-15 03:30","2022","04","15","03:30","-4.7","","-6.4","","88","","","","32","","12","","24.1","","100.37","","","","-9","","NA"
"-52.75","47.62","ST. JOHN'S INTL A","8403505","2022-04-15 04:30","2022","04","15","04:30","-5.1","","-6.1","","92","","","","29","","14","","24.1","","100.40","","","","-10","","NA"
"-52.75","47.62","ST. JOHN'S INTL A","8403505","2022-04-15 05:30","2022","04","15","05:30","-4.9","","-5.8","","93","","","","30","","11","","24.1","","100.48","","","","-9","","Mainly Clear"
"-52.75","47.62","ST. JOHN'S INTL A","8403505","2022-04-15 06:30","2022","04","15","06:30","-2.2","","-3.9","","89","","","","31","","13","","24.1","","100.52","","","","-7","","NA"
"-52.75","47.62","ST. JOHN'S INTL A","8403505","2022-04-15 07:30","2022","04","15","07:30","-0.7","","-4.4","","76","","","","31","","18","","24.1","","100.58","","","","-6","","NA"
"-52.75","47.62","ST. JOHN'S INTL A","8403505","2022-04-15 08:30","2022","04","15","08:30","0.2","","-5.2","","67","","","","2","","4","","24.1","","100.58","","","","","","Mainly Clear"
"-52.75","47.62","ST. JOHN'S INTL A","8403505","2022-04-15 09:30","2022","04","15","09:30","1.4","","-5.1","","62","","","","30","","14","","24.1","","100.64","","","","","","NA"
"-52.75","47.62","ST. JOHN'S INTL A","8403505","2022-04-15 10:30","2022","04","15","10:30","2.4","","-5.3","","57","","","","33","","11","","24.1","","100.67","","","","","","NA"
"-52.75","47.62","ST. JOHN'S INTL A","8403505","2022-04-15 11:30","2022","04","15","11:30","4.7","","-4.7","","51","","","","31","","10","","24.1","","100.67","","","","","","Mainly Clear"
"-52.75","47.62","ST. JOHN'S INTL A","8403505","2022-04-15 12:30","2022","04","15","12:30","4.5","","-4.5","","52","","","","17","","16","","24.1","","100.65","","","","","","NA"
"-52.75","47.62","ST. JOHN'S INTL A","8403505","2022-04-15 13:30","2022","04","15","13:30","3.5","","-5.1","","53","","","","13","","17","","24.1","","100.63","","","","","","NA"
"-52.75","47.62","ST. JOHN'S INTL A","8403505","2022-04-15 14:30","2022","04","15","14:30","5.1","","-3.2","","55","","","","13","","18","","24.1","","100.59","","","","","","Mainly Clear"
"-52.75","47.62","ST. JOHN'S INTL A","8403505","2022-04-15 15:30","2022","04","15","15:30","5.0","","-2.7","","57","","","","15","","14","","24.1","","100.57","","","","","","NA"
"-52.75","47.62","ST. JOHN'S INTL A","8403505","2022-04-15 16:30","2022","04","15","16:30","7.0","","-3.3","","48","","","","20","","22","","24.1","","100.55","","","","","","NA"
"-52.75","47.62","ST. JOHN'S INTL A","8403505","2022-04-15 17:30","2022","04","15","17:30","5.6","","-3.2","","53","","","","22","","16","","24.1","","100.60","","","","","","Mainly Clear"
"-52.75","47.62","ST. JOHN'S INTL A","8403505","2022-04-15 18:30","2022","04","15","18:30","4.3","","-3.1","","59","","","","23","","16","","24.1","","100.59","","","","","","NA"
"-52.75","47.62","ST. JOHN'S INTL A","8403505","2022-04-15 19:30","2022","04","15","19:30","2.6","","-2.6","","68","","","","24","","15","","24.1","","100.60","","","","","","NA"
"-52.75","47.62","ST. JOHN'S INTL A","8403505","2022-04-15 20:30","2022","04","15","20:30","1.7","","-2.7","","73","","","","23","","16","","24.1","","100.57","","","","","","Mainly Clear"
"-52.75","47.62","ST. JOHN'S INTL A","8403505","2022-04-15 21:30","2022","04","15","21:30","1.3","","-3.9","","68","","","","20","","15","","24.1","","100.53","","","","","","NA"
"-52.75","47.62","ST. JOHN'S INTL A","8403505","2022-04-15 22:30","2022","04","15","22:30","2.2","","-3.1","","68","","","","20","","19","","24.1","","100.48","","","","","","NA"
"-52.75","47.62","ST. JOHN'S INTL A","8403505","2022-04-15 23:30","2022","04","15","23:30","1.2","","-2.1","","79","","","","21","","22","","24.1","","100.45","","","","","","Cloudy"
"-52.75","47.62","ST. JOHN'S INTL A","8403505","2022-04-16 00:30","2022","04","16","00:30","1.2","","-2.0","","79","","","","20","","35","","24.1","","100.30","","","","","","NA"
"-52.75","47.62","ST. JOHN'S INTL A","8403505","2022-04-16 01:30","2022","04","16","01:30","1.2","","-2.7","","75","","","","19","","27","","24.1","","100.20","","","","","","NA"
"-52.75","47.62","ST. JOHN'S INTL A","8403505","2022-04-16 02:30","2022","04","16","02:30","0.9","","-2.4","","79","","","","18","","34","","24.1","","100.07","","","","","","Cloudy"
"-52.75","47.62","ST. JOHN'S INTL A","8403505","2022-04-16 03:30","2022","04","16","03:30","0.4","","-1.3","","88","","","","18","","37","","24.1","","99.95","","","","","","Rain"
"-52.75","47.62","ST. JOHN'S INTL A","8403505","2022-04-16 04:30","2022","04","16","04:30","0.2","","-1.0","","92","","","","17","","40","","24.1","","99.83","","","","","","Rain"
"-52.75","47.62","ST. JOHN'S INTL A","8403505","2022-04-16 05:30","2022","04","16","05:30","0.2","","-0.7","","94","","","","17","","53","","12.9","","99.66","","","","","","Rain"
"-52.75","47.62","ST. JOHN'S INTL A","8403505","2022-04-16 06:30","2022","04","16","06:30","0.1","","-0.3","","97","","","","16","","45","","12.9","","99.62","","","","","","Rain"
"-52.75","47.62","ST. JOHN'S INTL A","8403505","2022-04-16 07:30","2022","04","16","07:30","0.3","","0.0","","97","","","","17","","41","","12.9","","99.50","","","","","","Rain"
"-52.75","47.62","ST. JOHN'S INTL A","8403505","2022-04-16 08:30","2022","04","16","08:30","0.7","","0.4","","98","","","","17","","47","","4.0","","99.36","","","","","","Drizzle,Fog"
"-52.75","47.62","ST. JOHN'S INTL A","8403505","2022-04-16 09:30","2022","04","16","09:30","1.6","","1.3","","98","","","","20","","27","","4.0","","99.36","","","","","","Drizzle,Fog"
"-52.75","47.62","ST. JOHN'S INTL A","8403505","2022-04-16 10:30","2022","04","16","10:30","4.2","","3.9","","98","","","","29","","28","","4.0","","99.39","","","","","","Drizzle,Fog"
"-52.75","47.62","ST. JOHN'S INTL A","8403505","2022-04-16 11:30","2022","04","16","11:30","6.6","","5.0","","90","","","","30","","46","","24.1","","99.50","","","","","","Mostly Cloudy"
"-52.75","47.62","ST. JOHN'S INTL A","8403505","2022-04-16 12:30","2022","04","16","12:30","8.9","","4.9","","76","","","","30","","53","","24.1","","99.57","","","","","","NA"
"-52.75","47.62","ST. JOHN'S INTL A","8403505","2022-04-16 13:30","2022","04","16","13:30","11.6","","3.9","","59","","","","29","","45","","24.1","","99.71","","","","","","NA"
"-52.75","47.62","ST. JOHN'S INTL A","8403505","2022-04-16 14:30","2022","04","16","14:30","13.9","","2.1","","45","","","","29","","41","","24.1","","99.79","","","","","","Clear"
"-52.75","47.62","ST. JOHN'S INTL A","8403505","2022-04-16 15:30","2022","04","16","15:30","13.2","","3.2","","50","","","","28","","39","","24.1","","99.87","","","","","","NA"
"-52.75","47.62","ST. JOHN'S INTL A","8403505","2022-04-16 16:30","2022","04","16","16:30","13.2","","0.8","","43","","","","28","","39","","24.1","","99.95","","","","","","NA"
"-52.75","47.62","ST. JOHN'S INTL A","8403505","2022-04-16 17:30","2022","04","16","17:30","11.9","","0.2","","44","","","","26","","35","","24.1","","99.98","","","","","","Mainly Clear"
"-52.75","47.62","ST. JOHN'S INTL A","8403505","2022-04-16 18:30","2022","04","16","18:30","9.7","","-1.0","","47","","","","27","","46","","24.1","","100.03","","","","","","NA"
"-52.75","47.62","ST. JOHN'S INTL A","8403505","2022-04-16 19:30","2022","04","16","19:30","8.3","","-1.8","","49","","","","27","","43","","24.1","","100.17","","","","","","NA"
"-52.75","47.62","ST. JOHN'S INTL A","8403505","2022-04-16 20:30","2022","04","16","20:30","6.8","","-1.7","","55","","","","26","","47","","24.1","","100.24","","","","","","Mainly Clear"
"-52.75","47.62","ST. JOHN'S INTL A","8403505","2022-04-16 21:30","2022","04","16","21:30","6.0","","-1.5","","58","","","","27","","41","","24.1","","100.28","","","","","","NA"
"-52.75","47.62","ST. JOHN'S INTL A","8403505","2022-04-16 22:30","2022","04","16","22:30","5.9","","-0.6","","63","","","","26","","35","","24.1","","100.30","","","","","","NA"
"-52.75","47.62","ST. JOHN'S INTL A","8403505","2022-04-16 23:30","2022","04","16","23:30","6.5","","1.6","","71","","","","26","","36","","24.1","","100.31","","","","","","Mainly Clear"
"-52.75","47.62","ST. JOHN'S INTL A","8403505","2022-04-17 00:30","2022","04","17","00:30","6.9","","2.1","","71","","","","26","","43","","24.1","","100.35","","","","","","NA"
"-52.75","47.62","ST. JOHN'S INTL A","8403505","2022-04-17 01:30","2022","04","17","01:30","6.3","","2.0","","74","","","","27","","32","","24.1","","100.36","","","","","","NA"
"-52.75","47.62","ST. JOHN'S INTL A","8403505","2022-04-17 02:30","2022","04","17","02:30","6.7","","1.3","","68","","","","26","","33","","24.1","","100.37","","","","","","Clear"
"-52.75","47.62","ST. JOHN'S INTL A","8403505","2022-04-17 03:30","2022","04","17","03:30","7.1","","-0.3","","59","","","","26","","32","","24.1","","100.40","","","","","","NA"
"-52.75","47.62","ST. JOHN'S INTL A","8403505","2022-04-17 04:30","2022","04","17","04:30","6.6","","-1.5","","56","","","","25","","19","","24.1","","100.42","","","","","","NA"
"-52.75","47.62","ST. JOHN'S INTL A","8403505","2022-04-17 05:30","2022","04","17","05:30","6.5","","-1.9","","55","","","","24","","15","","24.1","","100.42","","","","","","Mostly Cloudy"
"-52.75","47.62","ST. JOHN'S INTL A","8403505","2022-04-17 06:30","2022","04","17","06:30","7.0","","-1.9","","53","","","","22","","15","","24.1","","100.49","","","","","","NA"
"-52.75","47.62","ST. JOHN'S INTL A","8403505","2022-04-17 07:30","2022","04","17","07:30","6.5","","-1.3","","57","","","","19","","22","","24.1","","100.50","","","","","","NA"
"-52.75","47.62","ST. JOHN'S INTL A","8403505","2022-04-17 08:30","2022","04","17","08:30","7.3","","-1.1","","55","","","","16","","18","","24.1","","100.40","","","","","","Cloudy"
"-52.75","47.62","ST. JOHN'S INTL A","8403505","2022-04-17 09:30","2022","04","17","09:30","8.0","","-2.7","","46","","","","16","","19","","24.1","","100.34","","","","","","NA"
"-52.75","47.62","ST. JOHN'S INTL A","8403505","2022-04-17 10:30","2022","04","17","10:30","8.0","","-2.8","","47","","","","17","","39","","24.1","","100.24","","","","","","NA"
"-52.75","47.62","ST. JOHN'S INTL A","8403505","2022-04-17 11:30","2022","04","17","11:30","8.0","","2.5","","68","","","","19","","43","","24.1","","100.10","","","","","","Mostly Cloudy"
"-52.75","47.62","ST. JOHN'S INTL A","8403505","2022-04-17 12:30","2022","04","17","12:30","8.9","","3.2","","68","","","","17","","50","","24.1","","99.94","","","","","","NA"
"-52.75","47.62","ST. JOHN'S INTL A","8403505","2022-04-17 13:30","2022","04","17","13:30","5.8","","4.3","","90","","","","17","","46","","19.3","","99.83","","","","","","NA"
"-52.75","47.62","ST. JOHN'S INTL A","8403505","2022-04-17 14:30","2022","04","17","14:30","4.8","","4.0","","95","","","","17","","45","","2.4","","99.58","","","","","","Drizzle,Fog"
"-52.75","47.62","ST. JOHN'S INTL A","8403505","2022-04-17 15:30","2022","04","17","15:30","5.0","","4.1","","94","","","","18","","26","","9.7","","99.48","","","","","","Fog"
"-52.75","47.62","ST. JOHN'S INTL A","8403505","2022-04-17 16:30","2022","04","17","16:30","6.7","","5.4","","91","","","","19","","15","","24.1","","99.39","","","","","","NA"
"-52.75","47.62","ST. JOHN'S INTL A","8403505","2022-04-17 17:30","2022","04","17","17:30","7.9","","6.5","","91","","","","22","","17","","24.1","","99.32","","","","","","Cloudy"
"-52.75","47.62","ST. JOHN'S INTL A","8403505","2022-04-17 18:30","2022","04","17","18:30","7.3","","6.5","","94","","","","22","","13","","24.1","","99.29","","","","","","NA"
"-52.75","47.62","ST. JOHN'S INTL A","8403505","2022-04-17 19:30","2022","04","17","19:30","8.7","","8.3","","97","","","","20","","19","","24.1","","99.21","","","","","","NA"
"-52.75","47.62","ST. JOHN'S INTL A","8403505","2022-04-17 20:30","2022","04","17","20:30","11.9","","11.1","","95","","","","23","","38","","24.1","","99.17","","","","","","Cloudy"
"-52.75","47.62","ST. JOHN'S INTL A","8403505","2022-04-17 21:30","2022","04","17","21:30","11.4","","10.7","","95","","","","23","","31","","24.1","","99.11","","","","","","NA"
"-52.75","47.62","ST. JOHN'S INTL A","8403505","2022-04-17 22:30","2022","04","17","22:30","11.1","","10.3","","95","","","","26","","41","","24.1","","99.07","","","","","","NA"
"-52.75","47.62","ST. JOHN'S INTL A","8403505","2022-04-17 23:30","2022","04","17","23:30","9.6","","9.1","","97","","","","26","","27","","16.1","","99.05","","","","","","Rain Showers"
"-52.75","47.62","ST. JOHN'S INTL A","8403505","2022-04-18 00:30","2022","04","18","00:30","7.5","","6.6","","94","","","","26","","40","","19.3","","99.10","","","","","","Rain"
"-52.75","47.62","ST. JOHN'S INTL A","8403505","2022-04-18 01:30","2022","04","18","01:30","7.1","","5.4","","89","","","","26","","35","","24.1","","99.00","","","","","","NA"
"-52.75","47.62","ST. JOHN'S INTL A","8403505","2022-04-18 02:30","2022","04","18","02:30","6.0","","4.5","","90","","","","24","","28","","24.1","","99.05","","","","","","Mostly Cloudy"
"-52.75","47.62","ST. JOHN'S INTL A","8403505","2022-04-18 03:30","2022","04","18","03:30","6.2","","3.6","","83","","","","25","","29","","24.1","","99.07","","","","","","NA"
"-52.75","47.62","ST. JOHN'S INTL A","8403505","2022-04-18 04:30","2022","04","18","04:30","5.0","","3.5","","91","","","","25","","35","","22.5","","99.14","","","","","","NA"
"-52.75","47.62","ST. JOHN'S INTL A","8403505","2022-04-18 05:30","2022","04","18","05:30","3.3","","2.7","","96","","","","26","","36","","19.3","","99.15","","","","","","Rain"
"-52.75","47.62","ST. JOHN'S INTL A","8403505","2022-04-18 06:30","2022","04","18","06:30","2.2","","1.4","","95","","","","26","","28","","19.3","","99.18","","","","","","Rain"
"-52.75","47.62","ST. JOHN'S INTL A","8403505","2022-04-18 07:30","2022","04","18","07:30","1.9","","0.5","","91","","","","25","","26","","24.1","","99.22","","","","","","NA"
"-52.75","47.62","ST. JOHN'S INTL A","8403505","2022-04-18 08:30","2022","04","18","08:30","2.8","","1.0","","88","","","","24","","27","","24.1","","99.25","","","","","","Mostly Cloudy"
"-52.75","47.62","ST. JOHN'S INTL A","8403505","2022-04-18 09:30","2022","04","18","09:30","5.2","","1.6","","78","","","","24","","31","","24.1","","99.21","","","","","","NA"
"-52.75","47.62","ST. JOHN'S INTL A","8403505","2022-04-18 10:30","2022","04","18","10:30","6.7","","1.2","","68","","","","26","","40","","24.1","","99.24","","","","","","NA"
"-52.75","47.62","ST. JOHN'S INTL A","8403505","2022-04-18 11:30","2022","04","18","11:30","7.8","","-1.6","","51","","","","25","","46","","24.1","","99.24","","","","","","Mainly Clear"
"-52.75","47.62","ST. JOHN'S INTL A","8403505","2022-04-18 12:30","2022","04","18","12:30","8.5","","-2.9","","44","","","","26","","49","","24.1","","99.22","","","","","","NA"
"-52.75","47.62","ST. JOHN'S INTL A","8403505","2022-04-18 13:30","2022","04","18","13:30","7.8","","-0.7","","55","","","","26","","43","","24.1","","99.22","","","","","","NA"
"-52.75","47.62","ST. JOHN'S INTL A","8403505","2022-04-18 14:30","2022","04","18","14:30","7.3","","-0.3","","59","","","","27","","45","","24.1","","99.24","","","","","","Mainly Clear"
"-52.75","47.62","ST. JOHN'S INTL A","8403505","2022-04-18 15:30","2022","04","18","15:30","5.5","","-1.0","","63","","","","28","","52","","24.1","","99.35","","","","","","NA"
"-52.75","47.62","ST. JOHN'S INTL A","8403505","2022-04-18 16:30","2022","04","18","16:30","4.1","","-0.9","","70","","","","27","","43","","24.1","","99.54","","","","","","NA"
"-52.75","47.62","ST. JOHN'S INTL A","8403505","2022-04-18 17:30","2022","04","18","17:30","3.9","","-0.2","","75","","","","29","","40","","24.1","","99.78","","","","","","Mostly Cloudy"
"-52.75","47.62","ST. JOHN'S INTL A","8403505","2022-04-18 18:30","2022","04","18","18:30","0.4","","-0.6","","93","","","","36","","29","","3.2","","100.12","","","","","","Rain Showers,Snow Showers,Fog"
"-52.75","47.62","ST. JOHN'S INTL A","8403505","2022-04-18 19:30","2022","04","18","19:30","0.3","","-1.6","","87","","","","35","","26","","24.1","","100.37","","","","","","NA"
"-52.75","47.62","ST. JOHN'S INTL A","8403505","2022-04-18 20:30","2022","04","18","20:30","-0.1","","-2.9","","82","","","","35","","23","","24.1","","100.60","","","","-6","","Mostly Cloudy"
"-52.75","47.62","ST. JOHN'S INTL A","8403505","2022-04-18 21:30","2022","04","18","21:30","0.2","","-2.8","","80","","","","1","","14","","24.1","","100.82","","","","","","NA"
"-52.75","47.62","ST. JOHN'S INTL A","8403505","2022-04-18 22:30","2022","04","18","22:30","0.1","","-2.8","","81","","","","35","","18","","24.1","","100.94","","","","","","NA"
"-52.75","47.62","ST. JOHN'S INTL A","8403505","2022-04-18 23:30","2022","04","18","23:30","-0.4","","-2.7","","84","","","","34","","14","","24.1","","101.04","","","","-5","","Mostly Cloudy"
"-52.75","47.62","ST. JOHN'S INTL A","8403505","2022-04-19 00:30","2022","04","19","00:30","-0.4","","-3.8","","78","","","","35","","24","","24.1","","101.15","","","","-6","","NA"
"-52.75","47.62","ST. JOHN'S INTL A","8403505","2022-04-19 01:30","2022","04","19","01:30","-1.4","","-5.2","","75","","","","35","","22","","24.1","","101.29","","","","-7","","NA"
"-52.75","47.62","ST. JOHN'S INTL A","8403505","2022-04-19 02:30","2022","04","19","02:30","-2.0","","-5.2","","79","","","","35","","21","","24.1","","101.50","","","","-8","","Mainly Clear"
"-52.75","47.62","ST. JOHN'S INTL A","8403505","2022-04-19 03:30","2022","04","19","03:30","-2.5","","-5.4","","80","","","","34","","17","","24.1","","101.67","","","","-8","","NA"
"-52.75","47.62","ST. JOHN'S INTL A","8403505","2022-04-19 04:30","2022","04","19","04:30","-3.0","","-5.6","","83","","","","35","","12","","24.1","","101.71","","","","-7","","NA"
"-52.75","47.62","ST. JOHN'S INTL A","8403505","2022-04-19 05:30","2022","04","19","05:30","-3.7","","-5.8","","85","","","","35","","13","","24.1","","101.81","","","","-9","","Clear"
"-52.75","47.62","ST. JOHN'S INTL A","8403505","2022-04-19 06:30","2022","04","19","06:30","-1.9","","-6.5","","71","","","","2","","13","","24.1","","101.78","","","","-6","","NA"
"-52.75","47.62","ST. JOHN'S INTL A","8403505","2022-04-19 07:30","2022","04","19","07:30","-0.9","","-7.0","","63","","","","1","","14","","24.1","","101.89","","","","-5","","NA"
"-52.75","47.62","ST. JOHN'S INTL A","8403505","2022-04-19 08:30","2022","04","19","08:30","0.0","","-5.8","","65","","","","3","","15","","24.1","","102.03","","","","-4","","Clear"
"-52.75","47.62","ST. JOHN'S INTL A","8403505","2022-04-19 09:30","2022","04","19","09:30","-0.2","","-5.9","","66","","","","6","","19","","24.1","","102.08","","","","-5","","NA"
"-52.75","47.62","ST. JOHN'S INTL A","8403505","2022-04-19 10:30","2022","04","19","10:30","0.4","","-5.1","","67","","","","5","","16","","24.1","","102.18","","","","","","NA"
"-52.75","47.62","ST. JOHN'S INTL A","8403505","2022-04-19 11:30","2022","04","19","11:30","-0.1","","-6.1","","64","","","","7","","18","","24.1","","102.21","","","","-5","","Clear"
"-52.75","47.62","ST. JOHN'S INTL A","8403505","2022-04-19 12:30","2022","04","19","12:30","0.1","","-6.1","","63","","","","9","","11","","24.1","","102.23","","","","","","NA"
"-52.75","47.62","ST. JOHN'S INTL A","8403505","2022-04-19 13:30","2022","04","19","13:30","0.8","","-6.1","","60","","","","8","","12","","24.1","","102.20","","","","","","NA"
"-52.75","47.62","ST. JOHN'S INTL A","8403505","2022-04-19 14:30","2022","04","19","14:30","1.3","","-4.8","","64","","","","7","","16","","24.1","","102.24","","","","","","Mainly Clear"
"-52.75","47.62","ST. JOHN'S INTL A","8403505","2022-04-19 15:30","2022","04","19","15:30","0.1","","-5.8","","65","","","","10","","16","","24.1","","102.26","","","","","","NA"
"-52.75","47.62","ST. JOHN'S INTL A","8403505","2022-04-19 16:30","2022","04","19","16:30","-0.5","","-6.0","","67","","","","9","","16","","24.1","","102.33","","","","-5","","NA"
"-52.75","47.62","ST. JOHN'S INTL A","8403505","2022-04-19 17:30","2022","04","19","17:30","-1.8","","-6.0","","73","","","","11","","15","","24.1","","102.34","","","","-7","","Mostly Cloudy"
"-52.75","47.62","ST. JOHN'S INTL A","8403505","2022-04-19 18:30","2022","04","19","18:30","-2.8","","-6.0","","79","","","","14","","18","","24.1","","102.31","","","","-8","","NA"
"-52.75","47.62","ST. JOHN'S INTL A","8403505","2022-04-19 19:30","2022","04","19","19:30","-3.2","","-5.9","","82","","","","14","","22","","24.1","","102.28","","","","-10","","NA"
"-52.75","47.62","ST. JOHN'S INTL A","8403505","2022-04-19 20:30","2022","04","19","20:30","-3.3","","-5.8","","83","","","","14","","23","","24.1","","102.25","","","","-10","","Mostly Cloudy"
"-52.75","47.62","ST. JOHN'S INTL A","8403505","2022-04-19 21:30","2022","04","19","21:30","-3.2","","-5.6","","84","","","","14","","26","","24.1","","102.22","","","","-10","","NA"
"-52.75","47.62","ST. JOHN'S INTL A","8403505","2022-04-19 22:30","2022","04","19","22:30","-3.0","","-5.3","","84","","","","15","","29","","24.1","","102.19","","","","-10","","NA"
"-52.75","47.62","ST. JOHN'S INTL A","8403505","2022-04-19 23:30","2022","04","19","23:30","-3.0","","-5.1","","85","","","","16","","27","","24.1","","102.12","","","","-10","","Mostly Cloudy"
"-52.75","47.62","ST. JOHN'S INTL A","8403505","2022-04-20 00:30","2022","04","20","00:30","-2.9","","-4.9","","86","","","","17","","22","","24.1","","102.08","","","","-9","","NA"
"-52.75","47.62","ST. JOHN'S INTL A","8403505","2022-04-20 01:30","2022","04","20","01:30","-2.6","","-4.7","","86","","","","17","","31","","24.1","","102.02","","","","-10","","NA"
"-52.75","47.62","ST. JOHN'S INTL A","8403505","2022-04-20 02:30","2022","04","20","02:30","-2.4","","-4.3","","87","","","","17","","41","","24.1","","101.87","","","","-11","","Cloudy"
"-52.75","47.62","ST. JOHN'S INTL A","8403505","2022-04-20 03:30","2022","04","20","03:30","-2.2","","-4.1","","87","","","","17","","45","","24.1","","101.77","","","","-11","","NA"
"-52.75","47.62","ST. JOHN'S INTL A","8403505","2022-04-20 04:30","2022","04","20","04:30","-2.0","","-3.8","","87","","","","18","","36","","24.1","","101.67","","","","-10","","NA"
"-52.75","47.62","ST. JOHN'S INTL A","8403505","2022-04-20 05:30","2022","04","20","05:30","-1.7","","-3.4","","88","","","","18","","40","","24.1","","101.60","","","","-10","","Cloudy"
"-52.75","47.62","ST. JOHN'S INTL A","8403505","2022-04-20 06:30","2022","04","20","06:30","-1.3","","-3.2","","87","","","","18","","40","","24.1","","101.53","","","","-9","","NA"
"-52.75","47.62","ST. JOHN'S INTL A","8403505","2022-04-20 07:30","2022","04","20","07:30","-1.0","","-2.8","","88","","","","17","","50","","24.1","","101.34","","","","-10","","NA"
"-52.75","47.62","ST. JOHN'S INTL A","8403505","2022-04-20 08:30","2022","04","20","08:30","0.0","","-2.2","","85","","","","18","","58","","24.1","","101.30","","","","-9","","Cloudy"
"-52.75","47.62","ST. JOHN'S INTL A","8403505","2022-04-20 09:30","2022","04","20","09:30","1.4","","-1.0","","84","","","","18","","44","","24.1","","101.26","","","","","","NA"
"-52.75","47.62","ST. JOHN'S INTL A","8403505","2022-04-20 10:30","2022","04","20","10:30","1.2","","-0.8","","86","","","","18","","46","","24.1","","101.15","","","","","","NA"
"-52.75","47.62","ST. JOHN'S INTL A","8403505","2022-04-20 11:30","2022","04","20","11:30","2.6","","-0.4","","81","","","","19","","55","","24.1","","101.01","","","","","","Cloudy"
"-52.75","47.62","ST. JOHN'S INTL A","8403505","2022-04-20 12:30","2022","04","20","12:30","3.1","","0.1","","81","","","","18","","47","","24.1","","100.89","","","","","","NA"
"-52.75","47.62","ST. JOHN'S INTL A","8403505","2022-04-20 13:30","2022","04","20","13:30","3.5","","1.0","","84","","","","18","","51","","24.1","","100.82","","","","","","NA"
"-52.75","47.62","ST. JOHN'S INTL A","8403505","2022-04-20 14:30","2022","04","20","14:30","3.3","","1.6","","89","","","","17","","49","","24.1","","100.66","","","","","","Cloudy"
"-52.75","47.62","ST. JOHN'S INTL A","8403505","2022-04-20 15:30","2022","04","20","15:30","5.2","","2.7","","84","","","","19","","53","","24.1","","100.52","","","","","","NA"
"-52.75","47.62","ST. JOHN'S INTL A","8403505","2022-04-20 16:30","2022","04","20","16:30","4.9","","2.9","","87","","","","19","","54","","24.1","","100.41","","","","","","NA"
"-52.75","47.62","ST. JOHN'S INTL A","8403505","2022-04-20 17:30","2022","04","20","17:30","5.2","","3.4","","88","","","","19","","52","","24.1","","100.29","","","","","","Cloudy"
"-52.75","47.62","ST. JOHN'S INTL A","8403505","2022-04-20 18:30","2022","04","20","18:30","4.8","","3.5","","91","","","","19","","55","","8.1","","100.20","","","","","","Rain Showers,Fog"
"-52.75","47.62","ST. JOHN'S INTL A","8403505","2022-04-20 19:30","2022","04","20","19:30","4.7","","4.1","","96","","","","20","","49","","3.2","","100.22","","","","","","Rain Showers,Fog"
"-52.75","47.62","ST. JOHN'S INTL A","8403505","2022-04-20 20:30","2022","04","20","20:30","5.1","","4.7","","97","","","","22","","23","","4.0","","100.30","","","","","","Rain Showers,Fog"
"-52.75","47.62","ST. JOHN'S INTL A","8403505","2022-04-20 21:30","2022","04","20","21:30","5.6","","5.0","","96","","","","26","","28","","12.9","","100.32","","","","","","Drizzle"
"-52.75","47.62","ST. JOHN'S INTL A","8403505","2022-04-20 22:30","2022","04","20","22:30","4.6","","4.1","","96","","","","27","","23","","19.3","","100.35","","","","","","Rain Showers"
"-52.75","47.62","ST. JOHN'S INTL A","8403505","2022-04-20 23:30","2022","04","20","23:30","3.0","","2.5","","96","","","","28","","26","","19.3","","100.35","","","","","","Moderate Rain Showers"
"-52.75","47.62","ST. JOHN'S INTL A","8403505","2022-04-21 00:30","2022","04","21","00:30","2.5","","2.0","","96","","","","25","","21","","24.1","","100.36","","","","","","NA"
"-52.75","47.62","ST. JOHN'S INTL A","8403505","2022-04-21 01:30","2022","04","21","01:30","2.3","","1.5","","94","","","","26","","32","","24.1","","100.40","","","","","","NA"
"-52.75","47.62","ST. JOHN'S INTL A","8403505","2022-04-21 02:30","2022","04","21","02:30","2.2","","1.1","","92","","","","27","","34","","24.1","","100.40","","","","","","Mostly Cloudy"
"-52.75","47.62","ST. JOHN'S INTL A","8403505","2022-04-21 03:30","2022","04","21","03:30","2.3","","1.3","","93","","","","26","","34","","24.1","","100.41","","","","","","NA"
"-52.75","47.62","ST. JOHN'S INTL A","8403505","2022-04-21 04:30","2022","04","21","04:30","2.3","","1.5","","94","","","","27","","36","","24.1","","100.44","","","","","","NA"
"-52.75","47.62","ST. JOHN'S INTL A","8403505","2022-04-21 05:30","2022","04","21","05:30","2.3","","1.6","","95","","","","27","","31","","24.1","","100.44","","","","","","Mostly Cloudy"
"-52.75","47.62","ST. JOHN'S INTL A","8403505","2022-04-21 06:30","2022","04","21","06:30","3.0","","2.2","","94","","","","27","","31","","24.1","","100.48","","","","","","NA"
"-52.75","47.62","ST. JOHN'S INTL A","8403505","2022-04-21 07:30","2022","04","21","07:30","3.2","","2.3","","94","","","","27","","31","","24.1","","100.58","","","","","","NA"
"-52.75","47.62","ST. JOHN'S INTL A","8403505","2022-04-21 08:30","2022","04","21","08:30","4.4","","2.2","","86","","","","28","","26","","24.1","","100.62","","","","","","Mostly Cloudy"
"-52.75","47.62","ST. JOHN'S INTL A","8403505","2022-04-21 09:30","2022","04","21","09:30","6.6","","1.5","","70","","","","27","","37","","24.1","","100.60","","","","","","NA"
"-52.75","47.62","ST. JOHN'S INTL A","8403505","2022-04-21 10:30","2022","04","21","10:30","7.7","","0.6","","61","","","","28","","32","","24.1","","100.62","","","","","","NA"
"-52.75","47.62","ST. JOHN'S INTL A","8403505","2022-04-21 11:30","2022","04","21","11:30","7.8","","0.0","","58","","","","29","","37","","24.1","","100.63","","","","","","Mainly Clear"
"-52.75","47.62","ST. JOHN'S INTL A","8403505","2022-04-21 12:30","2022","04","21","12:30","7.3","","-0.2","","59","","","","30","","38","","24.1","","100.66","","","","","","NA"
"-52.75","47.62","ST. JOHN'S INTL A","8403505","2022-04-21 13:30","2022","04","21","13:30","7.9","","-0.6","","55","","","","30","","39","","24.1","","100.70","","","","","","NA"
"-52.75","47.62","ST. JOHN'S INTL A","8403505","2022-04-21 14:30","2022","04","21","14:30","8.0","","-0.8","","54","","","","31","","35","","24.1","","100.79","","","","","","Mainly Clear"
"-52.75","47.62","ST. JOHN'S INTL A","8403505","2022-04-21 15:30","2022","04","21","15:30","6.8","","-0.1","","61","","","","33","","28","","24.1","","100.92","","","","","","NA"
"-52.75","47.62","ST. JOHN'S INTL A","8403505","2022-04-21 16:30","2022","04","21","16:30","7.5","","0.7","","62","","","","1","","21","","24.1","","101.00","","","","","","NA"
"-52.75","47.62","ST. JOHN'S INTL A","8403505","2022-04-21 17:30","2022","04","21","17:30","3.4","","-0.7","","75","","","","4","","18","","24.1","","101.11","","","","","","Mainly Clear"
"-52.75","47.62","ST. JOHN'S INTL A","8403505","2022-04-21 18:30","2022","04","21","18:30","1.6","","-2.6","","74","","","","3","","15","","24.1","","101.24","","","","","","NA"
"-52.75","47.62","ST. JOHN'S INTL A","8403505","2022-04-21 19:30","2022","04","21","19:30","0.3","","-3.0","","78","","","","5","","19","","24.1","","101.27","","","","","","NA"
"-52.75","47.62","ST. JOHN'S INTL A","8403505","2022-04-21 20:30","2022","04","21","20:30","-0.4","","-3.4","","80","","","","3","","10","","24.1","","101.33","","","","-4","","Clear"
"-52.75","47.62","ST. JOHN'S INTL A","8403505","2022-04-21 21:30","2022","04","21","21:30","-1.5","","-3.5","","86","","","","35","","3","","24.1","","101.41","","","","-3","","NA"
"-52.75","47.62","ST. JOHN'S INTL A","8403505","2022-04-21 22:30","2022","04","21","22:30","-0.9","","-3.4","","83","","","","24","","4","","24.1","","101.40","","","","-2","","NA"
"-52.75","47.62","ST. JOHN'S INTL A","8403505","2022-04-21 23:30","2022","04","21","23:30","-1.1","","-3.6","","83","","","","36","","2","","24.1","","101.35","","","","-2","","Clear"
"-52.75","47.62","ST. JOHN'S INTL A","8403505","2022-04-22 00:30","2022","04","22","00:30","-2.3","","-4.5","","85","","","","23","","7","","24.1","","101.38","","","","-5","","NA"
"-52.75","47.62","ST. JOHN'S INTL A","8403505","2022-04-22 01:30","2022","04","22","01:30","-2.8","","-4.2","","90","","","","25","","8","","24.1","","101.36","","","","-6","","NA"
"-52.75","47.62","ST. JOHN'S INTL A","8403505","2022-04-22 02:30","2022","04","22","02:30","-2.6","","-4.0","","90","","","","25","","7","","24.1","","101.35","","","","-5","","Mainly Clear"
"-52.75","47.62","ST. JOHN'S INTL A","8403505","2022-04-22 03:30","2022","04","22","03:30","-2.1","","-4.3","","85","","","","22","","9","","24.1","","101.33","","","","-6","","NA"
"-52.75","47.62","ST. JOHN'S INTL A","8403505","2022-04-22 04:30","2022","04","22","04:30","-1.8","","-4.8","","80","","","","22","","9","","24.1","","101.30","","","","-5","","NA"
"-52.75","47.62","ST. JOHN'S INTL A","8403505","2022-04-22 05:30","2022","04","22","05:30","-0.9","","-3.9","","80","","","","21","","12","","24.1","","101.30","","","","-5","","Mostly Cloudy"
"-52.75","47.62","ST. JOHN'S INTL A","8403505","2022-04-22 06:30","2022","04","22","06:30","0.9","","-3.1","","75","","","","20","","18","","24.1","","101.29","","","","","","NA"
"-52.75","47.62","ST. JOHN'S INTL A","8403505","2022-04-22 07:30","2022","04","22","07:30","1.4","","-3.2","","71","","","","20","","22","","24.1","","101.24","","","","","","NA"
"-52.75","47.62","ST. JOHN'S INTL A","8403505","2022-04-22 08:30","2022","04","22","08:30","4.7","","-2.3","","61","","","","19","","17","","24.1","","101.18","","","","","","Mostly Cloudy"
"-52.75","47.62","ST. JOHN'S INTL A","8403505","2022-04-22 09:30","2022","04","22","09:30","6.1","","-2.3","","55","","","","21","","21","","24.1","","101.11","","","","","","NA"
"-52.75","47.62","ST. JOHN'S INTL A","8403505","2022-04-22 10:30","2022","04","22","10:30","7.9","","-1.1","","53","","","","20","","22","","24.1","","101.04","","","","","","NA"
"-52.75","47.62","ST. JOHN'S INTL A","8403505","2022-04-22 11:30","2022","04","22","11:30","8.6","","-0.2","","54","","","","22","","23","","24.1","","100.98","","","","","","Mostly Cloudy"
"-52.75","47.62","ST. JOHN'S INTL A","8403505","2022-04-22 12:30","2022","04","22","12:30","10.5","","0.3","","49","","","","21","","20","","24.1","","100.89","","","","","","NA"
"-52.75","47.62","ST. JOHN'S INTL A","8403505","2022-04-22 13:30","2022","04","22","13:30","10.8","","-1.9","","41","","","","27","","25","","24.1","","100.82","","","","","","NA"
"-52.75","47.62","ST. JOHN'S INTL A","8403505","2022-04-22 14:30","2022","04","22","14:30","9.5","","-5.7","","34","","","","27","","25","","24.1","","100.74","","","","","","Mostly Cloudy"
"-52.75","47.62","ST. JOHN'S INTL A","8403505","2022-04-22 15:30","2022","04","22","15:30","8.7","","-3.5","","42","","","","27","","21","","24.1","","100.70","","","","","","NA"
"-52.75","47.62","ST. JOHN'S INTL A","8403505","2022-04-22 16:30","2022","04","22","16:30","7.4","","-3.7","","45","","","","27","","19","","24.1","","100.68","","","","","","NA"
"-52.75","47.62","ST. JOHN'S INTL A","8403505","2022-04-22 17:30","2022","04","22","17:30","6.7","","-4.0","","46","","","","26","","16","","24.1","","100.64","","","","","","Cloudy"
"-52.75","47.62","ST. JOHN'S INTL A","8403505","2022-04-22 18:30","2022","04","22","18:30","5.7","","-4.5","","48","","","","24","","12","","24.1","","100.63","","","","","","NA"
"-52.75","47.62","ST. JOHN'S INTL A","8403505","2022-04-22 19:30","2022","04","22","19:30","4.4","","-6.0","","47","","","","24","","12","","24.1","","100.60","","","","","","NA"
"-52.75","47.62","ST. JOHN'S INTL A","8403505","2022-04-22 20:30","2022","04","22","20:30","3.4","","-5.1","","54","","","","25","","8","","24.1","","100.61","","","","","","Cloudy"
"-52.75","47.62","ST. JOHN'S INTL A","8403505","2022-04-22 21:30","2022","04","22","21:30","3.2","","-3.7","","61","","","","21","","10","","24.1","","100.53","","","","","","NA"
"-52.75","47.62","ST. JOHN'S INTL A","8403505","2022-04-22 22:30","2022","04","22","22:30","2.8","","-2.9","","66","","","","19","","19","","24.1","","100.48","","","","","","NA"
"-52.75","47.62","ST. JOHN'S INTL A","8403505","2022-04-22 23:30","2022","04","22","23:30","1.9","","-4.5","","63","","","","19","","29","","24.1","","100.43","","","","","","Cloudy"
"-52.75","47.62","ST. JOHN'S INTL A","8403505","2022-04-23 00:30","2022","04","23","00:30","1.0","","-3.1","","74","","","","19","","21","","24.1","","100.39","","","","","","NA"
"-52.75","47.62","ST. JOHN'S INTL A","8403505","2022-04-23 01:30","2022","04","23","01:30","1.0","","-0.7","","89","","","","18","","29","","24.1","","100.30","","","","","","NA"
"-52.75","47.62","ST. JOHN'S INTL A","8403505","2022-04-23 02:30","2022","04","23","02:30","0.7","","-0.3","","93","","","","19","","27","","24.1","","100.26","","","","","","Cloudy"
"-52.75","47.62","ST. JOHN'S INTL A","8403505","2022-04-23 03:30","2022","04","23","03:30","0.8","","0.2","","95","","","","18","","31","","24.1","","100.19","","","","","","NA"
"-52.75","47.62","ST. JOHN'S INTL A","8403505","2022-04-23 04:30","2022","04","23","04:30","0.9","","0.5","","97","","","","18","","33","","3.2","","100.15","","","","","","Fog"
"-52.75","47.62","ST. JOHN'S INTL A","8403505","2022-04-23 05:30","2022","04","23","05:30","1.1","","0.9","","98","","","","18","","32","","0.8","","100.12","","","","","","Fog"
"-52.75","47.62","ST. JOHN'S INTL A","8403505","2022-04-23 06:30","2022","04","23","06:30","1.4","","1.2","","99","","","","17","","30","","2.4","","100.10","","","","","","Fog"
"-52.75","47.62","ST. JOHN'S INTL A","8403505","2022-04-23 07:30","2022","04","23","07:30","1.9","","1.4","","96","","","","16","","34","","12.9","","100.04","","","","","","NA"
"-52.75","47.62","ST. JOHN'S INTL A","8403505","2022-04-23 08:30","2022","04","23","08:30","2.1","","0.8","","91","","","","15","","35","","24.1","","100.03","","","","","","Cloudy"
"-52.75","47.62","ST. JOHN'S INTL A","8403505","2022-04-23 09:30","2022","04","23","09:30","3.5","","1.6","","88","","","","16","","31","","24.1","","99.97","","","","","","NA"
"-52.75","47.62","ST. JOHN'S INTL A","8403505","2022-04-23 10:30","2022","04","23","10:30","2.5","","0.3","","86","","","","17","","42","","24.1","","99.93","","","","","","NA"
"-52.75","47.62","ST. JOHN'S INTL A","8403505","2022-04-23 11:30","2022","04","23","11:30","4.1","","0.0","","75","","","","17","","45","","24.1","","99.83","","","","","","Cloudy"
"-52.75","47.62","ST. JOHN'S INTL A","8403505","2022-04-23 12:30","2022","04","23","12:30","4.1","","0.0","","75","","","","17","","27","","24.1","","99.79","","","","","","NA"
"-52.75","47.62","ST. JOHN'S INTL A","8403505","2022-04-23 13:30","2022","04","23","13:30","2.7","","-0.5","","80","","","","16","","25","","24.1","","99.71","","","","","","NA"
"-52.75","47.62","ST. JOHN'S INTL A","8403505","2022-04-23 14:30","2022","04","23","14:30","2.5","","-0.7","","80","","","","15","","31","","24.1","","99.65","","","","","","Cloudy"
"-52.75","47.62","ST. JOHN'S INTL A","8403505","2022-04-23 15:30","2022","04","23","15:30","2.4","","-0.5","","81","","","","16","","37","","24.1","","99.64","","","","","","NA"
"-52.75","47.62","ST. JOHN'S INTL A","8403505","2022-04-23 16:30","2022","04","23","16:30","2.2","","-0.3","","84","","","","16","","40","","24.1","","99.61","","","","","","NA"
"-52.75","47.62","ST. JOHN'S INTL A","8403505","2022-04-23 17:30","2022","04","23","17:30","1.1","","0.2","","94","","","","15","","29","","12.9","","99.61","","","","","","Cloudy"
"-52.75","47.62","ST. JOHN'S INTL A","8403505","2022-04-23 18:30","2022","04","23","18:30","0.6","","0.2","","97","","","","15","","30","","2.4","","99.60","","","","","","Fog"
"-52.75","47.62","ST. JOHN'S INTL A","8403505","2022-04-23 19:30","2022","04","23","19:30","0.5","","0.2","","98","","","","13","","20","","3.2","","99.60","","","","","","Fog"
"-52.75","47.62","ST. JOHN'S INTL A","8403505","2022-04-23 20:30","2022","04","23","20:30","0.2","","-0.2","","97","","","","13","","24","","24.1","","99.58","","","","","","Cloudy"
"-52.75","47.62","ST. JOHN'S INTL A","8403505","2022-04-23 21:30","2022","04","23","21:30","0.2","","-0.6","","94","","","","14","","27","","19.3","","99.51","","","","","","Rain"
"-52.75","47.62","ST. JOHN'S INTL A","8403505","2022-04-23 22:30","2022","04","23","22:30","-0.3","","-0.7","","97","","","","12","","29","","3.2","","99.44","","","","-7","","Snow"
"-52.75","47.62","ST. JOHN'S INTL A","8403505","2022-04-23 23:30","2022","04","23","23:30","-0.4","","-0.6","","98","","","","10","","30","","0.8","","99.35","","","","-7","","Moderate Snow"
"-52.75","47.62","ST. JOHN'S INTL A","8403505","2022-04-24 00:30","2022","04","24","00:30","-0.3","","-0.4","","99","","","","9","","29","","0.8","","99.26","","","","-7","","Moderate Snow"
"-52.75","47.62","ST. JOHN'S INTL A","8403505","2022-04-24 01:30","2022","04","24","01:30","0.0","","-0.2","","99","","","","9","","29","","4.8","","99.13","","","","-6","","Moderate Rain"
"-52.75","47.62","ST. JOHN'S INTL A","8403505","2022-04-24 02:30","2022","04","24","02:30","-0.1","","-0.2","","99","","","","10","","33","","2.0","","99.05","","","","-7","","Moderate Freezing Rain,Fog"
"-52.75","47.62","ST. JOHN'S INTL A","8403505","2022-04-24 03:30","2022","04","24","03:30","0.1","","-0.1","","99","","","","10","","31","","1.2","","98.96","","","","","","Moderate Rain,Fog"
"-52.75","47.62","ST. JOHN'S INTL A","8403505","2022-04-24 04:30","2022","04","24","04:30","0.2","","0.1","","99","","","","10","","36","","0.8","","98.90","","","","","","Moderate Rain,Fog"
"-52.75","47.62","ST. JOHN'S INTL A","8403505","2022-04-24 05:30","2022","04","24","05:30","0.4","","0.3","","99","","","","9","","36","","0.6","","98.90","","","","","","Moderate Rain,Fog"
"-52.75","47.62","ST. JOHN'S INTL A","8403505","2022-04-24 06:30","2022","04","24","06:30","0.9","","0.8","","100","","","","10","","31","","0.6","","98.89","","","","","","Moderate Rain,Fog"
"-52.75","47.62","ST. JOHN'S INTL A","8403505","2022-04-24 07:30","2022","04","24","07:30","1.0","","1.0","","100","","","","10","","35","","0.4","","98.88","","","","","","Rain,Fog"
"-52.75","47.62","ST. JOHN'S INTL A","8403505","2022-04-24 08:30","2022","04","24","08:30","1.4","","1.3","","100","","","","11","","31","","0.2","","98.93","","","","","","Rain,Fog"
"-52.75","47.62","ST. JOHN'S INTL A","8403505","2022-04-24 09:30","2022","04","24","09:30","1.4","","1.4","","100","","","","11","","36","","0.2","","98.93","","","","","","Drizzle,Fog"
"-52.75","47.62","ST. JOHN'S INTL A","8403505","2022-04-24 10:30","2022","04","24","10:30","1.5","","1.5","","100","","","","12","","36","","0.2","","98.96","","","","","","Drizzle,Fog"
"-52.75","47.62","ST. JOHN'S INTL A","8403505","2022-04-24 11:30","2022","04","24","11:30","1.5","","1.4","","100","","","","12","","34","","0.2","","98.99","","","","","","Drizzle,Fog"
"-52.75","47.62","ST. JOHN'S INTL A","8403505","2022-04-24 12:30","2022","04","24","12:30","1.5","","1.5","","100","","","","12","","32","","0.2","","99.03","","","","","","Drizzle,Fog"
"-52.75","47.62","ST. JOHN'S INTL A","8403505","2022-04-24 13:30","2022","04","24","13:30","1.6","","1.5","","100","","","","12","","25","","0.4","","99.10","","","","","","Rain,Fog"
"-52.75","47.62","ST. JOHN'S INTL A","8403505","2022-04-24 14:30","2022","04","24","14:30","1.4","","1.4","","100","","","","13","","26","","0.4","","99.19","","","","","","Moderate Rain,Fog"
"-52.75","47.62","ST. JOHN'S INTL A","8403505","2022-04-24 15:30","2022","04","24","15:30","1.6","","1.5","","100","","","","12","","21","","0.2","","99.27","","","","","","Drizzle,Fog"
"-52.75","47.62","ST. JOHN'S INTL A","8403505","2022-04-24 16:30","2022","04","24","16:30","1.5","","1.5","","100","","","","13","","19","","0.2","","99.37","","","","","","Fog"
"-52.75","47.62","ST. JOHN'S INTL A","8403505","2022-04-24 17:30","2022","04","24","17:30","1.3","","1.3","","100","","","","12","","19","","0.2","","99.49","","","","","","Fog"
"-52.75","47.62","ST. JOHN'S INTL A","8403505","2022-04-24 18:30","2022","04","24","18:30","1.1","","1.1","","100","","","","10","","17","","0.2","","99.63","","","","","","Rain,Fog"
"-52.75","47.62","ST. JOHN'S INTL A","8403505","2022-04-24 19:30","2022","04","24","19:30","1.0","","1.0","","100","","","","9","","16","","0.6","","99.75","","","","","","Rain,Fog"
"-52.75","47.62","ST. JOHN'S INTL A","8403505","2022-04-24 20:30","2022","04","24","20:30","1.3","","1.3","","100","","","","8","","17","","1.2","","99.86","","","","","","Rain,Fog"
"-52.75","47.62","ST. JOHN'S INTL A","8403505","2022-04-24 21:30","2022","04","24","21:30","1.6","","1.6","","100","","","","8","","27","","3.2","","99.89","","","","","","Fog"
"-52.75","47.62","ST. JOHN'S INTL A","8403505","2022-04-24 22:30","2022","04","24","22:30","1.6","","1.6","","100","","","","7","","24","","4.0","","99.96","","","","","","Fog"
"-52.75","47.62","ST. JOHN'S INTL A","8403505","2022-04-24 23:30","2022","04","24","23:30","1.8","","1.8","","100","","","","8","","21","","4.0","","100.01","","","","","","Fog"
"-52.75","47.62","ST. JOHN'S INTL A","8403505","2022-04-25 00:30","2022","04","25","00:30","2.5","","2.5","","100","","","","7","","30","","3.2","","100.02","","","","","","Fog"
"-52.75","47.62","ST. JOHN'S INTL A","8403505","2022-04-25 01:30","2022","04","25","01:30","2.5","","2.4","","100","","","","7","","26","","1.2","","99.99","","","","","","Fog"
"-52.75","47.62","ST. JOHN'S INTL A","8403505","2022-04-25 02:30","2022","04","25","02:30","1.6","","1.6","","100","","","","4","","19","","0.6","","100.03","","","","","","Fog"
"-52.75","47.62","ST. JOHN'S INTL A","8403505","2022-04-25 03:30","2022","04","25","03:30","1.9","","1.9","","100","","","","5","","22","","0.2","","100.10","","","","","","Fog"
"-52.75","47.62","ST. JOHN'S INTL A","8403505","2022-04-25 04:30","2022","04","25","04:30","2.3","","2.3","","100","","","","7","","31","","0.2","","100.14","","","","","","Fog"
"-52.75","47.62","ST. JOHN'S INTL A","8403505","2022-04-25 05:30","2022","04","25","05:30","2.3","","2.3","","100","","","","6","","23","","0.6","","100.25","","","","","","Fog"
"-52.75","47.62","ST. JOHN'S INTL A","8403505","2022-04-25 06:30","2022","04","25","06:30","3.1","","3.1","","100","","","","8","","25","","0.6","","100.35","","","","","","Fog"
"-52.75","47.62","ST. JOHN'S INTL A","8403505","2022-04-25 07:30","2022","04","25","07:30","3.1","","3.0","","100","","","","8","","29","","1.0","","100.44","","","","","","Fog"
"-52.75","47.62","ST. JOHN'S INTL A","8403505","2022-04-25 08:30","2022","04","25","08:30","3.0","","2.9","","100","","","","7","","24","","0.6","","100.53","","","","","","Fog"
"-52.75","47.62","ST. JOHN'S INTL A","8403505","2022-04-25 09:30","2022","04","25","09:30","2.3","","2.3","","100","","","","5","","19","","0.4","","100.58","","","","","","Fog"
"-52.75","47.62","ST. JOHN'S INTL A","8403505","2022-04-25 10:30","2022","04","25","10:30","2.2","","2.2","","100","","","","4","","14","","0.4","","100.59","","","","","","Fog"
"-52.75","47.62","ST. JOHN'S INTL A","8403505","2022-04-25 11:30","2022","04","25","11:30","3.0","","3.0","","100","","","","5","","19","","4.8","","100.60","","","","","","Fog"
"-52.75","47.62","ST. JOHN'S INTL A","8403505","2022-04-25 12:30","2022","04","25","12:30","2.9","","2.9","","100","","","","5","","23","","4.8","","100.60","","","","","","Fog"
"-52.75","47.62","ST. JOHN'S INTL A","8403505","2022-04-25 13:30","2022","04","25","13:30","3.5","","3.4","","99","","","","5","","30","","4.8","","100.60","","","","","","Fog"
"-52.75","47.62","ST. JOHN'S INTL A","8403505","2022-04-25 14:30","2022","04","25","14:30","2.7","","2.5","","99","","","","5","","31","","1.6","","100.60","","","","","","Fog"
"-52.75","47.62","ST. JOHN'S INTL A","8403505","2022-04-25 15:30","2022","04","25","15:30","2.2","","2.0","","99","","","","5","","28","","0.6","","100.61","","","","","","Fog"
"-52.75","47.62","ST. JOHN'S INTL A","8403505","2022-04-25 16:30","2022","04","25","16:30","1.5","","1.3","","99","","","","5","","26","","0.6","","100.60","","","","","","Fog"
"-52.75","47.62","ST. JOHN'S INTL A","8403505","2022-04-25 17:30","2022","04","25","17:30","1.4","","1.2","","99","","","","5","","28","","0.6","","100.61","","","","","","Fog"
"-52.75","47.62","ST. JOHN'S INTL A","8403505","2022-04-25 18:30","2022","04","25","18:30","1.0","","0.9","","99","","","","6","","26","","0.4","","100.63","","","","","","Fog"
"-52.75","47.62","ST. JOHN'S INTL A","8403505","2022-04-25 19:30","2022","04","25","19:30","0.9","","0.8","","99","","","","6","","24","","0.2","","100.63","","","","","","Fog"
"-52.75","47.62","ST. JOHN'S INTL A","8403505","2022-04-25 20:30","2022","04","25","20:30","1.0","","0.9","","99","","","","5","","23","","0.2","","100.67","","","","","","Fog"
"-52.75","47.62","ST. JOHN'S INTL A","8403505","2022-04-25 21:30","2022","04","25","21:30","0.9","","0.8","","99","","","","6","","27","","0.2","","100.64","","","","","","Fog"
"-52.75","47.62","ST. JOHN'S INTL A","8403505","2022-04-25 22:30","2022","04","25","22:30","0.8","","0.7","","100","","","","5","","26","","0.2","","100.60","","","","","","Fog"
"-52.75","47.62","ST. JOHN'S INTL A","8403505","2022-04-25 23:30","2022","04","25","23:30","0.6","","0.6","","100","","","","5","","23","","0.4","","100.54","","","","","","Fog"
"-52.75","47.62","ST. JOHN'S INTL A","8403505","2022-04-26 00:30","2022","04","26","00:30","1.0","","1.0","","100","","","","5","","23","","24.1","","100.48","","","","","","NA"
"-52.75","47.62","ST. JOHN'S INTL A","8403505","2022-04-26 01:30","2022","04","26","01:30","0.9","","0.8","","100","","","","5","","23","","0.4","","100.42","","","","","","Fog"
"-52.75","47.62","ST. JOHN'S INTL A","8403505","2022-04-26 02:30","2022","04","26","02:30","0.8","","0.7","","100","","","","4","","25","","0.2","","100.40","","","","","","Fog"
"-52.75","47.62","ST. JOHN'S INTL A","8403505","2022-04-26 03:30","2022","04","26","03:30","0.9","","0.8","","100","","","","5","","23","","0.2","","100.39","","","","","","Fog"
"-52.75","47.62","ST. JOHN'S INTL A","8403505","2022-04-26 04:30","2022","04","26","04:30","0.9","","0.8","","100","","","","5","","21","","0.2","","100.40","","","","","","Fog"
"-52.75","47.62","ST. JOHN'S INTL A","8403505","2022-04-26 05:30","2022","04","26","05:30","0.8","","0.8","","100","","","","5","","21","","0.2","","100.38","","","","","","Fog"
"-52.75","47.62","ST. JOHN'S INTL A","8403505","2022-04-26 06:30","2022","04","26","06:30","0.8","","0.8","","100","","","","5","","23","","0.2","","100.37","","","","","","Fog"
"-52.75","47.62","ST. JOHN'S INTL A","8403505","2022-04-26 07:30","2022","04","26","07:30","1.0","","1.0","","100","","","","5","","18","","0.6","","100.39","","","","","","Fog"
"-52.75","47.62","ST. JOHN'S INTL A","8403505","2022-04-26 08:30","2022","04","26","08:30","1.4","","1.4","","100","","","","5","","22","","4.8","","100.40","","","","","","Fog"
"-52.75","47.62","ST. JOHN'S INTL A","8403505","2022-04-26 09:30","2022","04","26","09:30","2.0","","2.0","","100","","","","4","","21","","9.7","","100.42","","","","","","Fog"
"-52.75","47.62","ST. JOHN'S INTL A","8403505","2022-04-26 10:30","2022","04","26","10:30","1.9","","1.7","","99","","","","6","","25","","1.2","","100.33","","","","","","Fog"
"-52.75","47.62","ST. JOHN'S INTL A","8403505","2022-04-26 11:30","2022","04","26","11:30","2.3","","1.8","","97","","","","6","","24","","0.8","","100.32","","","","","","Fog"
"-52.75","47.62","ST. JOHN'S INTL A","8403505","2022-04-26 12:30","2022","04","26","12:30","2.5","","1.8","","95","","","","6","","21","","1.2","","100.25","","","","","","Fog"
"-52.75","47.62","ST. JOHN'S INTL A","8403505","2022-04-26 13:30","2022","04","26","13:30","2.7","","1.5","","91","","","","5","","21","","6.4","","100.21","","","","","","Fog"
"-52.75","47.62","ST. JOHN'S INTL A","8403505","2022-04-26 14:30","2022","04","26","14:30","2.5","","1.5","","93","","","","4","","18","","6.4","","100.15","","","","","","Fog"
"-52.75","47.62","ST. JOHN'S INTL A","8403505","2022-04-26 15:30","2022","04","26","15:30","3.3","","1.8","","90","","","","5","","22","","9.7","","100.09","","","","","","Fog"
"-52.75","47.62","ST. JOHN'S INTL A","8403505","2022-04-26 16:30","2022","04","26","16:30","2.4","","1.5","","94","","","","5","","20","","9.7","","100.06","","","","","","Fog"
"-52.75","47.62","ST. JOHN'S INTL A","8403505","2022-04-26 17:30","2022","04","26","17:30","1.8","","1.2","","95","","","","5","","18","","6.4","","100.03","","","","","","Fog"
"-52.75","47.62","ST. JOHN'S INTL A","8403505","2022-04-26 18:30","2022","04","26","18:30","0.8","","0.5","","97","","","","5","","18","","0.6","","100.01","","","","","","Fog"
"-52.75","47.62","ST. JOHN'S INTL A","8403505","2022-04-26 19:30","2022","04","26","19:30","0.4","","0.2","","99","","","","4","","17","","0.4","","100.01","","","","","","Fog"
"-52.75","47.62","ST. JOHN'S INTL A","8403505","2022-04-26 20:30","2022","04","26","20:30","0.5","","0.4","","99","","","","3","","13","","0.6","","100.06","","","","","","Fog"
"-52.75","47.62","ST. JOHN'S INTL A","8403505","2022-04-26 21:30","2022","04","26","21:30","0.6","","0.5","","99","","","","4","","8","","0.8","","100.02","","","","","","Fog"
"-52.75","47.62","ST. JOHN'S INTL A","8403505","2022-04-26 22:30","2022","04","26","22:30","0.6","","0.5","","99","","","","3","","6","","0.6","","99.96","","","","","","Fog"
"-52.75","47.62","ST. JOHN'S INTL A","8403505","2022-04-26 23:30","2022","04","26","23:30","0.4","","0.3","","99","","","","36","","5","","0.6","","99.90","","","","","","Fog"
"-52.75","47.62","ST. JOHN'S INTL A","8403505","2022-04-27 00:30","2022","04","27","00:30","0.6","","0.5","","100","","","","30","","8","","9.7","","99.87","","","","","","Fog"
"-52.75","47.62","ST. JOHN'S INTL A","8403505","2022-04-27 01:30","2022","04","27","01:30","0.3","","0.2","","100","","","","3","","5","","0.8","","99.85","","","","","","Fog"
"-52.75","47.62","ST. JOHN'S INTL A","8403505","2022-04-27 02:30","2022","04","27","02:30","0.4","","0.3","","100","","","","30","","12","","24.1","","99.85","","","","","","Mostly Cloudy"
"-52.75","47.62","ST. JOHN'S INTL A","8403505","2022-04-27 03:30","2022","04","27","03:30","0.3","","0.3","","100","","","","30","","10","","24.1","","99.79","","","","","","NA"
"-52.75","47.62","ST. JOHN'S INTL A","8403505","2022-04-27 04:30","2022","04","27","04:30","-0.5","","-0.6","","99","","","","7","","8","","0.6","","99.72","","","","-3","","Freezing Fog"
"-52.75","47.62","ST. JOHN'S INTL A","8403505","2022-04-27 05:30","2022","04","27","05:30","-0.8","","-0.8","","100","","","","8","","8","","0.2","","99.71","","","","-4","","Freezing Fog"
"-52.75","47.62","ST. JOHN'S INTL A","8403505","2022-04-27 06:30","2022","04","27","06:30","0.0","","0.0","","100","","","","3","","7","","0.2","","99.72","","","","-2","","Fog"
"-52.75","47.62","ST. JOHN'S INTL A","8403505","2022-04-27 07:30","2022","04","27","07:30","1.4","","1.3","","100","","","","36","","7","","4.8","","99.74","","","","","","Fog"
"-52.75","47.62","ST. JOHN'S INTL A","8403505","2022-04-27 08:30","2022","04","27","08:30","3.2","","2.8","","98","","","","34","","4","","24.1","","99.71","","","","","","Cloudy"
"-52.75","47.62","ST. JOHN'S INTL A","8403505","2022-04-27 09:30","2022","04","27","09:30","4.8","","2.4","","84","","","","10","","8","","24.1","","99.68","","","","","","NA"
"-52.75","47.62","ST. JOHN'S INTL A","8403505","2022-04-27 10:30","2022","04","27","10:30","6.0","","1.2","","71","","","","13","","4","","24.1","","99.66","","","","","","NA"
"-52.75","47.62","ST. JOHN'S INTL A","8403505","2022-04-27 11:30","2022","04","27","11:30","6.4","","2.5","","76","","","","4","","14","","24.1","","99.63","","","","","","Mostly Cloudy"
"-52.75","47.62","ST. JOHN'S INTL A","8403505","2022-04-27 12:30","2022","04","27","12:30","7.6","","2.0","","68","","","","10","","16","","24.1","","99.57","","","","","","NA"
"-52.75","47.62","ST. JOHN'S INTL A","8403505","2022-04-27 13:30","2022","04","27","13:30","6.3","","1.8","","73","","","","11","","13","","24.1","","99.56","","","","","","NA"
"-52.75","47.62","ST. JOHN'S INTL A","8403505","2022-04-27 14:30","2022","04","27","14:30","5.7","","1.5","","74","","","","8","","10","","24.1","","99.55","","","","","","Mostly Cloudy"
"-52.75","47.62","ST. JOHN'S INTL A","8403505","2022-04-27 15:30","2022","04","27","15:30","6.1","","2.0","","75","","","","5","","11","","24.1","","99.55","","","","","","NA"
"-52.75","47.62","ST. JOHN'S INTL A","8403505","2022-04-27 16:30","2022","04","27","16:30","5.5","","1.6","","76","","","","12","","13","","24.1","","99.54","","","","","","NA"
"-52.75","47.62","ST. JOHN'S INTL A","8403505","2022-04-27 17:30","2022","04","27","17:30","4.7","","1.3","","78","","","","13","","14","","24.1","","99.54","","","","","","Mostly Cloudy"
"-52.75","47.62","ST. JOHN'S INTL A","8403505","2022-04-27 18:30","2022","04","27","18:30","3.4","","1.6","","88","","","","10","","12","","24.1","","99.50","","","","","","NA"
"-52.75","47.62","ST. JOHN'S INTL A","8403505","2022-04-27 19:30","2022","04","27","19:30","2.0","","0.7","","91","","","","12","","7","","24.1","","99.53","","","","","","NA"
"-52.75","47.62","ST. JOHN'S INTL A","8403505","2022-04-27 20:30","2022","04","27","20:30","1.2","","0.5","","95","","","","15","","8","","24.1","","99.55","","","","","","Mostly Cloudy"
"-52.75","47.62","ST. JOHN'S INTL A","8403505","2022-04-27 21:30","2022","04","27","21:30","0.7","","0.0","","95","","","","25","","3","","24.1","","99.56","","","","","","NA"
"-52.75","47.62","ST. JOHN'S INTL A","8403505","2022-04-27 22:30","2022","04","27","22:30","1.1","","0.4","","95","","","","17","","4","","24.1","","99.54","","","","","","NA"
"-52.75","47.62","ST. JOHN'S INTL A","8403505","2022-04-27 23:30","2022","04","27","23:30","0.9","","0.3","","96","","","","36","","2","","24.1","","99.52","","","","","","Mostly Cloudy"
"-52.75","47.62","ST. JOHN'S INTL A","8403505","2022-04-28 00:30","2022","04","28","00:30","1.1","","0.4","","95","","","","15","","4","","24.1","","99.47","","","","","","NA"
"-52.75","47.62","ST. JOHN'S INTL A","8403505","2022-04-28 01:30","2022","04","28","01:30","1.6","","0.3","","91","","","","17","","3","","24.1","","99.43","","","","","","NA"
"-52.75","47.62","ST. JOHN'S INTL A","8403505","2022-04-28 02:30","2022","04","28","02:30","1.4","","-0.2","","89","","","","11","","6","","24.1","","99.35","","","","","","Mostly Cloudy"
"-52.75","47.62","ST. JOHN'S INTL A","8403505","2022-04-28 03:30","2022","04","28","03:30","-0.5","","-1.8","","90","","","","33","","4","","24.1","","99.35","","","","-2","","NA"
"-52.75","47.62","ST. JOHN'S INTL A","8403505","2022-04-28 04:30","2022","04","28","04:30","0.0","","-0.6","","96","","","","2","","5","","24.1","","99.35","","","","-2","","NA"
"-52.75","47.62","ST. JOHN'S INTL A","8403505","2022-04-28 05:30","2022","04","28","05:30","1.5","","0.6","","94","","","","6","","7","","24.1","","99.42","","","","","","Cloudy"
"-52.75","47.62","ST. JOHN'S INTL A","8403505","2022-04-28 06:30","2022","04","28","06:30","1.6","","1.1","","97","","","","6","","9","","12.9","","99.41","","","","","","NA"
"-52.75","47.62","ST. JOHN'S INTL A","8403505","2022-04-28 07:30","2022","04","28","07:30","2.5","","2.2","","98","","","","9","","9","","1.6","","99.40","","","","","","Drizzle,Fog"
"-52.75","47.62","ST. JOHN'S INTL A","8403505","2022-04-28 08:30","2022","04","28","08:30","3.4","","3.3","","99","","","","11","","9","","4.0","","99.36","","","","","","Fog"
"-52.75","47.62","ST. JOHN'S INTL A","8403505","2022-04-28 09:30","2022","04","28","09:30","5.1","","2.7","","85","","","","11","","14","","24.1","","99.36","","","","","","NA"
"-52.75","47.62","ST. JOHN'S INTL A","8403505","2022-04-28 10:30","2022","04","28","10:30","5.3","","3.1","","85","","","","4","","13","","24.1","","99.37","","","","","","NA"
"-52.75","47.62","ST. JOHN'S INTL A","8403505","2022-04-28 11:30","2022","04","28","11:30","6.7","","3.6","","80","","","","4","","13","","24.1","","99.36","","","","","","Mostly Cloudy"
"-52.75","47.62","ST. JOHN'S INTL A","8403505","2022-04-28 12:30","2022","04","28","12:30","6.0","","3.3","","83","","","","6","","16","","19.3","","99.32","","","","","","NA"
"-52.75","47.62","ST. JOHN'S INTL A","8403505","2022-04-28 13:30","2022","04","28","13:30","7.3","","2.8","","73","","","","11","","13","","24.1","","99.31","","","","","","NA"
"-52.75","47.62","ST. JOHN'S INTL A","8403505","2022-04-28 14:30","2022","04","28","14:30","6.2","","2.8","","79","","","","8","","16","","12.9","","99.27","","","","","","Mostly Cloudy"
"-52.75","47.62","ST. JOHN'S INTL A","8403505","2022-04-28 15:30","2022","04","28","15:30","5.5","","3.3","","86","","","","12","","14","","12.9","","99.28","","","","","","NA"
"-52.75","47.62","ST. JOHN'S INTL A","8403505","2022-04-28 16:30","2022","04","28","16:30","4.4","","2.6","","88","","","","7","","13","","12.9","","99.26","","","","","","NA"
"-52.75","47.62","ST. JOHN'S INTL A","8403505","2022-04-28 17:30","2022","04","28","17:30","2.8","","1.8","","93","","","","6","","13","","0.8","","99.23","","","","","","Fog"
"-52.75","47.62","ST. JOHN'S INTL A","8403505","2022-04-28 18:30","2022","04","28","18:30","1.8","","1.4","","98","","","","5","","14","","0.6","","99.26","","","","","","Fog"
"-52.75","47.62","ST. JOHN'S INTL A","8403505","2022-04-28 19:30","2022","04","28","19:30","1.4","","1.2","","98","","","","6","","12","","0.6","","99.25","","","","","","Fog"
"-52.75","47.62","ST. JOHN'S INTL A","8403505","2022-04-28 20:30","2022","04","28","20:30","0.9","","0.8","","99","","","","6","","12","","0.6","","99.26","","","","","","Fog"
"-52.75","47.62","ST. JOHN'S INTL A","8403505","2022-04-28 21:30","2022","04","28","21:30","1.2","","1.1","","99","","","","5","","8","","0.8","","99.26","","","","","","Fog"
"-52.75","47.62","ST. JOHN'S INTL A","8403505","2022-04-28 22:30","2022","04","28","22:30","1.4","","1.3","","99","","","","8","","6","","0.8","","99.26","","","","","","Fog"
"-52.75","47.62","ST. JOHN'S INTL A","8403505","2022-04-28 23:30","2022","04","28","23:30","1.5","","1.4","","99","","","","7","","10","","19.3","","99.22","","","","","","Cloudy"
"-52.75","47.62","ST. JOHN'S INTL A","8403505","2022-04-29 00:30","2022","04","29","00:30","1.4","","1.3","","99","","","","7","","6","","19.3","","99.22","","","","","","NA"
"-52.75","47.62","ST. JOHN'S INTL A","8403505","2022-04-29 01:30","2022","04","29","01:30","2.1","","2.0","","99","","","","36","","6","","24.1","","99.17","","","","","","NA"
"-52.75","47.62","ST. JOHN'S INTL A","8403505","2022-04-29 02:30","2022","04","29","02:30","2.3","","2.1","","98","","","","33","","5","","24.1","","99.11","","","","","","Cloudy"
"-52.75","47.62","ST. JOHN'S INTL A","8403505","2022-04-29 03:30","2022","04","29","03:30","2.4","","1.7","","95","","","","32","","9","","24.1","","99.11","","","","","","NA"
"-52.75","47.62","ST. JOHN'S INTL A","8403505","2022-04-29 04:30","2022","04","29","04:30","1.7","","1.4","","98","","","","4","","15","","0.8","","99.11","","","","","","Drizzle,Fog"
"-52.75","47.62","ST. JOHN'S INTL A","8403505","2022-04-29 05:30","2022","04","29","05:30","2.4","","2.2","","99","","","","4","","12","","0.4","","99.13","","","","","","Drizzle,Fog"
"-52.75","47.62","ST. JOHN'S INTL A","8403505","2022-04-29 06:30","2022","04","29","06:30","1.9","","1.8","","99","","","","4","","19","","0.4","","99.15","","","","","","Drizzle,Fog"
"-52.75","47.62","ST. JOHN'S INTL A","8403505","2022-04-29 07:30","2022","04","29","07:30","2.4","","2.2","","99","","","","4","","16","","0.4","","99.16","","","","","","Drizzle,Fog"
"-52.75","47.62","ST. JOHN'S INTL A","8403505","2022-04-29 08:30","2022","04","29","08:30","2.3","","2.2","","100","","","","5","","11","","0.2","","99.17","","","","","","Drizzle,Fog"
"-52.75","47.62","ST. JOHN'S INTL A","8403505","2022-04-29 09:30","2022","04","29","09:30","2.0","","1.9","","99","","","","6","","14","","0.2","","99.16","","","","","","Drizzle,Fog"
"-52.75","47.62","ST. JOHN'S INTL A","8403505","2022-04-29 10:30","2022","04","29","10:30","3.1","","3.1","","100","","","","4","","7","","0.2","","99.15","","","","","","Drizzle,Fog"
"-52.75","47.62","ST. JOHN'S INTL A","8403505","2022-04-29 11:30","2022","04","29","11:30","3.9","","3.8","","100","","","","5","","10","","0.2","","99.13","","","","","","Drizzle,Fog"
"-52.75","47.62","ST. JOHN'S INTL A","8403505","2022-04-29 12:30","2022","04","29","12:30","4.5","","4.5","","100","","","","5","","13","","0.2","","99.08","","","","","","Drizzle,Fog"
"-52.75","47.62","ST. JOHN'S INTL A","8403505","2022-04-29 13:30","2022","04","29","13:30","4.4","","4.4","","100","","","","5","","14","","0.4","","99.06","","","","","","Fog"
"-52.75","47.62","ST. JOHN'S INTL A","8403505","2022-04-29 14:30","2022","04","29","14:30","4.6","","4.6","","100","","","","5","","11","","0.8","","99.03","","","","","","Fog"
"-52.75","47.62","ST. JOHN'S INTL A","8403505","2022-04-29 15:30","2022","04","29","15:30","5.0","","5.0","","100","","","","4","","7","","0.4","","99.01","","","","","","Fog"
"-52.75","47.62","ST. JOHN'S INTL A","8403505","2022-04-29 16:30","2022","04","29","16:30","3.8","","3.7","","99","","","","9","","7","","1.2","","99.05","","","","","","Fog"
"-52.75","47.62","ST. JOHN'S INTL A","8403505","2022-04-29 17:30","2022","04","29","17:30","5.0","","4.8","","99","","","","1","","4","","4.0","","99.04","","","","","","Drizzle,Fog"
"-52.75","47.62","ST. JOHN'S INTL A","8403505","2022-04-29 18:30","2022","04","29","18:30","3.4","","3.2","","99","","","","5","","3","","0.8","","99.06","","","","","","Drizzle,Fog"
"-52.75","47.62","ST. JOHN'S INTL A","8403505","2022-04-29 19:30","2022","04","29","19:30","4.4","","4.3","","99","","","","33","","3","","24.1","","99.08","","","","","","NA"
"-52.75","47.62","ST. JOHN'S INTL A","8403505","2022-04-29 20:30","2022","04","29","20:30","2.8","","2.6","","99","","","","4","","7","","19.3","","99.08","","","","","","Cloudy"
"-52.75","47.62","ST. JOHN'S INTL A","8403505","2022-04-29 21:30","2022","04","29","21:30","3.2","","3.0","","99","","","","1","","7","","0.8","","99.05","","","","","","Fog"
"-52.75","47.62","ST. JOHN'S INTL A","8403505","2022-04-29 22:30","2022","04","29","22:30","3.2","","3.0","","99","","","","4","","5","","0.8","","99.04","","","","","","Fog"
"-52.75","47.62","ST. JOHN'S INTL A","8403505","2022-04-29 23:30","2022","04","29","23:30","3.0","","2.9","","99","","","","3","","6","","0.8","","99.02","","","","","","Fog"
"-52.75","47.62","ST. JOHN'S INTL A","8403505","2022-04-30 00:30","2022","04","30","00:30","3.4","","3.4","","100","","","","33","","6","","0.8","","99.01","","","","","","Fog"
"-52.75","47.62","ST. JOHN'S INTL A","8403505","2022-04-30 01:30","2022","04","30","01:30","2.9","","2.9","","100","","","","36","","5","","0.8","","98.97","","","","","","Fog"
"-52.75","47.62","ST. JOHN'S INTL A","8403505","2022-04-30 02:30","2022","04","30","02:30","2.9","","2.9","","100","","","","33","","8","","0.8","","98.93","","","","","","Fog"
"-52.75","47.62","ST. JOHN'S INTL A","8403505","2022-04-30 03:30","2022","04","30","03:30","3.2","","3.1","","100","","","","34","","5","","0.8","","98.96","","","","","","Fog"
"-52.75","47.62","ST. JOHN'S INTL A","8403505","2022-04-30 04:30","2022","04","30","04:30","2.7","","2.7","","100","","","","0","","1","","0.8","","98.94","","","","","","Fog"
"-52.75","47.62","ST. JOHN'S INTL A","8403505","2022-04-30 05:30","2022","04","30","05:30","2.8","","2.8","","100","","","","30","","10","","2.0","","98.95","","","","","","Fog"
"-52.75","47.62","ST. JOHN'S INTL A","8403505","2022-04-30 06:30","2022","04","30","06:30","3.2","","3.2","","100","","","","36","","6","","12.9","","98.95","","","","","","NA"
"-52.75","47.62","ST. JOHN'S INTL A","8403505","2022-04-30 07:30","2022","04","30","07:30","3.5","","3.5","","100","","","","5","","9","","2.8","","98.95","","","","","","Fog"
"-52.75","47.62","ST. JOHN'S INTL A","8403505","2022-04-30 08:30","2022","04","30","08:30","4.0","","4.0","","100","","","","1","","7","","2.4","","98.88","","","","","","Fog"
"-52.75","47.62","ST. JOHN'S INTL A","8403505","2022-04-30 09:30","2022","04","30","09:30","5.2","","4.7","","97","","","","4","","10","","24.1","","98.84","","","","","","NA"
"-52.75","47.62","ST. JOHN'S INTL A","8403505","2022-04-30 10:30","2022","04","30","10:30","3.8","","2.8","","94","","","","5","","13","","24.1","","98.87","","","","","","NA"
"-52.75","47.62","ST. JOHN'S INTL A","8403505","2022-04-30 11:30","2022","04","30","11:30","2.8","","2.5","","98","","","","6","","12","","0.8","","98.91","","","","","","Rain,Fog"
"-52.75","47.62","ST. JOHN'S INTL A","8403505","2022-04-30 12:30","2022","04","30","12:30","3.8","","3.6","","99","","","","35","","8","","4.0","","98.85","","","","","","Rain,Fog"
"-52.75","47.62","ST. JOHN'S INTL A","8403505","2022-04-30 13:30","2022","04","30","13:30","3.9","","3.6","","97","","","","6","","13","","0.4","","98.81","","","","","","Rain,Fog"
"-52.75","47.62","ST. JOHN'S INTL A","8403505","2022-04-30 14:30","2022","04","30","14:30","3.3","","3.1","","99","","","","7","","9","","0.4","","98.77","","","","","","Rain,Fog"
"-52.75","47.62","ST. JOHN'S INTL A","8403505","2022-04-30 15:30","2022","04","30","15:30","4.1","","4.0","","99","","","","35","","5","","0.8","","98.77","","","","","","Rain,Fog"
"-52.75","47.62","ST. JOHN'S INTL A","8403505","2022-04-30 16:30","2022","04","30","16:30","3.7","","3.6","","99","","","","6","","7","","0.8","","98.75","","","","","","Rain,Fog"
"-52.75","47.62","ST. JOHN'S INTL A","8403505","2022-04-30 17:30","2022","04","30","17:30","3.1","","3.0","","99","","","","6","","5","","0.4","","98.75","","","","","","Rain,Fog"
"-52.75","47.62","ST. JOHN'S INTL A","8403505","2022-04-30 18:30","2022","04","30","18:30","4.5","","4.4","","100","","","","28","","6","","4.0","","98.76","","","","","","Rain,Fog"
"-52.75","47.62","ST. JOHN'S INTL A","8403505","2022-04-30 19:30","2022","04","30","19:30","4.7","","4.6","","99","","","","29","","12","","12.9","","98.78","","","","","","Rain"
"-52.75","47.62","ST. JOHN'S INTL A","8403505","2022-04-30 20:30","2022","04","30","20:30","4.8","","4.7","","99","","","","27","","14","","24.1","","98.80","","","","","","Rain"
"-52.75","47.62","ST. JOHN'S INTL A","8403505","2022-04-30 21:30","2022","04","30","21:30","5.0","","4.9","","99","","","","30","","9","","2.0","","98.80","","","","","","Rain,Fog"
"-52.75","47.62","ST. JOHN'S INTL A","8403505","2022-04-30 22:30","2022","04","30","22:30","3.3","","3.2","","99","","","","36","","3","","0.8","","98.80","","","","","","Rain,Fog"
"-52.75","47.62","ST. JOHN'S INTL A","8403505","2022-04-30 23:30","2022","04","30","23:30","5.5","","5.4","","99","","","","26","","13","","19.3","","98.80","","","","","","Rain"
