"Longitude (x)","Latitude (y)","Station Name","Climate ID","Date/Time (LST)","Year","Month","Day","Time (LST)","Temp (°C)","Temp Flag","Dew Point Temp (°C)","Dew Point Temp Flag","Rel Hum (%)","Rel Hum Flag","Precip. Amount (mm)","Precip. Amount Flag","Wind Dir (10s deg)","Wind Dir Flag","Wind Spd (km/h)","Wind Spd Flag","Visibility (km)","Visibility Flag","Stn Press (kPa)","Stn Press Flag","Hmdx","Hmdx Flag","Wind Chill","Wind Chill Flag","Weather"
"-52.75","47.62","ST. JOHN'S INTL A","8403505","2019-07-01 00:30","2019","07","01","00:30","9.1","","9.0","","99","","","","33","","4","","3.2","","99.61","","","","","","Fog"
"-52.75","47.62","ST. JOHN'S INTL A","8403505","2019-07-01 01:30","2019","07","01","01:30","9.4","","9.2","","99","","","","30","","5","","3.6","","99.58","","","","","","Fog"
"-52.75","47.62","ST. JOHN'S INTL A","8403505","2019-07-01 02:30","2019","07","01","02:30","9.7","","9.5","","99","","","","29","","4","","9.7","","99.55","","","","","","Fog"
"-52.75","47.62","ST. JOHN'S INTL A","8403505","2019-07-01 03:30","2019","07","01","03:30","9.9","","9.6","","98","","","","2","","4","","3.2","","99.54","","","","","","Fog"
"-52.75","47.62","ST. JOHN'S INTL A","8403505","2019-07-01 04:30","2019","07","01","04:30","9.1","","8.8","","98","","","","5","","6","","0.4","","99.52","","","","","","Fog"
"-52.75","47.62","ST. JOHN'S INTL A","8403505","2019-07-01 05:30","2019","07","01","05:30","9.1","","8.9","","99","","","","6","","7","","0.2","","99.56","","","","","","Fog"
"-52.75","47.62","ST. JOHN'S INTL A","8403505","2019-07-01 06:30","2019","07","01","06:30","9.4","","9.2","","99","","","","7","","11","","0.2","","99.56","","","","","","Fog"
"-52.75","47.62","ST. JOHN'S INTL A","8403505","2019-07-01 07:30","2019","07","01","07:30","9.4","","9.2","","99","","","","6","","9","","0.2","","99.62","","","","","","Fog"
"-52.75","47.62","ST. JOHN'S INTL A","8403505","2019-07-01 08:30","2019","07","01","08:30","9.5","","9.4","","99","","","","6","","10","","0.4","","99.59","","","","","","Fog"
"-52.75","47.62","ST. JOHN'S INTL A","8403505","2019-07-01 09:30","2019","07","01","09:30","10.3","","10.2","","99","","","","5","","12","","0.4","","99.60","","","","","","Fog"
"-52.75","47.62","ST. JOHN'S INTL A","8403505","2019-07-01 10:30","2019","07","01","10:30","9.9","","9.7","","99","","","","9","","11","","0.8","","99.62","","","","","","Fog"
"-52.75","47.62","ST. JOHN'S INTL A","8403505","2019-07-01 11:30","2019","07","01","11:30","10.8","","10.6","","99","","","","11","","11","","0.8","","99.56","","","","","","Fog"
"-52.75","47.62","ST. JOHN'S INTL A","8403505","2019-07-01 12:30","2019","07","01","12:30","11.0","","10.7","","98","","","","11","","14","","1.6","","99.52","","","","","","Fog"
"-52.75","47.62","ST. JOHN'S INTL A","8403505","2019-07-01 13:30","2019","07","01","13:30","10.4","","10.2","","98","","","","12","","16","","0.4","","99.45","","","","","","Rain,Fog"
"-52.75","47.62","ST. JOHN'S INTL A","8403505","2019-07-01 14:30","2019","07","01","14:30","10.2","","10.1","","99","","","","12","","14","","0.4","","99.43","","","","","","Rain,Fog"
"-52.75","47.62","ST. JOHN'S INTL A","8403505","2019-07-01 15:30","2019","07","01","15:30","9.4","","9.3","","99","","","","9","","18","","0.4","","99.35","","","","","","Moderate Rain,Fog"
"-52.75","47.62","ST. JOHN'S INTL A","8403505","2019-07-01 16:30","2019","07","01","16:30","9.6","","9.4","","99","","","","9","","19","","0.8","","99.28","","","","","","Moderate Rain,Fog"
"-52.75","47.62","ST. JOHN'S INTL A","8403505","2019-07-01 17:30","2019","07","01","17:30","9.9","","9.7","","99","","","","11","","20","","2.4","","99.24","","","","","","Heavy Rain,Fog"
"-52.75","47.62","ST. JOHN'S INTL A","8403505","2019-07-01 18:30","2019","07","01","18:30","10.7","","10.6","","99","","","","10","","22","","3.2","","99.19","","","","","","Moderate Rain,Fog"
"-52.75","47.62","ST. JOHN'S INTL A","8403505","2019-07-01 19:30","2019","07","01","19:30","10.4","","10.2","","99","","","","13","","27","","1.2","","99.12","","","","","","Rain,Fog"
"-52.75","47.62","ST. JOHN'S INTL A","8403505","2019-07-01 20:30","2019","07","01","20:30","10.0","","9.9","","99","","","","15","","30","","0.4","","99.07","","","","","","Drizzle,Fog"
"-52.75","47.62","ST. JOHN'S INTL A","8403505","2019-07-01 21:30","2019","07","01","21:30","9.9","","9.8","","99","","","","15","","32","","0.2","","99.07","","","","","","Fog"
"-52.75","47.62","ST. JOHN'S INTL A","8403505","2019-07-01 22:30","2019","07","01","22:30","9.6","","9.5","","99","","","","13","","16","","0.2","","99.04","","","","","","Fog"
"-52.75","47.62","ST. JOHN'S INTL A","8403505","2019-07-01 23:30","2019","07","01","23:30","9.8","","9.6","","99","","","","13","","14","","0.4","","98.97","","","","","","Rain,Fog"
"-52.75","47.62","ST. JOHN'S INTL A","8403505","2019-07-02 00:30","2019","07","02","00:30","9.4","","9.3","","99","","","","13","","14","","0.4","","98.92","","","","","","Rain,Fog"
"-52.75","47.62","ST. JOHN'S INTL A","8403505","2019-07-02 01:30","2019","07","02","01:30","9.6","","9.4","","99","","","","14","","17","","0.2","","98.83","","","","","","Rain,Fog"
"-52.75","47.62","ST. JOHN'S INTL A","8403505","2019-07-02 02:30","2019","07","02","02:30","9.3","","9.2","","99","","","","12","","7","","0.4","","98.77","","","","","","Rain,Fog"
"-52.75","47.62","ST. JOHN'S INTL A","8403505","2019-07-02 03:30","2019","07","02","03:30","10.3","","10.1","","99","","","","14","","8","","0.4","","98.70","","","","","","Fog"
"-52.75","47.62","ST. JOHN'S INTL A","8403505","2019-07-02 04:30","2019","07","02","04:30","10.7","","10.6","","99","","","","14","","5","","0.4","","98.64","","","","","","Fog"
"-52.75","47.62","ST. JOHN'S INTL A","8403505","2019-07-02 05:30","2019","07","02","05:30","10.8","","10.7","","99","","","","13","","16","","0.4","","98.60","","","","","","Rain Showers,Fog"
"-52.75","47.62","ST. JOHN'S INTL A","8403505","2019-07-02 06:30","2019","07","02","06:30","11.9","","11.8","","99","","","","16","","13","","0.2","","98.58","","","","","","Fog"
"-52.75","47.62","ST. JOHN'S INTL A","8403505","2019-07-02 07:30","2019","07","02","07:30","13.3","","13.3","","99","","","","36","","4","","4.0","","98.59","","","","","","Fog"
"-52.75","47.62","ST. JOHN'S INTL A","8403505","2019-07-02 08:30","2019","07","02","08:30","17.5","","17.4","","99","","","","23","","8","","24.1","","98.53","","","","","","Mostly Cloudy"
"-52.75","47.62","ST. JOHN'S INTL A","8403505","2019-07-02 09:30","2019","07","02","09:30","15.4","","14.3","","93","","","","15","","13","","24.1","","98.58","","","","","","NA"
"-52.75","47.62","ST. JOHN'S INTL A","8403505","2019-07-02 10:30","2019","07","02","10:30","18.8","","16.9","","88","","","","18","","23","","24.1","","98.57","","","","","","NA"
"-52.75","47.62","ST. JOHN'S INTL A","8403505","2019-07-02 11:30","2019","07","02","11:30","21.3","","18.2","","82","","","","17","","31","","24.1","","98.56","","27","","","","Mostly Cloudy"
"-52.75","47.62","ST. JOHN'S INTL A","8403505","2019-07-02 12:30","2019","07","02","12:30","21.0","","17.8","","81","","","","18","","20","","24.1","","98.54","","27","","","","NA"
"-52.75","47.62","ST. JOHN'S INTL A","8403505","2019-07-02 13:30","2019","07","02","13:30","21.2","","17.7","","80","","","","20","","30","","24.1","","98.52","","27","","","","NA"
"-52.75","47.62","ST. JOHN'S INTL A","8403505","2019-07-02 14:30","2019","07","02","14:30","21.7","","17.2","","75","","","","20","","32","","24.1","","98.52","","27","","","","Mostly Cloudy"
"-52.75","47.62","ST. JOHN'S INTL A","8403505","2019-07-02 15:30","2019","07","02","15:30","21.1","","17.3","","79","","","","19","","28","","24.1","","98.49","","27","","","","NA"
"-52.75","47.62","ST. JOHN'S INTL A","8403505","2019-07-02 16:30","2019","07","02","16:30","19.1","","16.3","","83","","","","19","","20","","24.1","","98.49","","","","","","NA"
"-52.75","47.62","ST. JOHN'S INTL A","8403505","2019-07-02 17:30","2019","07","02","17:30","17.9","","15.8","","88","","","","17","","13","","24.1","","98.49","","","","","","Mostly Cloudy"
"-52.75","47.62","ST. JOHN'S INTL A","8403505","2019-07-02 18:30","2019","07","02","18:30","15.2","","13.4","","89","","","","13","","9","","24.1","","98.46","","","","","","NA"
"-52.75","47.62","ST. JOHN'S INTL A","8403505","2019-07-02 19:30","2019","07","02","19:30","14.1","","13.8","","98","","","","15","","11","","19.3","","98.48","","","","","","Rain Showers"
"-52.75","47.62","ST. JOHN'S INTL A","8403505","2019-07-02 20:30","2019","07","02","20:30","14.6","","14.4","","99","","","","19","","8","","19.3","","98.46","","","","","","Cloudy"
"-52.75","47.62","ST. JOHN'S INTL A","8403505","2019-07-02 21:30","2019","07","02","21:30","13.3","","13.1","","99","","","","22","","8","","2.0","","98.46","","","","","","Fog"
"-52.75","47.62","ST. JOHN'S INTL A","8403505","2019-07-02 22:30","2019","07","02","22:30","14.2","","14.0","","99","","","","21","","9","","3.2","","98.42","","","","","","Fog"
"-52.75","47.62","ST. JOHN'S INTL A","8403505","2019-07-02 23:30","2019","07","02","23:30","14.6","","14.5","","99","","","","23","","10","","2.0","","98.41","","","","","","Fog"
"-52.75","47.62","ST. JOHN'S INTL A","8403505","2019-07-03 00:30","2019","07","03","00:30","15.2","","15.1","","99","","","","25","","19","","1.0","","98.40","","","","","","Fog"
"-52.75","47.62","ST. JOHN'S INTL A","8403505","2019-07-03 01:30","2019","07","03","01:30","15.3","","15.2","","99","","","","25","","10","","3.6","","98.42","","","","","","Fog"
"-52.75","47.62","ST. JOHN'S INTL A","8403505","2019-07-03 02:30","2019","07","03","02:30","14.8","","14.6","","99","","","","26","","16","","8.1","","98.44","","","","","","Fog"
"-52.75","47.62","ST. JOHN'S INTL A","8403505","2019-07-03 03:30","2019","07","03","03:30","14.4","","14.2","","99","","","","23","","7","","19.3","","98.47","","","","","","NA"
"-52.75","47.62","ST. JOHN'S INTL A","8403505","2019-07-03 04:30","2019","07","03","04:30","13.8","","13.5","","98","","","","28","","12","","19.3","","98.49","","","","","","NA"
"-52.75","47.62","ST. JOHN'S INTL A","8403505","2019-07-03 05:30","2019","07","03","05:30","13.2","","12.9","","98","","","","23","","10","","24.1","","98.52","","","","","","Cloudy"
"-52.75","47.62","ST. JOHN'S INTL A","8403505","2019-07-03 06:30","2019","07","03","06:30","13.2","","12.3","","94","","","","23","","13","","24.1","","98.54","","","","","","NA"
"-52.75","47.62","ST. JOHN'S INTL A","8403505","2019-07-03 07:30","2019","07","03","07:30","12.9","","12.4","","97","","","","18","","14","","24.1","","98.57","","","","","","NA"
"-52.75","47.62","ST. JOHN'S INTL A","8403505","2019-07-03 08:30","2019","07","03","08:30","14.0","","12.6","","91","","","","20","","9","","24.1","","98.59","","","","","","Cloudy"
"-52.75","47.62","ST. JOHN'S INTL A","8403505","2019-07-03 09:30","2019","07","03","09:30","13.7","","12.5","","92","","","","20","","15","","24.1","","98.61","","","","","","NA"
"-52.75","47.62","ST. JOHN'S INTL A","8403505","2019-07-03 10:30","2019","07","03","10:30","13.9","","11.9","","88","","","","25","","22","","24.1","","98.65","","","","","","NA"
"-52.75","47.62","ST. JOHN'S INTL A","8403505","2019-07-03 11:30","2019","07","03","11:30","14.8","","12.6","","86","","","","25","","11","","24.1","","98.61","","","","","","Cloudy"
"-52.75","47.62","ST. JOHN'S INTL A","8403505","2019-07-03 12:30","2019","07","03","12:30","14.7","","11.9","","83","","","","26","","22","","24.1","","98.66","","","","","","NA"
"-52.75","47.62","ST. JOHN'S INTL A","8403505","2019-07-03 13:30","2019","07","03","13:30","14.7","","11.7","","82","","","","26","","24","","24.1","","98.69","","","","","","NA"
"-52.75","47.62","ST. JOHN'S INTL A","8403505","2019-07-03 14:30","2019","07","03","14:30","14.6","","11.0","","79","","","","25","","25","","24.1","","98.72","","","","","","Cloudy"
"-52.75","47.62","ST. JOHN'S INTL A","8403505","2019-07-03 15:30","2019","07","03","15:30","14.1","","9.9","","76","","","","25","","22","","24.1","","98.75","","","","","","NA"
"-52.75","47.62","ST. JOHN'S INTL A","8403505","2019-07-03 16:30","2019","07","03","16:30","13.8","","9.6","","76","","","","25","","20","","24.1","","98.76","","","","","","NA"
"-52.75","47.62","ST. JOHN'S INTL A","8403505","2019-07-03 17:30","2019","07","03","17:30","12.7","","9.0","","78","","","","25","","30","","24.1","","98.76","","","","","","Mostly Cloudy"
"-52.75","47.62","ST. JOHN'S INTL A","8403505","2019-07-03 18:30","2019","07","03","18:30","11.5","","8.9","","84","","","","25","","19","","24.1","","98.83","","","","","","NA"
"-52.75","47.62","ST. JOHN'S INTL A","8403505","2019-07-03 19:30","2019","07","03","19:30","10.7","","8.8","","88","","","","26","","21","","24.1","","98.84","","","","","","NA"
"-52.75","47.62","ST. JOHN'S INTL A","8403505","2019-07-03 20:30","2019","07","03","20:30","10.7","","9.2","","91","","","","25","","22","","24.1","","98.90","","","","","","Cloudy"
"-52.75","47.62","ST. JOHN'S INTL A","8403505","2019-07-03 21:30","2019","07","03","21:30","10.1","","9.2","","94","","","","25","","17","","24.1","","98.95","","","","","","NA"
"-52.75","47.62","ST. JOHN'S INTL A","8403505","2019-07-03 22:30","2019","07","03","22:30","10.2","","9.4","","95","","","","25","","12","","19.3","","98.96","","","","","","NA"
"-52.75","47.62","ST. JOHN'S INTL A","8403505","2019-07-03 23:30","2019","07","03","23:30","9.8","","9.2","","96","","","","26","","18","","16.1","","98.99","","","","","","Cloudy"
"-52.75","47.62","ST. JOHN'S INTL A","8403505","2019-07-04 00:30","2019","07","04","00:30","9.6","","9.1","","97","","","","24","","13","","16.1","","99.00","","","","","","NA"
"-52.75","47.62","ST. JOHN'S INTL A","8403505","2019-07-04 01:30","2019","07","04","01:30","9.3","","8.7","","96","","","","27","","22","","9.7","","98.99","","","","","","Fog"
"-52.75","47.62","ST. JOHN'S INTL A","8403505","2019-07-04 02:30","2019","07","04","02:30","9.0","","8.5","","97","","","","27","","18","","9.7","","99.01","","","","","","Drizzle,Fog"
"-52.75","47.62","ST. JOHN'S INTL A","8403505","2019-07-04 03:30","2019","07","04","03:30","8.8","","8.4","","98","","","","28","","14","","3.2","","99.04","","","","","","Drizzle,Fog"
"-52.75","47.62","ST. JOHN'S INTL A","8403505","2019-07-04 04:30","2019","07","04","04:30","8.7","","8.5","","98","","","","27","","17","","3.2","","99.09","","","","","","Drizzle,Fog"
"-52.75","47.62","ST. JOHN'S INTL A","8403505","2019-07-04 05:30","2019","07","04","05:30","8.9","","8.7","","98","","","","29","","14","","2.4","","99.12","","","","","","Fog"
"-52.75","47.62","ST. JOHN'S INTL A","8403505","2019-07-04 06:30","2019","07","04","06:30","9.0","","8.8","","99","","","","1","","13","","0.4","","99.16","","","","","","Drizzle,Fog"
"-52.75","47.62","ST. JOHN'S INTL A","8403505","2019-07-04 07:30","2019","07","04","07:30","8.9","","8.8","","99","","","","35","","10","","0.8","","99.23","","","","","","Drizzle,Fog"
"-52.75","47.62","ST. JOHN'S INTL A","8403505","2019-07-04 08:30","2019","07","04","08:30","9.3","","9.1","","99","","","","33","","14","","2.4","","99.28","","","","","","Drizzle,Fog"
"-52.75","47.62","ST. JOHN'S INTL A","8403505","2019-07-04 09:30","2019","07","04","09:30","9.7","","9.4","","98","","","","36","","10","","24.1","","99.29","","","","","","Drizzle"
"-52.75","47.62","ST. JOHN'S INTL A","8403505","2019-07-04 10:30","2019","07","04","10:30","10.0","","9.5","","97","","","","4","","5","","24.1","","99.33","","","","","","Drizzle"
"-52.75","47.62","ST. JOHN'S INTL A","8403505","2019-07-04 11:30","2019","07","04","11:30","11.8","","10.3","","90","","","","36","","9","","24.1","","99.32","","","","","","Drizzle"
"-52.75","47.62","ST. JOHN'S INTL A","8403505","2019-07-04 12:30","2019","07","04","12:30","10.2","","9.3","","94","","","","5","","6","","16.1","","99.37","","","","","","NA"
"-52.75","47.62","ST. JOHN'S INTL A","8403505","2019-07-04 13:30","2019","07","04","13:30","10.2","","9.8","","97","","","","6","","5","","4.0","","99.37","","","","","","Rain Showers,Fog"
"-52.75","47.62","ST. JOHN'S INTL A","8403505","2019-07-04 14:30","2019","07","04","14:30","10.0","","9.6","","97","","","","10","","6","","6.4","","99.38","","","","","","Drizzle,Fog"
"-52.75","47.62","ST. JOHN'S INTL A","8403505","2019-07-04 15:30","2019","07","04","15:30","11.3","","10.8","","97","","","","15","","8","","24.1","","99.40","","","","","","Drizzle"
"-52.75","47.62","ST. JOHN'S INTL A","8403505","2019-07-04 16:30","2019","07","04","16:30","10.6","","10.0","","96","","","","14","","9","","24.1","","99.43","","","","","","NA"
"-52.75","47.62","ST. JOHN'S INTL A","8403505","2019-07-04 17:30","2019","07","04","17:30","10.6","","10.1","","96","","","","16","","7","","24.1","","99.45","","","","","","Cloudy"
"-52.75","47.62","ST. JOHN'S INTL A","8403505","2019-07-04 18:30","2019","07","04","18:30","10.5","","10.1","","97","","","","15","","4","","19.3","","99.48","","","","","","NA"
"-52.75","47.62","ST. JOHN'S INTL A","8403505","2019-07-04 19:30","2019","07","04","19:30","11.4","","11.0","","97","","","","28","","9","","19.3","","99.51","","","","","","NA"
"-52.75","47.62","ST. JOHN'S INTL A","8403505","2019-07-04 20:30","2019","07","04","20:30","11.3","","10.9","","97","","","","28","","10","","24.1","","99.56","","","","","","Cloudy"
"-52.75","47.62","ST. JOHN'S INTL A","8403505","2019-07-04 21:30","2019","07","04","21:30","11.1","","10.7","","97","","","","31","","7","","19.3","","99.59","","","","","","NA"
"-52.75","47.62","ST. JOHN'S INTL A","8403505","2019-07-04 22:30","2019","07","04","22:30","10.8","","10.6","","98","","","","34","","8","","12.9","","99.62","","","","","","Drizzle"
"-52.75","47.62","ST. JOHN'S INTL A","8403505","2019-07-04 23:30","2019","07","04","23:30","10.0","","9.8","","98","","","","36","","10","","19.3","","99.64","","","","","","Drizzle"
"-52.75","47.62","ST. JOHN'S INTL A","8403505","2019-07-05 00:30","2019","07","05","00:30","9.8","","9.6","","98","","","","34","","8","","16.1","","99.64","","","","","","Drizzle"
"-52.75","47.62","ST. JOHN'S INTL A","8403505","2019-07-05 01:30","2019","07","05","01:30","9.4","","9.1","","98","","","","32","","11","","24.1","","99.63","","","","","","NA"
"-52.75","47.62","ST. JOHN'S INTL A","8403505","2019-07-05 02:30","2019","07","05","02:30","9.2","","8.5","","95","","","","31","","9","","24.1","","99.62","","","","","","Cloudy"
"-52.75","47.62","ST. JOHN'S INTL A","8403505","2019-07-05 03:30","2019","07","05","03:30","9.2","","8.3","","94","","","","32","","15","","24.1","","99.64","","","","","","NA"
"-52.75","47.62","ST. JOHN'S INTL A","8403505","2019-07-05 04:30","2019","07","05","04:30","9.2","","8.6","","95","","","","28","","13","","24.1","","99.69","","","","","","NA"
"-52.75","47.62","ST. JOHN'S INTL A","8403505","2019-07-05 05:30","2019","07","05","05:30","9.5","","8.8","","96","","","","29","","18","","24.1","","99.71","","","","","","Cloudy"
"-52.75","47.62","ST. JOHN'S INTL A","8403505","2019-07-05 06:30","2019","07","05","06:30","9.9","","9.2","","95","","","","30","","18","","24.1","","99.73","","","","","","NA"
"-52.75","47.62","ST. JOHN'S INTL A","8403505","2019-07-05 07:30","2019","07","05","07:30","10.2","","9.5","","96","","","","29","","19","","19.3","","99.74","","","","","","Drizzle"
"-52.75","47.62","ST. JOHN'S INTL A","8403505","2019-07-05 08:30","2019","07","05","08:30","10.4","","9.7","","95","","","","30","","26","","19.3","","99.76","","","","","","Drizzle"
"-52.75","47.62","ST. JOHN'S INTL A","8403505","2019-07-05 09:30","2019","07","05","09:30","11.0","","10.1","","94","","","","30","","22","","16.1","","99.76","","","","","","Drizzle"
"-52.75","47.62","ST. JOHN'S INTL A","8403505","2019-07-05 10:30","2019","07","05","10:30","11.3","","9.9","","91","","","","31","","26","","16.1","","99.78","","","","","","Drizzle"
"-52.75","47.62","ST. JOHN'S INTL A","8403505","2019-07-05 11:30","2019","07","05","11:30","11.2","","9.7","","90","","","","32","","21","","24.1","","99.81","","","","","","Cloudy"
"-52.75","47.62","ST. JOHN'S INTL A","8403505","2019-07-05 12:30","2019","07","05","12:30","12.3","","10.3","","87","","","","31","","19","","24.1","","99.78","","","","","","NA"
"-52.75","47.62","ST. JOHN'S INTL A","8403505","2019-07-05 13:30","2019","07","05","13:30","13.4","","10.3","","81","","","","29","","25","","24.1","","99.75","","","","","","NA"
"-52.75","47.62","ST. JOHN'S INTL A","8403505","2019-07-05 14:30","2019","07","05","14:30","12.9","","10.1","","83","","","","30","","17","","24.1","","99.75","","","","","","Cloudy"
"-52.75","47.62","ST. JOHN'S INTL A","8403505","2019-07-05 15:30","2019","07","05","15:30","13.5","","10.3","","81","","","","32","","13","","24.1","","99.74","","","","","","NA"
"-52.75","47.62","ST. JOHN'S INTL A","8403505","2019-07-05 16:30","2019","07","05","16:30","13.4","","10.2","","81","","","","31","","18","","24.1","","99.75","","","","","","NA"
"-52.75","47.62","ST. JOHN'S INTL A","8403505","2019-07-05 17:30","2019","07","05","17:30","13.1","","10.1","","82","","","","33","","14","","24.1","","99.77","","","","","","Cloudy"
"-52.75","47.62","ST. JOHN'S INTL A","8403505","2019-07-05 18:30","2019","07","05","18:30","11.6","","9.5","","87","","","","36","","3","","24.1","","99.78","","","","","","NA"
"-52.75","47.62","ST. JOHN'S INTL A","8403505","2019-07-05 19:30","2019","07","05","19:30","10.6","","8.9","","90","","","","7","","7","","24.1","","99.78","","","","","","NA"
"-52.75","47.62","ST. JOHN'S INTL A","8403505","2019-07-05 20:30","2019","07","05","20:30","9.1","","7.9","","92","","","","9","","8","","24.1","","99.82","","","","","","Cloudy"
"-52.75","47.62","ST. JOHN'S INTL A","8403505","2019-07-05 21:30","2019","07","05","21:30","9.6","","8.4","","92","","","","12","","4","","24.1","","99.83","","","","","","NA"
"-52.75","47.62","ST. JOHN'S INTL A","8403505","2019-07-05 22:30","2019","07","05","22:30","9.7","","8.5","","92","","","","6","","4","","24.1","","99.79","","","","","","NA"
"-52.75","47.62","ST. JOHN'S INTL A","8403505","2019-07-05 23:30","2019","07","05","23:30","9.1","","8.1","","94","","","","8","","5","","24.1","","99.76","","","","","","Cloudy"
"-52.75","47.62","ST. JOHN'S INTL A","8403505","2019-07-06 00:30","2019","07","06","00:30","8.7","","8.0","","95","","","","36","","2","","24.1","","99.70","","","","","","NA"
"-52.75","47.62","ST. JOHN'S INTL A","8403505","2019-07-06 01:30","2019","07","06","01:30","9.1","","8.1","","94","","","","36","","2","","24.1","","99.64","","","","","","NA"
"-52.75","47.62","ST. JOHN'S INTL A","8403505","2019-07-06 02:30","2019","07","06","02:30","9.3","","8.3","","94","","","","36","","2","","24.1","","99.63","","","","","","Cloudy"
"-52.75","47.62","ST. JOHN'S INTL A","8403505","2019-07-06 03:30","2019","07","06","03:30","9.5","","8.7","","95","","","","35","","9","","24.1","","99.61","","","","","","NA"
"-52.75","47.62","ST. JOHN'S INTL A","8403505","2019-07-06 04:30","2019","07","06","04:30","9.4","","8.7","","95","","","","35","","8","","24.1","","99.60","","","","","","NA"
"-52.75","47.62","ST. JOHN'S INTL A","8403505","2019-07-06 05:30","2019","07","06","05:30","9.5","","8.8","","96","","","","36","","7","","24.1","","99.62","","","","","","Cloudy"
"-52.75","47.62","ST. JOHN'S INTL A","8403505","2019-07-06 06:30","2019","07","06","06:30","9.8","","8.7","","92","","","","3","","4","","24.1","","99.61","","","","","","NA"
"-52.75","47.62","ST. JOHN'S INTL A","8403505","2019-07-06 07:30","2019","07","06","07:30","10.8","","9.0","","89","","","","30","","5","","24.1","","99.61","","","","","","NA"
"-52.75","47.62","ST. JOHN'S INTL A","8403505","2019-07-06 08:30","2019","07","06","08:30","11.6","","9.5","","87","","","","25","","4","","24.1","","99.59","","","","","","Cloudy"
"-52.75","47.62","ST. JOHN'S INTL A","8403505","2019-07-06 09:30","2019","07","06","09:30","13.2","","10.4","","83","","","","14","","10","","24.1","","99.53","","","","","","NA"
"-52.75","47.62","ST. JOHN'S INTL A","8403505","2019-07-06 10:30","2019","07","06","10:30","15.3","","12.0","","80","","","","15","","12","","24.1","","99.46","","","","","","NA"
"-52.75","47.62","ST. JOHN'S INTL A","8403505","2019-07-06 11:30","2019","07","06","11:30","16.2","","12.5","","79","","","","18","","6","","24.1","","99.44","","","","","","Mostly Cloudy"
"-52.75","47.62","ST. JOHN'S INTL A","8403505","2019-07-06 12:30","2019","07","06","12:30","18.4","","12.4","","68","","","","25","","12","","24.1","","99.36","","","","","","NA"
"-52.75","47.62","ST. JOHN'S INTL A","8403505","2019-07-06 13:30","2019","07","06","13:30","17.6","","13.0","","74","","","","15","","10","","24.1","","99.25","","","","","","NA"
"-52.75","47.62","ST. JOHN'S INTL A","8403505","2019-07-06 14:30","2019","07","06","14:30","16.7","","12.5","","76","","","","17","","14","","24.1","","99.23","","","","","","Cloudy"
"-52.75","47.62","ST. JOHN'S INTL A","8403505","2019-07-06 15:30","2019","07","06","15:30","17.2","","12.6","","74","","","","17","","18","","24.1","","99.17","","","","","","NA"
"-52.75","47.62","ST. JOHN'S INTL A","8403505","2019-07-06 16:30","2019","07","06","16:30","16.5","","13.1","","80","","","","17","","17","","24.1","","99.14","","","","","","NA"
"-52.75","47.62","ST. JOHN'S INTL A","8403505","2019-07-06 17:30","2019","07","06","17:30","18.0","","13.2","","73","","","","18","","17","","24.1","","99.08","","","","","","Cloudy"
"-52.75","47.62","ST. JOHN'S INTL A","8403505","2019-07-06 18:30","2019","07","06","18:30","17.0","","13.0","","77","","","","19","","12","","24.1","","99.01","","","","","","NA"
"-52.75","47.62","ST. JOHN'S INTL A","8403505","2019-07-06 19:30","2019","07","06","19:30","17.8","","12.0","","69","","","","22","","18","","24.1","","98.95","","","","","","NA"
"-52.75","47.62","ST. JOHN'S INTL A","8403505","2019-07-06 20:30","2019","07","06","20:30","17.0","","12.1","","73","","","","22","","18","","24.1","","98.89","","","","","","Mostly Cloudy"
"-52.75","47.62","ST. JOHN'S INTL A","8403505","2019-07-06 21:30","2019","07","06","21:30","16.9","","13.3","","79","","","","22","","20","","24.1","","98.82","","","","","","NA"
"-52.75","47.62","ST. JOHN'S INTL A","8403505","2019-07-06 22:30","2019","07","06","22:30","17.7","","13.7","","77","","","","24","","27","","24.1","","98.73","","","","","","NA"
"-52.75","47.62","ST. JOHN'S INTL A","8403505","2019-07-06 23:30","2019","07","06","23:30","18.0","","13.0","","72","","","","24","","25","","24.1","","98.66","","","","","","Cloudy"
"-52.75","47.62","ST. JOHN'S INTL A","8403505","2019-07-07 00:30","2019","07","07","00:30","17.8","","11.9","","68","","","","26","","20","","24.1","","98.55","","","","","","NA"
"-52.75","47.62","ST. JOHN'S INTL A","8403505","2019-07-07 01:30","2019","07","07","01:30","17.9","","11.7","","67","","","","24","","24","","24.1","","98.44","","","","","","NA"
"-52.75","47.62","ST. JOHN'S INTL A","8403505","2019-07-07 02:30","2019","07","07","02:30","16.9","","13.0","","78","","","","24","","31","","24.1","","98.37","","","","","","Cloudy"
"-52.75","47.62","ST. JOHN'S INTL A","8403505","2019-07-07 03:30","2019","07","07","03:30","16.1","","14.7","","92","","","","24","","37","","24.1","","98.30","","","","","","NA"
"-52.75","47.62","ST. JOHN'S INTL A","8403505","2019-07-07 04:30","2019","07","07","04:30","17.3","","16.0","","92","","","","24","","30","","24.1","","98.26","","","","","","NA"
"-52.75","47.62","ST. JOHN'S INTL A","8403505","2019-07-07 05:30","2019","07","07","05:30","17.4","","16.6","","95","","","","23","","25","","19.3","","98.22","","","","","","Rain Showers"
"-52.75","47.62","ST. JOHN'S INTL A","8403505","2019-07-07 06:30","2019","07","07","06:30","16.5","","16.0","","97","","","","23","","23","","24.1","","98.19","","","","","","Rain Showers"
"-52.75","47.62","ST. JOHN'S INTL A","8403505","2019-07-07 07:30","2019","07","07","07:30","16.3","","15.8","","97","","","","23","","20","","24.1","","98.14","","","","","","Rain Showers"
"-52.75","47.62","ST. JOHN'S INTL A","8403505","2019-07-07 08:30","2019","07","07","08:30","16.0","","15.2","","95","","","","23","","33","","24.1","","98.02","","","","","","Rain Showers"
"-52.75","47.62","ST. JOHN'S INTL A","8403505","2019-07-07 09:30","2019","07","07","09:30","16.4","","15.2","","93","","","","27","","29","","24.1","","98.06","","","","","","NA"
"-52.75","47.62","ST. JOHN'S INTL A","8403505","2019-07-07 10:30","2019","07","07","10:30","16.4","","15.2","","93","","","","26","","32","","24.1","","98.07","","","","","","NA"
"-52.75","47.62","ST. JOHN'S INTL A","8403505","2019-07-07 11:30","2019","07","07","11:30","16.6","","15.3","","92","","","","26","","23","","24.1","","98.09","","","","","","Cloudy"
"-52.75","47.62","ST. JOHN'S INTL A","8403505","2019-07-07 12:30","2019","07","07","12:30","20.4","","16.1","","76","","","","27","","30","","24.1","","98.08","","25","","","","NA"
"-52.75","47.62","ST. JOHN'S INTL A","8403505","2019-07-07 13:30","2019","07","07","13:30","21.4","","16.0","","71","","","","28","","34","","24.1","","98.12","","26","","","","NA"
"-52.75","47.62","ST. JOHN'S INTL A","8403505","2019-07-07 14:30","2019","07","07","14:30","22.5","","16.4","","68","","","","29","","25","","24.1","","98.14","","27","","","","Mainly Clear"
"-52.75","47.62","ST. JOHN'S INTL A","8403505","2019-07-07 15:30","2019","07","07","15:30","23.5","","16.3","","64","","","","26","","24","","24.1","","98.16","","28","","","","NA"
"-52.75","47.62","ST. JOHN'S INTL A","8403505","2019-07-07 16:30","2019","07","07","16:30","23.5","","15.9","","62","","","","27","","27","","24.1","","98.19","","28","","","","NA"
"-52.75","47.62","ST. JOHN'S INTL A","8403505","2019-07-07 17:30","2019","07","07","17:30","23.3","","14.9","","59","","","","28","","22","","24.1","","98.24","","27","","","","Mainly Clear"
"-52.75","47.62","ST. JOHN'S INTL A","8403505","2019-07-07 18:30","2019","07","07","18:30","21.6","","14.0","","62","","","","27","","25","","24.1","","98.30","","25","","","","NA"
"-52.75","47.62","ST. JOHN'S INTL A","8403505","2019-07-07 19:30","2019","07","07","19:30","18.2","","13.3","","73","","","","3","","17","","24.1","","98.42","","","","","","NA"
"-52.75","47.62","ST. JOHN'S INTL A","8403505","2019-07-07 20:30","2019","07","07","20:30","14.3","","12.7","","90","","","","3","","10","","24.1","","98.51","","","","","","Mainly Clear"
"-52.75","47.62","ST. JOHN'S INTL A","8403505","2019-07-07 21:30","2019","07","07","21:30","13.5","","12.9","","96","","","","32","","3","","24.1","","98.60","","","","","","NA"
"-52.75","47.62","ST. JOHN'S INTL A","8403505","2019-07-07 22:30","2019","07","07","22:30","12.8","","12.2","","96","","","","3","","7","","24.1","","98.65","","","","","","NA"
"-52.75","47.62","ST. JOHN'S INTL A","8403505","2019-07-07 23:30","2019","07","07","23:30","12.0","","11.5","","97","","","","34","","5","","24.1","","98.68","","","","","","Mostly Cloudy"
"-52.75","47.62","ST. JOHN'S INTL A","8403505","2019-07-08 00:30","2019","07","08","00:30","11.2","","10.8","","97","","","","27","","9","","24.1","","98.71","","","","","","NA"
"-52.75","47.62","ST. JOHN'S INTL A","8403505","2019-07-08 01:30","2019","07","08","01:30","12.3","","12.1","","98","","","","23","","7","","2.0","","98.73","","","","","","Fog"
"-52.75","47.62","ST. JOHN'S INTL A","8403505","2019-07-08 02:30","2019","07","08","02:30","11.5","","11.3","","99","","","","25","","13","","24.1","","98.74","","","","","","Mainly Clear"
"-52.75","47.62","ST. JOHN'S INTL A","8403505","2019-07-08 03:30","2019","07","08","03:30","10.1","","9.8","","98","","","","27","","17","","24.1","","98.75","","","","","","NA"
"-52.75","47.62","ST. JOHN'S INTL A","8403505","2019-07-08 04:30","2019","07","08","04:30","10.7","","9.4","","92","","","","26","","17","","24.1","","98.79","","","","","","NA"
"-52.75","47.62","ST. JOHN'S INTL A","8403505","2019-07-08 05:30","2019","07","08","05:30","12.5","","9.6","","82","","","","26","","22","","24.1","","98.81","","","","","","Clear"
"-52.75","47.62","ST. JOHN'S INTL A","8403505","2019-07-08 06:30","2019","07","08","06:30","14.1","","9.6","","74","","","","27","","23","","24.1","","98.85","","","","","","NA"
"-52.75","47.62","ST. JOHN'S INTL A","8403505","2019-07-08 07:30","2019","07","08","07:30","16.2","","9.9","","66","","","","25","","18","","24.1","","98.89","","","","","","NA"
"-52.75","47.62","ST. JOHN'S INTL A","8403505","2019-07-08 08:30","2019","07","08","08:30","18.3","","10.3","","59","","","","25","","16","","24.1","","98.88","","","","","","Clear"
"-52.75","47.62","ST. JOHN'S INTL A","8403505","2019-07-08 09:30","2019","07","08","09:30","19.9","","9.3","","50","","","","28","","21","","24.1","","98.90","","","","","","NA"
"-52.75","47.62","ST. JOHN'S INTL A","8403505","2019-07-08 10:30","2019","07","08","10:30","21.2","","8.0","","42","","","","26","","23","","24.1","","98.87","","","","","","NA"
"-52.75","47.62","ST. JOHN'S INTL A","8403505","2019-07-08 11:30","2019","07","08","11:30","21.8","","7.1","","38","","","","26","","24","","24.1","","98.84","","","","","","Mainly Clear"
"-52.75","47.62","ST. JOHN'S INTL A","8403505","2019-07-08 12:30","2019","07","08","12:30","22.1","","6.5","","36","","","","25","","25","","24.1","","98.85","","","","","","NA"
"-52.75","47.62","ST. JOHN'S INTL A","8403505","2019-07-08 13:30","2019","07","08","13:30","23.0","","6.9","","35","","","","28","","28","","24.1","","98.84","","","","","","NA"
"-52.75","47.62","ST. JOHN'S INTL A","8403505","2019-07-08 14:30","2019","07","08","14:30","23.1","","7.2","","35","","","","27","","28","","24.1","","98.84","","","","","","Mainly Clear"
"-52.75","47.62","ST. JOHN'S INTL A","8403505","2019-07-08 15:30","2019","07","08","15:30","22.9","","7.1","","36","","","","27","","24","","24.1","","98.85","","","","","","NA"
"-52.75","47.62","ST. JOHN'S INTL A","8403505","2019-07-08 16:30","2019","07","08","16:30","22.6","","7.5","","37","","","","25","","26","","24.1","","98.86","","","","","","NA"
"-52.75","47.62","ST. JOHN'S INTL A","8403505","2019-07-08 17:30","2019","07","08","17:30","21.7","","7.3","","39","","","","27","","33","","24.1","","98.86","","","","","","Mainly Clear"
"-52.75","47.62","ST. JOHN'S INTL A","8403505","2019-07-08 18:30","2019","07","08","18:30","20.6","","7.7","","43","","","","27","","28","","24.1","","98.92","","","","","","NA"
"-52.75","47.62","ST. JOHN'S INTL A","8403505","2019-07-08 19:30","2019","07","08","19:30","19.0","","7.3","","46","","","","26","","28","","24.1","","98.92","","","","","","NA"
"-52.75","47.62","ST. JOHN'S INTL A","8403505","2019-07-08 20:30","2019","07","08","20:30","17.2","","7.7","","53","","","","26","","26","","24.1","","99.00","","","","","","Mainly Clear"
"-52.75","47.62","ST. JOHN'S INTL A","8403505","2019-07-08 21:30","2019","07","08","21:30","16.1","","7.2","","55","","","","26","","30","","24.1","","99.01","","","","","","NA"
"-52.75","47.62","ST. JOHN'S INTL A","8403505","2019-07-08 22:30","2019","07","08","22:30","15.0","","7.1","","59","","","","26","","32","","24.1","","99.01","","","","","","NA"
"-52.75","47.62","ST. JOHN'S INTL A","8403505","2019-07-08 23:30","2019","07","08","23:30","14.1","","7.4","","64","","","","26","","34","","24.1","","99.01","","","","","","Mainly Clear"
"-52.75","47.62","ST. JOHN'S INTL A","8403505","2019-07-09 00:30","2019","07","09","00:30","13.8","","7.8","","67","","","","26","","31","","24.1","","99.01","","","","","","NA"
"-52.75","47.62","ST. JOHN'S INTL A","8403505","2019-07-09 01:30","2019","07","09","01:30","13.1","","7.9","","70","","","","26","","29","","24.1","","98.98","","","","","","NA"
"-52.75","47.62","ST. JOHN'S INTL A","8403505","2019-07-09 02:30","2019","07","09","02:30","13.8","","7.5","","66","","","","27","","32","","24.1","","98.97","","","","","","Mainly Clear"
"-52.75","47.62","ST. JOHN'S INTL A","8403505","2019-07-09 03:30","2019","07","09","03:30","15.0","","7.0","","58","","","","26","","31","","24.1","","98.97","","","","","","NA"
"-52.75","47.62","ST. JOHN'S INTL A","8403505","2019-07-09 04:30","2019","07","09","04:30","14.9","","6.8","","58","","","","26","","26","","24.1","","98.99","","","","","","NA"
"-52.75","47.62","ST. JOHN'S INTL A","8403505","2019-07-09 05:30","2019","07","09","05:30","14.4","","8.1","","65","","","","25","","22","","24.1","","99.00","","","","","","Mainly Clear"
"-52.75","47.62","ST. JOHN'S INTL A","8403505","2019-07-09 06:30","2019","07","09","06:30","17.3","","8.5","","56","","","","26","","21","","24.1","","98.99","","","","","","NA"
"-52.75","47.62","ST. JOHN'S INTL A","8403505","2019-07-09 07:30","2019","07","09","07:30","19.4","","9.8","","53","","","","25","","23","","24.1","","98.99","","","","","","NA"
"-52.75","47.62","ST. JOHN'S INTL A","8403505","2019-07-09 08:30","2019","07","09","08:30","21.0","","9.1","","46","","","","24","","28","","24.1","","98.93","","","","","","Mainly Clear"
"-52.75","47.62","ST. JOHN'S INTL A","8403505","2019-07-09 09:30","2019","07","09","09:30","22.3","","9.6","","44","","","","25","","30","","24.1","","98.92","","","","","","NA"
"-52.75","47.62","ST. JOHN'S INTL A","8403505","2019-07-09 10:30","2019","07","09","10:30","23.7","","10.2","","42","","","","25","","27","","24.1","","98.88","","25","","","","NA"
"-52.75","47.62","ST. JOHN'S INTL A","8403505","2019-07-09 11:30","2019","07","09","11:30","23.4","","10.8","","45","","","","26","","28","","24.1","","98.86","","25","","","","Mainly Clear"
"-52.75","47.62","ST. JOHN'S INTL A","8403505","2019-07-09 12:30","2019","07","09","12:30","24.1","","8.6","","37","","","","24","","36","","24.1","","98.79","","25","","","","NA"
"-52.75","47.62","ST. JOHN'S INTL A","8403505","2019-07-09 13:30","2019","07","09","13:30","22.8","","10.4","","45","","","","28","","34","","24.1","","98.79","","","","","","NA"
"-52.75","47.62","ST. JOHN'S INTL A","8403505","2019-07-09 14:30","2019","07","09","14:30","22.0","","10.2","","46","","","","26","","32","","24.1","","98.80","","","","","","Mostly Cloudy"
"-52.75","47.62","ST. JOHN'S INTL A","8403505","2019-07-09 15:30","2019","07","09","15:30","22.1","","10.6","","47","","","","26","","30","","24.1","","98.79","","","","","","NA"
"-52.75","47.62","ST. JOHN'S INTL A","8403505","2019-07-09 16:30","2019","07","09","16:30","20.8","","9.6","","48","","","","26","","31","","24.1","","98.80","","","","","","NA"
"-52.75","47.62","ST. JOHN'S INTL A","8403505","2019-07-09 17:30","2019","07","09","17:30","20.0","","9.0","","49","","","","25","","31","","24.1","","98.80","","","","","","Mainly Clear"
"-52.75","47.62","ST. JOHN'S INTL A","8403505","2019-07-09 18:30","2019","07","09","18:30","18.8","","9.9","","56","","","","25","","30","","24.1","","98.82","","","","","","NA"
"-52.75","47.62","ST. JOHN'S INTL A","8403505","2019-07-09 19:30","2019","07","09","19:30","16.9","","10.8","","67","","","","24","","29","","24.1","","98.86","","","","","","NA"
"-52.75","47.62","ST. JOHN'S INTL A","8403505","2019-07-09 20:30","2019","07","09","20:30","15.4","","11.1","","75","","","","24","","17","","24.1","","98.91","","","","","","Mainly Clear"
"-52.75","47.62","ST. JOHN'S INTL A","8403505","2019-07-09 21:30","2019","07","09","21:30","14.3","","10.9","","80","","","","25","","23","","24.1","","98.90","","","","","","NA"
"-52.75","47.62","ST. JOHN'S INTL A","8403505","2019-07-09 22:30","2019","07","09","22:30","13.1","","9.0","","76","","","","25","","25","","24.1","","98.88","","","","","","NA"
"-52.75","47.62","ST. JOHN'S INTL A","8403505","2019-07-09 23:30","2019","07","09","23:30","12.3","","8.4","","77","","","","25","","28","","24.1","","98.86","","","","","","Mainly Clear"
"-52.75","47.62","ST. JOHN'S INTL A","8403505","2019-07-10 00:30","2019","07","10","00:30","11.3","","8.2","","81","","","","26","","28","","24.1","","98.83","","","","","","NA"
"-52.75","47.62","ST. JOHN'S INTL A","8403505","2019-07-10 01:30","2019","07","10","01:30","10.1","","8.1","","87","","","","27","","25","","24.1","","98.80","","","","","","NA"
"-52.75","47.62","ST. JOHN'S INTL A","8403505","2019-07-10 02:30","2019","07","10","02:30","9.6","","8.4","","92","","","","26","","22","","24.1","","98.80","","","","","","Mainly Clear"
"-52.75","47.62","ST. JOHN'S INTL A","8403505","2019-07-10 03:30","2019","07","10","03:30","9.2","","8.4","","95","","","","27","","26","","24.1","","98.81","","","","","","NA"
"-52.75","47.62","ST. JOHN'S INTL A","8403505","2019-07-10 04:30","2019","07","10","04:30","9.6","","8.8","","94","","","","27","","23","","24.1","","98.85","","","","","","NA"
"-52.75","47.62","ST. JOHN'S INTL A","8403505","2019-07-10 05:30","2019","07","10","05:30","10.7","","9.2","","91","","","","27","","24","","24.1","","98.88","","","","","","Mostly Cloudy"
"-52.75","47.62","ST. JOHN'S INTL A","8403505","2019-07-10 06:30","2019","07","10","06:30","11.1","","9.6","","90","","","","28","","18","","24.1","","98.94","","","","","","NA"
"-52.75","47.62","ST. JOHN'S INTL A","8403505","2019-07-10 07:30","2019","07","10","07:30","11.5","","9.8","","89","","","","30","","15","","24.1","","99.01","","","","","","NA"
"-52.75","47.62","ST. JOHN'S INTL A","8403505","2019-07-10 08:30","2019","07","10","08:30","11.9","","9.7","","86","","","","28","","11","","24.1","","99.03","","","","","","Cloudy"
"-52.75","47.62","ST. JOHN'S INTL A","8403505","2019-07-10 09:30","2019","07","10","09:30","12.0","","10.1","","88","","","","30","","7","","24.1","","99.05","","","","","","NA"
"-52.75","47.62","ST. JOHN'S INTL A","8403505","2019-07-10 10:30","2019","07","10","10:30","13.6","","10.0","","79","","","","26","","6","","24.1","","99.04","","","","","","NA"
"-52.75","47.62","ST. JOHN'S INTL A","8403505","2019-07-10 11:30","2019","07","10","11:30","12.0","","9.8","","86","","","","5","","18","","24.1","","99.07","","","","","","Rain Showers"
"-52.75","47.62","ST. JOHN'S INTL A","8403505","2019-07-10 12:30","2019","07","10","12:30","10.2","","9.7","","97","","","","6","","20","","0.8","","99.08","","","","","","Fog"
"-52.75","47.62","ST. JOHN'S INTL A","8403505","2019-07-10 13:30","2019","07","10","13:30","10.3","","9.9","","98","","","","5","","14","","1.6","","99.09","","","","","","Fog"
"-52.75","47.62","ST. JOHN'S INTL A","8403505","2019-07-10 14:30","2019","07","10","14:30","10.6","","9.7","","94","","","","5","","9","","8.1","","99.10","","","","","","Fog"
"-52.75","47.62","ST. JOHN'S INTL A","8403505","2019-07-10 15:30","2019","07","10","15:30","10.4","","9.0","","91","","","","7","","12","","24.1","","99.11","","","","","","NA"
"-52.75","47.62","ST. JOHN'S INTL A","8403505","2019-07-10 16:30","2019","07","10","16:30","9.8","","7.7","","86","","","","5","","16","","24.1","","99.12","","","","","","NA"
"-52.75","47.62","ST. JOHN'S INTL A","8403505","2019-07-10 17:30","2019","07","10","17:30","9.0","","7.6","","91","","","","6","","14","","24.1","","99.13","","","","","","Cloudy"
"-52.75","47.62","ST. JOHN'S INTL A","8403505","2019-07-10 18:30","2019","07","10","18:30","8.8","","8.0","","95","","","","5","","10","","24.1","","99.13","","","","","","NA"
"-52.75","47.62","ST. JOHN'S INTL A","8403505","2019-07-10 19:30","2019","07","10","19:30","8.4","","7.7","","95","","","","7","","10","","24.1","","99.14","","","","","","NA"
"-52.75","47.62","ST. JOHN'S INTL A","8403505","2019-07-10 20:30","2019","07","10","20:30","8.2","","7.8","","97","","","","3","","10","","24.1","","99.22","","","","","","Rain"
"-52.75","47.62","ST. JOHN'S INTL A","8403505","2019-07-10 21:30","2019","07","10","21:30","7.8","","7.4","","97","","","","4","","12","","24.1","","99.21","","","","","","Rain"
"-52.75","47.62","ST. JOHN'S INTL A","8403505","2019-07-10 22:30","2019","07","10","22:30","7.6","","7.3","","98","","","","4","","12","","19.3","","99.23","","","","","","NA"
"-52.75","47.62","ST. JOHN'S INTL A","8403505","2019-07-10 23:30","2019","07","10","23:30","7.4","","7.0","","97","","","","5","","12","","24.1","","99.22","","","","","","Rain"
"-52.75","47.62","ST. JOHN'S INTL A","8403505","2019-07-11 00:30","2019","07","11","00:30","7.2","","6.8","","97","","","","3","","11","","24.1","","99.20","","","","","","Rain"
"-52.75","47.62","ST. JOHN'S INTL A","8403505","2019-07-11 01:30","2019","07","11","01:30","7.1","","6.7","","97","","","","36","","10","","24.1","","99.15","","","","","","NA"
"-52.75","47.62","ST. JOHN'S INTL A","8403505","2019-07-11 02:30","2019","07","11","02:30","7.1","","6.7","","97","","","","34","","6","","24.1","","99.16","","","","","","Cloudy"
"-52.75","47.62","ST. JOHN'S INTL A","8403505","2019-07-11 03:30","2019","07","11","03:30","7.2","","6.7","","97","","","","36","","12","","24.1","","99.17","","","","","","NA"
"-52.75","47.62","ST. JOHN'S INTL A","8403505","2019-07-11 04:30","2019","07","11","04:30","7.4","","7.0","","97","","","","36","","5","","24.1","","99.22","","","","","","NA"
"-52.75","47.62","ST. JOHN'S INTL A","8403505","2019-07-11 05:30","2019","07","11","05:30","7.8","","7.2","","96","","","","32","","6","","24.1","","99.26","","","","","","Cloudy"
"-52.75","47.62","ST. JOHN'S INTL A","8403505","2019-07-11 06:30","2019","07","11","06:30","8.4","","7.4","","93","","","","35","","7","","24.1","","99.30","","","","","","NA"
"-52.75","47.62","ST. JOHN'S INTL A","8403505","2019-07-11 07:30","2019","07","11","07:30","9.2","","7.5","","89","","","","35","","11","","24.1","","99.33","","","","","","NA"
"-52.75","47.62","ST. JOHN'S INTL A","8403505","2019-07-11 08:30","2019","07","11","08:30","9.5","","7.8","","89","","","","34","","11","","24.1","","99.37","","","","","","Cloudy"
"-52.75","47.62","ST. JOHN'S INTL A","8403505","2019-07-11 09:30","2019","07","11","09:30","9.7","","8.7","","93","","","","35","","14","","12.9","","99.40","","","","","","Drizzle"
"-52.75","47.62","ST. JOHN'S INTL A","8403505","2019-07-11 10:30","2019","07","11","10:30","10.5","","8.7","","89","","","","35","","14","","24.1","","99.40","","","","","","Drizzle"
"-52.75","47.62","ST. JOHN'S INTL A","8403505","2019-07-11 11:30","2019","07","11","11:30","10.5","","8.7","","89","","","","31","","19","","19.3","","99.41","","","","","","Drizzle"
"-52.75","47.62","ST. JOHN'S INTL A","8403505","2019-07-11 12:30","2019","07","11","12:30","10.3","","9.0","","91","","","","31","","22","","19.3","","99.40","","","","","","Drizzle"
"-52.75","47.62","ST. JOHN'S INTL A","8403505","2019-07-11 13:30","2019","07","11","13:30","10.0","","8.3","","89","","","","34","","22","","12.9","","99.39","","","","","","Drizzle"
"-52.75","47.62","ST. JOHN'S INTL A","8403505","2019-07-11 14:30","2019","07","11","14:30","10.1","","8.7","","91","","","","33","","23","","12.9","","99.39","","","","","","Drizzle"
"-52.75","47.62","ST. JOHN'S INTL A","8403505","2019-07-11 15:30","2019","07","11","15:30","9.5","","8.8","","96","","","","34","","19","","12.9","","99.45","","","","","","Drizzle"
"-52.75","47.62","ST. JOHN'S INTL A","8403505","2019-07-11 16:30","2019","07","11","16:30","9.3","","8.7","","96","","","","35","","20","","4.8","","99.44","","","","","","Drizzle,Fog"
"-52.75","47.62","ST. JOHN'S INTL A","8403505","2019-07-11 17:30","2019","07","11","17:30","8.6","","8.1","","97","","","","35","","25","","4.8","","99.48","","","","","","Drizzle,Fog"
"-52.75","47.62","ST. JOHN'S INTL A","8403505","2019-07-11 18:30","2019","07","11","18:30","8.3","","7.8","","97","","","","34","","20","","3.2","","99.51","","","","","","Drizzle,Fog"
"-52.75","47.62","ST. JOHN'S INTL A","8403505","2019-07-11 19:30","2019","07","11","19:30","8.1","","7.7","","97","","","","35","","15","","4.8","","99.57","","","","","","Drizzle,Fog"
"-52.75","47.62","ST. JOHN'S INTL A","8403505","2019-07-11 20:30","2019","07","11","20:30","8.0","","7.6","","97","","","","35","","22","","3.2","","99.62","","","","","","Drizzle,Fog"
"-52.75","47.62","ST. JOHN'S INTL A","8403505","2019-07-11 21:30","2019","07","11","21:30","8.0","","7.6","","98","","","","33","","16","","4.8","","99.68","","","","","","Drizzle,Fog"
"-52.75","47.62","ST. JOHN'S INTL A","8403505","2019-07-11 22:30","2019","07","11","22:30","7.9","","7.6","","98","","","","34","","19","","4.8","","99.72","","","","","","Drizzle,Fog"
"-52.75","47.62","ST. JOHN'S INTL A","8403505","2019-07-11 23:30","2019","07","11","23:30","8.0","","7.7","","98","","","","33","","17","","12.9","","99.71","","","","","","Drizzle"
"-52.75","47.62","ST. JOHN'S INTL A","8403505","2019-07-12 00:30","2019","07","12","00:30","8.1","","7.7","","98","","","","32","","18","","16.1","","99.69","","","","","","Drizzle"
"-52.75","47.62","ST. JOHN'S INTL A","8403505","2019-07-12 01:30","2019","07","12","01:30","7.9","","7.6","","98","","","","34","","24","","19.3","","99.68","","","","","","Drizzle"
"-52.75","47.62","ST. JOHN'S INTL A","8403505","2019-07-12 02:30","2019","07","12","02:30","8.0","","7.6","","98","","","","33","","23","","19.3","","99.67","","","","","","Drizzle"
"-52.75","47.62","ST. JOHN'S INTL A","8403505","2019-07-12 03:30","2019","07","12","03:30","7.9","","7.6","","98","","","","33","","22","","19.3","","99.71","","","","","","Drizzle"
"-52.75","47.62","ST. JOHN'S INTL A","8403505","2019-07-12 04:30","2019","07","12","04:30","7.9","","7.6","","98","","","","33","","26","","24.1","","99.76","","","","","","NA"
"-52.75","47.62","ST. JOHN'S INTL A","8403505","2019-07-12 05:30","2019","07","12","05:30","8.2","","7.8","","97","","","","33","","31","","24.1","","99.83","","","","","","Cloudy"
"-52.75","47.62","ST. JOHN'S INTL A","8403505","2019-07-12 06:30","2019","07","12","06:30","8.1","","7.8","","97","","","","31","","26","","12.9","","99.91","","","","","","NA"
"-52.75","47.62","ST. JOHN'S INTL A","8403505","2019-07-12 07:30","2019","07","12","07:30","8.3","","8.0","","98","","","","33","","22","","2.4","","99.97","","","","","","Drizzle,Fog"
"-52.75","47.62","ST. JOHN'S INTL A","8403505","2019-07-12 08:30","2019","07","12","08:30","8.5","","8.2","","98","","","","33","","23","","19.3","","99.97","","","","","","Drizzle"
"-52.75","47.62","ST. JOHN'S INTL A","8403505","2019-07-12 09:30","2019","07","12","09:30","9.0","","8.5","","97","","","","35","","25","","24.1","","100.02","","","","","","NA"
"-52.75","47.62","ST. JOHN'S INTL A","8403505","2019-07-12 10:30","2019","07","12","10:30","10.6","","8.6","","87","","","","33","","18","","24.1","","100.02","","","","","","NA"
"-52.75","47.62","ST. JOHN'S INTL A","8403505","2019-07-12 11:30","2019","07","12","11:30","12.3","","8.7","","79","","","","33","","18","","24.1","","100.04","","","","","","Mostly Cloudy"
"-52.75","47.62","ST. JOHN'S INTL A","8403505","2019-07-12 12:30","2019","07","12","12:30","13.7","","8.1","","69","","","","33","","22","","24.1","","100.05","","","","","","NA"
"-52.75","47.62","ST. JOHN'S INTL A","8403505","2019-07-12 13:30","2019","07","12","13:30","14.4","","8.2","","66","","","","32","","23","","24.1","","100.07","","","","","","NA"
"-52.75","47.62","ST. JOHN'S INTL A","8403505","2019-07-12 14:30","2019","07","12","14:30","15.3","","7.9","","61","","","","34","","20","","24.1","","100.09","","","","","","Mostly Cloudy"
"-52.75","47.62","ST. JOHN'S INTL A","8403505","2019-07-12 15:30","2019","07","12","15:30","15.5","","8.8","","64","","","","7","","14","","24.1","","100.11","","","","","","NA"
"-52.75","47.62","ST. JOHN'S INTL A","8403505","2019-07-12 16:30","2019","07","12","16:30","14.3","","7.7","","64","","","","5","","12","","24.1","","100.14","","","","","","NA"
"-52.75","47.62","ST. JOHN'S INTL A","8403505","2019-07-12 17:30","2019","07","12","17:30","13.6","","7.1","","65","","","","5","","11","","24.1","","100.18","","","","","","Mainly Clear"
"-52.75","47.62","ST. JOHN'S INTL A","8403505","2019-07-12 18:30","2019","07","12","18:30","11.7","","6.9","","72","","","","13","","8","","24.1","","100.20","","","","","","NA"
"-52.75","47.62","ST. JOHN'S INTL A","8403505","2019-07-12 19:30","2019","07","12","19:30","9.7","","6.1","","78","","","","15","","9","","24.1","","100.20","","","","","","NA"
"-52.75","47.62","ST. JOHN'S INTL A","8403505","2019-07-12 20:30","2019","07","12","20:30","9.4","","7.1","","86","","","","19","","5","","24.1","","100.25","","","","","","Mainly Clear"
"-52.75","47.62","ST. JOHN'S INTL A","8403505","2019-07-12 21:30","2019","07","12","21:30","9.2","","7.2","","87","","","","23","","4","","24.1","","100.26","","","","","","NA"
"-52.75","47.62","ST. JOHN'S INTL A","8403505","2019-07-12 22:30","2019","07","12","22:30","9.1","","7.6","","90","","","","25","","10","","24.1","","100.28","","","","","","NA"
"-52.75","47.62","ST. JOHN'S INTL A","8403505","2019-07-12 23:30","2019","07","12","23:30","9.2","","7.7","","90","","","","26","","22","","24.1","","100.26","","","","","","Clear"
"-52.75","47.62","ST. JOHN'S INTL A","8403505","2019-07-13 00:30","2019","07","13","00:30","9.5","","8.0","","91","","","","26","","26","","24.1","","100.27","","","","","","NA"
"-52.75","47.62","ST. JOHN'S INTL A","8403505","2019-07-13 01:30","2019","07","13","01:30","9.1","","7.9","","93","","","","26","","23","","24.1","","100.23","","","","","","NA"
"-52.75","47.62","ST. JOHN'S INTL A","8403505","2019-07-13 02:30","2019","07","13","02:30","8.8","","7.8","","94","","","","27","","22","","24.1","","100.18","","","","","","Mainly Clear"
"-52.75","47.62","ST. JOHN'S INTL A","8403505","2019-07-13 03:30","2019","07","13","03:30","8.2","","7.9","","97","","","","28","","21","","24.1","","100.22","","","","","","NA"
"-52.75","47.62","ST. JOHN'S INTL A","8403505","2019-07-13 04:30","2019","07","13","04:30","8.0","","7.7","","98","","","","27","","15","","2.4","","100.22","","","","","","Fog"
"-52.75","47.62","ST. JOHN'S INTL A","8403505","2019-07-13 05:30","2019","07","13","05:30","8.8","","8.6","","99","","","","26","","20","","0.8","","100.25","","","","","","Fog"
"-52.75","47.62","ST. JOHN'S INTL A","8403505","2019-07-13 06:30","2019","07","13","06:30","9.7","","9.5","","99","","","","26","","11","","4.0","","100.29","","","","","","Fog"
"-52.75","47.62","ST. JOHN'S INTL A","8403505","2019-07-13 07:30","2019","07","13","07:30","12.0","","9.6","","85","","","","23","","11","","24.1","","100.32","","","","","","NA"
"-52.75","47.62","ST. JOHN'S INTL A","8403505","2019-07-13 08:30","2019","07","13","08:30","15.2","","10.2","","72","","","","17","","10","","24.1","","100.31","","","","","","Mostly Cloudy"
"-52.75","47.62","ST. JOHN'S INTL A","8403505","2019-07-13 09:30","2019","07","13","09:30","15.3","","10.8","","74","","","","11","","14","","24.1","","100.30","","","","","","NA"
"-52.75","47.62","ST. JOHN'S INTL A","8403505","2019-07-13 10:30","2019","07","13","10:30","15.1","","10.7","","75","","","","15","","14","","24.1","","100.29","","","","","","NA"
"-52.75","47.62","ST. JOHN'S INTL A","8403505","2019-07-13 11:30","2019","07","13","11:30","16.6","","10.9","","69","","","","27","","13","","24.1","","100.26","","","","","","Mostly Cloudy"
"-52.75","47.62","ST. JOHN'S INTL A","8403505","2019-07-13 12:30","2019","07","13","12:30","16.1","","11.0","","71","","","","13","","13","","24.1","","100.21","","","","","","NA"
"-52.75","47.62","ST. JOHN'S INTL A","8403505","2019-07-13 13:30","2019","07","13","13:30","14.6","","10.2","","75","","","","25","","15","","24.1","","100.22","","","","","","NA"
"-52.75","47.62","ST. JOHN'S INTL A","8403505","2019-07-13 14:30","2019","07","13","14:30","16.2","","10.6","","69","","","","29","","11","","24.1","","100.20","","","","","","Cloudy"
"-52.75","47.62","ST. JOHN'S INTL A","8403505","2019-07-13 15:30","2019","07","13","15:30","17.0","","10.6","","66","","","","25","","13","","24.1","","100.18","","","","","","NA"
"-52.75","47.62","ST. JOHN'S INTL A","8403505","2019-07-13 16:30","2019","07","13","16:30","16.1","","11.3","","73","","","","25","","10","","24.1","","100.14","","","","","","NA"
"-52.75","47.62","ST. JOHN'S INTL A","8403505","2019-07-13 17:30","2019","07","13","17:30","15.3","","11.3","","77","","","","19","","25","","24.1","","100.13","","","","","","Mostly Cloudy"
"-52.75","47.62","ST. JOHN'S INTL A","8403505","2019-07-13 18:30","2019","07","13","18:30","14.8","","10.5","","75","","","","19","","16","","24.1","","100.11","","","","","","NA"
"-52.75","47.62","ST. JOHN'S INTL A","8403505","2019-07-13 19:30","2019","07","13","19:30","12.7","","10.1","","84","","","","17","","17","","24.1","","100.07","","","","","","NA"
"-52.75","47.62","ST. JOHN'S INTL A","8403505","2019-07-13 20:30","2019","07","13","20:30","11.8","","11.1","","95","","","","18","","14","","24.1","","100.06","","","","","","Rain"
"-52.75","47.62","ST. JOHN'S INTL A","8403505","2019-07-13 21:30","2019","07","13","21:30","11.2","","10.8","","98","","","","16","","19","","24.1","","100.00","","","","","","Rain"
"-52.75","47.62","ST. JOHN'S INTL A","8403505","2019-07-13 22:30","2019","07","13","22:30","11.0","","10.8","","98","","","","15","","17","","9.7","","99.92","","","","","","Rain,Fog"
"-52.75","47.62","ST. JOHN'S INTL A","8403505","2019-07-13 23:30","2019","07","13","23:30","10.6","","10.3","","98","","","","14","","18","","0.6","","99.82","","","","","","Rain,Fog"
"-52.75","47.62","ST. JOHN'S INTL A","8403505","2019-07-14 00:30","2019","07","14","00:30","10.1","","9.9","","99","","","","14","","24","","0.8","","99.74","","","","","","Rain,Fog"
"-52.75","47.62","ST. JOHN'S INTL A","8403505","2019-07-14 01:30","2019","07","14","01:30","10.0","","9.8","","99","","","","14","","16","","0.8","","99.63","","","","","","Rain,Fog"
"-52.75","47.62","ST. JOHN'S INTL A","8403505","2019-07-14 02:30","2019","07","14","02:30","10.6","","10.4","","99","","","","11","","21","","3.2","","99.50","","","","","","Moderate Rain,Fog"
"-52.75","47.62","ST. JOHN'S INTL A","8403505","2019-07-14 03:30","2019","07","14","03:30","10.9","","10.7","","99","","","","10","","27","","3.2","","99.40","","","","","","Moderate Rain,Fog"
"-52.75","47.62","ST. JOHN'S INTL A","8403505","2019-07-14 04:30","2019","07","14","04:30","10.9","","10.8","","99","","","","11","","27","","0.8","","99.29","","","","","","Moderate Rain,Fog"
"-52.75","47.62","ST. JOHN'S INTL A","8403505","2019-07-14 05:30","2019","07","14","05:30","10.5","","10.3","","99","","","","11","","25","","0.6","","99.23","","","","","","Rain,Fog"
"-52.75","47.62","ST. JOHN'S INTL A","8403505","2019-07-14 06:30","2019","07","14","06:30","10.6","","10.4","","99","","","","11","","18","","0.2","","99.16","","","","","","Rain,Fog"
"-52.75","47.62","ST. JOHN'S INTL A","8403505","2019-07-14 07:30","2019","07","14","07:30","10.4","","10.3","","99","","","","10","","23","","0.4","","99.09","","","","","","Drizzle,Fog"
"-52.75","47.62","ST. JOHN'S INTL A","8403505","2019-07-14 08:30","2019","07","14","08:30","10.6","","10.5","","99","","","","11","","21","","0.2","","99.04","","","","","","Drizzle,Fog"
"-52.75","47.62","ST. JOHN'S INTL A","8403505","2019-07-14 09:30","2019","07","14","09:30","10.8","","10.7","","99","","","","8","","19","","0.2","","99.01","","","","","","Drizzle,Fog"
"-52.75","47.62","ST. JOHN'S INTL A","8403505","2019-07-14 10:30","2019","07","14","10:30","10.6","","10.4","","99","","","","3","","18","","0.2","","99.00","","","","","","Fog"
"-52.75","47.62","ST. JOHN'S INTL A","8403505","2019-07-14 11:30","2019","07","14","11:30","10.8","","10.7","","99","","","","4","","18","","0.2","","99.03","","","","","","Fog"
"-52.75","47.62","ST. JOHN'S INTL A","8403505","2019-07-14 12:30","2019","07","14","12:30","11.3","","11.1","","99","","","","4","","22","","0.4","","99.00","","","","","","Fog"
"-52.75","47.62","ST. JOHN'S INTL A","8403505","2019-07-14 13:30","2019","07","14","13:30","11.0","","10.8","","99","","","","3","","18","","0.4","","99.03","","","","","","Fog"
"-52.75","47.62","ST. JOHN'S INTL A","8403505","2019-07-14 14:30","2019","07","14","14:30","11.6","","11.4","","99","","","","1","","18","","0.8","","99.04","","","","","","Fog"
"-52.75","47.62","ST. JOHN'S INTL A","8403505","2019-07-14 15:30","2019","07","14","15:30","11.6","","11.2","","97","","","","36","","21","","2.4","","99.05","","","","","","Fog"
"-52.75","47.62","ST. JOHN'S INTL A","8403505","2019-07-14 16:30","2019","07","14","16:30","10.9","","10.4","","97","","","","1","","22","","2.4","","99.07","","","","","","Fog"
"-52.75","47.62","ST. JOHN'S INTL A","8403505","2019-07-14 17:30","2019","07","14","17:30","10.6","","10.1","","97","","","","36","","22","","2.4","","99.11","","","","","","Fog"
"-52.75","47.62","ST. JOHN'S INTL A","8403505","2019-07-14 18:30","2019","07","14","18:30","10.3","","10.0","","98","","","","35","","20","","2.8","","99.19","","","","","","Fog"
"-52.75","47.62","ST. JOHN'S INTL A","8403505","2019-07-14 19:30","2019","07","14","19:30","9.9","","9.7","","98","","","","34","","20","","2.0","","99.23","","","","","","Fog"
"-52.75","47.62","ST. JOHN'S INTL A","8403505","2019-07-14 20:30","2019","07","14","20:30","9.8","","9.6","","99","","","","33","","14","","2.4","","99.30","","","","","","Drizzle,Fog"
"-52.75","47.62","ST. JOHN'S INTL A","8403505","2019-07-14 21:30","2019","07","14","21:30","9.8","","9.6","","99","","","","34","","17","","3.2","","99.29","","","","","","Fog"
"-52.75","47.62","ST. JOHN'S INTL A","8403505","2019-07-14 22:30","2019","07","14","22:30","9.7","","9.5","","99","","","","33","","23","","2.8","","99.30","","","","","","Drizzle,Fog"
"-52.75","47.62","ST. JOHN'S INTL A","8403505","2019-07-14 23:30","2019","07","14","23:30","9.7","","9.6","","99","","","","32","","25","","1.6","","99.31","","","","","","Drizzle,Fog"
"-52.75","47.62","ST. JOHN'S INTL A","8403505","2019-07-15 00:30","2019","07","15","00:30","9.9","","9.7","","99","","","","31","","21","","3.2","","99.32","","","","","","Fog"
"-52.75","47.62","ST. JOHN'S INTL A","8403505","2019-07-15 01:30","2019","07","15","01:30","9.9","","9.8","","99","","","","32","","22","","3.2","","99.33","","","","","","Drizzle,Fog"
"-52.75","47.62","ST. JOHN'S INTL A","8403505","2019-07-15 02:30","2019","07","15","02:30","10.0","","9.8","","99","","","","32","","22","","3.2","","99.36","","","","","","Drizzle,Fog"
"-52.75","47.62","ST. JOHN'S INTL A","8403505","2019-07-15 03:30","2019","07","15","03:30","10.0","","9.8","","99","","","","32","","18","","3.2","","99.39","","","","","","Drizzle,Fog"
"-52.75","47.62","ST. JOHN'S INTL A","8403505","2019-07-15 04:30","2019","07","15","04:30","10.0","","9.9","","99","","","","33","","16","","8.1","","99.44","","","","","","Fog"
"-52.75","47.62","ST. JOHN'S INTL A","8403505","2019-07-15 05:30","2019","07","15","05:30","10.1","","9.9","","99","","","","34","","16","","8.1","","99.44","","","","","","Fog"
"-52.75","47.62","ST. JOHN'S INTL A","8403505","2019-07-15 06:30","2019","07","15","06:30","10.7","","10.5","","99","","","","34","","14","","2.4","","99.45","","","","","","Fog"
"-52.75","47.62","ST. JOHN'S INTL A","8403505","2019-07-15 07:30","2019","07","15","07:30","12.0","","11.5","","97","","","","36","","10","","19.3","","99.50","","","","","","NA"
"-52.75","47.62","ST. JOHN'S INTL A","8403505","2019-07-15 08:30","2019","07","15","08:30","13.1","","12.0","","93","","","","32","","3","","24.1","","99.53","","","","","","Mostly Cloudy"
"-52.75","47.62","ST. JOHN'S INTL A","8403505","2019-07-15 09:30","2019","07","15","09:30","14.1","","12.5","","90","","","","36","","2","","24.1","","99.53","","","","","","NA"
"-52.75","47.62","ST. JOHN'S INTL A","8403505","2019-07-15 10:30","2019","07","15","10:30","15.4","","13.2","","87","","","","5","","10","","24.1","","99.52","","","","","","NA"
"-52.75","47.62","ST. JOHN'S INTL A","8403505","2019-07-15 11:30","2019","07","15","11:30","15.0","","12.3","","84","","","","13","","16","","24.1","","99.54","","","","","","Mostly Cloudy"
"-52.75","47.62","ST. JOHN'S INTL A","8403505","2019-07-15 12:30","2019","07","15","12:30","12.3","","10.8","","90","","","","15","","12","","24.1","","99.53","","","","","","NA"
"-52.75","47.62","ST. JOHN'S INTL A","8403505","2019-07-15 13:30","2019","07","15","13:30","13.5","","11.6","","88","","","","15","","19","","24.1","","99.48","","","","","","NA"
"-52.75","47.62","ST. JOHN'S INTL A","8403505","2019-07-15 14:30","2019","07","15","14:30","12.4","","11.8","","96","","","","15","","19","","19.3","","99.46","","","","","","Rain Showers"
"-52.75","47.62","ST. JOHN'S INTL A","8403505","2019-07-15 15:30","2019","07","15","15:30","12.5","","12.2","","98","","","","15","","14","","6.4","","99.43","","","","","","Rain Showers,Fog"
"-52.75","47.62","ST. JOHN'S INTL A","8403505","2019-07-15 16:30","2019","07","15","16:30","12.3","","12.1","","99","","","","15","","12","","6.4","","99.37","","","","","","Rain Showers,Fog"
"-52.75","47.62","ST. JOHN'S INTL A","8403505","2019-07-15 17:30","2019","07","15","17:30","12.6","","12.4","","99","","","","17","","12","","19.3","","99.35","","","","","","Cloudy"
"-52.75","47.62","ST. JOHN'S INTL A","8403505","2019-07-15 18:30","2019","07","15","18:30","12.5","","12.3","","99","","","","18","","21","","9.7","","99.33","","","","","","Rain Showers,Fog"
"-52.75","47.62","ST. JOHN'S INTL A","8403505","2019-07-15 19:30","2019","07","15","19:30","11.9","","11.7","","99","","","","18","","13","","19.3","","99.26","","","","","","Rain Showers"
"-52.75","47.62","ST. JOHN'S INTL A","8403505","2019-07-15 20:30","2019","07","15","20:30","12.7","","12.5","","99","","","","18","","17","","9.7","","99.30","","","","","","Thunderstorms,Moderate Rain Showers,Fog"
"-52.75","47.62","ST. JOHN'S INTL A","8403505","2019-07-15 21:30","2019","07","15","21:30","11.8","","11.6","","99","","","","16","","16","","4.0","","99.27","","","","","","Rain Showers,Fog"
"-52.75","47.62","ST. JOHN'S INTL A","8403505","2019-07-15 22:30","2019","07","15","22:30","10.6","","10.4","","99","","","","16","","14","","0.4","","99.24","","","","","","Fog"
"-52.75","47.62","ST. JOHN'S INTL A","8403505","2019-07-15 23:30","2019","07","15","23:30","10.7","","10.5","","99","","","","15","","8","","0.6","","99.20","","","","","","Fog"
"-52.75","47.62","ST. JOHN'S INTL A","8403505","2019-07-16 00:30","2019","07","16","00:30","10.6","","10.4","","99","","","","19","","9","","0.4","","99.17","","","","","","Fog"
"-52.75","47.62","ST. JOHN'S INTL A","8403505","2019-07-16 01:30","2019","07","16","01:30","11.4","","11.3","","99","","","","20","","13","","6.4","","99.11","","","","","","Fog"
"-52.75","47.62","ST. JOHN'S INTL A","8403505","2019-07-16 02:30","2019","07","16","02:30","11.3","","11.2","","99","","","","17","","9","","0.8","","99.06","","","","","","Fog"
"-52.75","47.62","ST. JOHN'S INTL A","8403505","2019-07-16 03:30","2019","07","16","03:30","11.4","","11.3","","99","","","","19","","4","","4.0","","99.05","","","","","","Fog"
"-52.75","47.62","ST. JOHN'S INTL A","8403505","2019-07-16 04:30","2019","07","16","04:30","10.8","","10.7","","99","","","","17","","7","","0.6","","99.07","","","","","","Fog"
"-52.75","47.62","ST. JOHN'S INTL A","8403505","2019-07-16 05:30","2019","07","16","05:30","12.9","","12.8","","99","","","","29","","9","","16.1","","99.08","","","","","","Cloudy"
"-52.75","47.62","ST. JOHN'S INTL A","8403505","2019-07-16 06:30","2019","07","16","06:30","13.3","","13.2","","99","","","","28","","10","","3.2","","99.11","","","","","","Fog"
"-52.75","47.62","ST. JOHN'S INTL A","8403505","2019-07-16 07:30","2019","07","16","07:30","14.4","","14.2","","99","","","","30","","13","","16.1","","99.10","","","","","","NA"
"-52.75","47.62","ST. JOHN'S INTL A","8403505","2019-07-16 08:30","2019","07","16","08:30","14.9","","14.0","","94","","","","29","","13","","24.1","","99.13","","","","","","Cloudy"
"-52.75","47.62","ST. JOHN'S INTL A","8403505","2019-07-16 09:30","2019","07","16","09:30","15.1","","14.0","","94","","","","29","","16","","24.1","","99.16","","","","","","NA"
"-52.75","47.62","ST. JOHN'S INTL A","8403505","2019-07-16 10:30","2019","07","16","10:30","16.4","","14.4","","88","","","","30","","17","","24.1","","99.19","","","","","","NA"
"-52.75","47.62","ST. JOHN'S INTL A","8403505","2019-07-16 11:30","2019","07","16","11:30","16.3","","14.9","","91","","","","29","","15","","24.1","","99.22","","","","","","Cloudy"
"-52.75","47.62","ST. JOHN'S INTL A","8403505","2019-07-16 12:30","2019","07","16","12:30","17.1","","15.2","","89","","","","27","","11","","24.1","","99.21","","","","","","NA"
"-52.75","47.62","ST. JOHN'S INTL A","8403505","2019-07-16 13:30","2019","07","16","13:30","17.6","","15.3","","86","","","","30","","16","","24.1","","99.21","","","","","","NA"
"-52.75","47.62","ST. JOHN'S INTL A","8403505","2019-07-16 14:30","2019","07","16","14:30","17.8","","15.6","","87","","","","28","","16","","24.1","","99.22","","","","","","Cloudy"
"-52.75","47.62","ST. JOHN'S INTL A","8403505","2019-07-16 15:30","2019","07","16","15:30","18.1","","15.4","","84","","","","32","","7","","24.1","","99.21","","","","","","NA"
"-52.75","47.62","ST. JOHN'S INTL A","8403505","2019-07-16 16:30","2019","07","16","16:30","16.7","","14.9","","89","","","","11","","9","","24.1","","99.20","","","","","","NA"
"-52.75","47.62","ST. JOHN'S INTL A","8403505","2019-07-16 17:30","2019","07","16","17:30","17.0","","15.0","","88","","","","9","","6","","24.1","","99.23","","","","","","Mostly Cloudy"
"-52.75","47.62","ST. JOHN'S INTL A","8403505","2019-07-16 18:30","2019","07","16","18:30","16.6","","15.0","","90","","","","10","","4","","24.1","","99.27","","","","","","NA"
"-52.75","47.62","ST. JOHN'S INTL A","8403505","2019-07-16 19:30","2019","07","16","19:30","15.8","","14.6","","93","","","","36","","2","","24.1","","99.34","","","","","","NA"
"-52.75","47.62","ST. JOHN'S INTL A","8403505","2019-07-16 20:30","2019","07","16","20:30","13.9","","13.3","","96","","","","6","","8","","16.1","","99.42","","","","","","Mostly Cloudy"
"-52.75","47.62","ST. JOHN'S INTL A","8403505","2019-07-16 21:30","2019","07","16","21:30","11.9","","11.7","","99","","","","4","","3","","0.4","","99.45","","","","","","Fog"
"-52.75","47.62","ST. JOHN'S INTL A","8403505","2019-07-16 22:30","2019","07","16","22:30","12.0","","11.8","","99","","","","0","","1","","3.2","","99.46","","","","","","Fog"
"-52.75","47.62","ST. JOHN'S INTL A","8403505","2019-07-16 23:30","2019","07","16","23:30","13.6","","13.4","","99","","","","30","","8","","16.1","","99.46","","","","","","Cloudy"
"-52.75","47.62","ST. JOHN'S INTL A","8403505","2019-07-17 00:30","2019","07","17","00:30","13.5","","13.1","","97","","","","32","","13","","19.3","","99.49","","","","","","NA"
"-52.75","47.62","ST. JOHN'S INTL A","8403505","2019-07-17 01:30","2019","07","17","01:30","13.6","","13.0","","96","","","","32","","10","","19.3","","99.49","","","","","","NA"
"-52.75","47.62","ST. JOHN'S INTL A","8403505","2019-07-17 02:30","2019","07","17","02:30","10.8","","10.5","","98","","","","4","","8","","0.6","","99.52","","","","","","Fog"
"-52.75","47.62","ST. JOHN'S INTL A","8403505","2019-07-17 03:30","2019","07","17","03:30","11.0","","10.8","","99","","","","35","","5","","19.3","","99.54","","","","","","NA"
"-52.75","47.62","ST. JOHN'S INTL A","8403505","2019-07-17 04:30","2019","07","17","04:30","11.3","","11.1","","99","","","","32","","5","","8.1","","99.60","","","","","","Fog"
"-52.75","47.62","ST. JOHN'S INTL A","8403505","2019-07-17 05:30","2019","07","17","05:30","13.0","","12.7","","99","","","","30","","12","","12.9","","99.64","","","","","","Cloudy"
"-52.75","47.62","ST. JOHN'S INTL A","8403505","2019-07-17 06:30","2019","07","17","06:30","13.7","","13.2","","97","","","","28","","14","","19.3","","99.66","","","","","","NA"
"-52.75","47.62","ST. JOHN'S INTL A","8403505","2019-07-17 07:30","2019","07","17","07:30","14.9","","13.7","","92","","","","28","","8","","24.1","","99.67","","","","","","NA"
"-52.75","47.62","ST. JOHN'S INTL A","8403505","2019-07-17 08:30","2019","07","17","08:30","17.7","","13.7","","77","","","","35","","10","","24.1","","99.70","","","","","","Mostly Cloudy"
"-52.75","47.62","ST. JOHN'S INTL A","8403505","2019-07-17 09:30","2019","07","17","09:30","18.0","","14.3","","79","","","","17","","6","","24.1","","99.71","","","","","","NA"
"-52.75","47.62","ST. JOHN'S INTL A","8403505","2019-07-17 10:30","2019","07","17","10:30","18.9","","14.5","","76","","","","13","","10","","24.1","","99.68","","","","","","NA"
"-52.75","47.62","ST. JOHN'S INTL A","8403505","2019-07-17 11:30","2019","07","17","11:30","19.5","","14.5","","73","","","","36","","3","","24.1","","99.67","","","","","","Mostly Cloudy"
"-52.75","47.62","ST. JOHN'S INTL A","8403505","2019-07-17 12:30","2019","07","17","12:30","19.8","","15.4","","76","","","","12","","9","","24.1","","99.66","","","","","","NA"
"-52.75","47.62","ST. JOHN'S INTL A","8403505","2019-07-17 13:30","2019","07","17","13:30","19.7","","15.2","","75","","","","13","","12","","24.1","","99.62","","","","","","NA"
"-52.75","47.62","ST. JOHN'S INTL A","8403505","2019-07-17 14:30","2019","07","17","14:30","19.4","","15.4","","77","","","","14","","14","","24.1","","99.61","","","","","","Mostly Cloudy"
"-52.75","47.62","ST. JOHN'S INTL A","8403505","2019-07-17 15:30","2019","07","17","15:30","19.0","","14.5","","75","","","","15","","21","","24.1","","99.59","","","","","","NA"
"-52.75","47.62","ST. JOHN'S INTL A","8403505","2019-07-17 16:30","2019","07","17","16:30","18.9","","14.5","","76","","","","15","","18","","24.1","","99.57","","","","","","NA"
"-52.75","47.62","ST. JOHN'S INTL A","8403505","2019-07-17 17:30","2019","07","17","17:30","17.6","","13.9","","79","","","","15","","17","","24.1","","99.54","","","","","","Mostly Cloudy"
"-52.75","47.62","ST. JOHN'S INTL A","8403505","2019-07-17 18:30","2019","07","17","18:30","20.2","","15.1","","72","","","","25","","17","","24.1","","99.54","","","","","","NA"
"-52.75","47.62","ST. JOHN'S INTL A","8403505","2019-07-17 19:30","2019","07","17","19:30","18.9","","14.9","","77","","","","24","","16","","24.1","","99.55","","","","","","NA"
"-52.75","47.62","ST. JOHN'S INTL A","8403505","2019-07-17 20:30","2019","07","17","20:30","17.8","","14.7","","82","","","","25","","17","","24.1","","99.57","","","","","","Cloudy"
"-52.75","47.62","ST. JOHN'S INTL A","8403505","2019-07-17 21:30","2019","07","17","21:30","16.8","","13.8","","82","","","","24","","17","","24.1","","99.52","","","","","","NA"
"-52.75","47.62","ST. JOHN'S INTL A","8403505","2019-07-17 22:30","2019","07","17","22:30","15.8","","13.3","","85","","","","26","","18","","24.1","","99.47","","","","","","NA"
"-52.75","47.62","ST. JOHN'S INTL A","8403505","2019-07-17 23:30","2019","07","17","23:30","16.2","","13.1","","81","","","","25","","22","","24.1","","99.40","","","","","","Cloudy"
"-52.75","47.62","ST. JOHN'S INTL A","8403505","2019-07-18 00:30","2019","07","18","00:30","17.0","","12.9","","76","","","","24","","22","","24.1","","99.34","","","","","","NA"
"-52.75","47.62","ST. JOHN'S INTL A","8403505","2019-07-18 01:30","2019","07","18","01:30","17.6","","11.9","","69","","","","23","","23","","24.1","","99.25","","","","","","NA"
"-52.75","47.62","ST. JOHN'S INTL A","8403505","2019-07-18 02:30","2019","07","18","02:30","16.4","","13.3","","82","","","","23","","19","","24.1","","99.18","","","","","","Cloudy"
"-52.75","47.62","ST. JOHN'S INTL A","8403505","2019-07-18 03:30","2019","07","18","03:30","16.8","","15.3","","91","","","","21","","22","","24.1","","99.06","","","","","","NA"
"-52.75","47.62","ST. JOHN'S INTL A","8403505","2019-07-18 04:30","2019","07","18","04:30","15.5","","14.6","","94","","","","19","","20","","24.1","","98.94","","","","","","NA"
"-52.75","47.62","ST. JOHN'S INTL A","8403505","2019-07-18 05:30","2019","07","18","05:30","15.1","","14.7","","98","","","","19","","27","","9.7","","98.80","","","","","","Rain,Fog"
"-52.75","47.62","ST. JOHN'S INTL A","8403505","2019-07-18 06:30","2019","07","18","06:30","14.5","","14.2","","98","","","","18","","22","","16.1","","98.63","","","","","","Rain"
"-52.75","47.62","ST. JOHN'S INTL A","8403505","2019-07-18 07:30","2019","07","18","07:30","14.1","","13.9","","98","","","","19","","31","","12.9","","98.39","","","","","","Moderate Rain Showers"
"-52.75","47.62","ST. JOHN'S INTL A","8403505","2019-07-18 08:30","2019","07","18","08:30","15.5","","14.9","","96","","","","24","","37","","4.8","","98.24","","","","","","Rain Showers"
"-52.75","47.62","ST. JOHN'S INTL A","8403505","2019-07-18 09:30","2019","07","18","09:30","14.5","","14.1","","97","","","","26","","42","","24.1","","98.25","","","","","","NA"
"-52.75","47.62","ST. JOHN'S INTL A","8403505","2019-07-18 10:30","2019","07","18","10:30","15.8","","14.9","","94","","","","27","","41","","24.1","","98.29","","","","","","NA"
"-52.75","47.62","ST. JOHN'S INTL A","8403505","2019-07-18 11:30","2019","07","18","11:30","17.4","","15.6","","89","","","","26","","38","","24.1","","98.30","","","","","","Mostly Cloudy"
"-52.75","47.62","ST. JOHN'S INTL A","8403505","2019-07-18 12:30","2019","07","18","12:30","19.9","","16.4","","80","","","","26","","33","","24.1","","98.36","","","","","","NA"
"-52.75","47.62","ST. JOHN'S INTL A","8403505","2019-07-18 13:30","2019","07","18","13:30","20.7","","16.2","","75","","","","27","","28","","24.1","","98.37","","25","","","","NA"
"-52.75","47.62","ST. JOHN'S INTL A","8403505","2019-07-18 14:30","2019","07","18","14:30","21.1","","14.8","","67","","","","28","","37","","24.1","","98.40","","25","","","","Mostly Cloudy"
"-52.75","47.62","ST. JOHN'S INTL A","8403505","2019-07-18 15:30","2019","07","18","15:30","22.0","","12.9","","56","","","","29","","31","","24.1","","98.44","","25","","","","NA"
"-52.75","47.62","ST. JOHN'S INTL A","8403505","2019-07-18 16:30","2019","07","18","16:30","21.9","","10.7","","49","","","","29","","31","","24.1","","98.50","","","","","","NA"
"-52.75","47.62","ST. JOHN'S INTL A","8403505","2019-07-18 17:30","2019","07","18","17:30","21.0","","7.8","","42","","","","29","","36","","24.1","","98.58","","","","","","Mainly Clear"
"-52.75","47.62","ST. JOHN'S INTL A","8403505","2019-07-18 18:30","2019","07","18","18:30","19.1","","8.3","","49","","","","30","","20","","24.1","","98.68","","","","","","NA"
"-52.75","47.62","ST. JOHN'S INTL A","8403505","2019-07-18 19:30","2019","07","18","19:30","17.2","","8.6","","57","","","","29","","18","","24.1","","98.72","","","","","","NA"
"-52.75","47.62","ST. JOHN'S INTL A","8403505","2019-07-18 20:30","2019","07","18","20:30","15.2","","10.2","","72","","","","25","","22","","24.1","","98.80","","","","","","Mainly Clear"
"-52.75","47.62","ST. JOHN'S INTL A","8403505","2019-07-18 21:30","2019","07","18","21:30","14.2","","10.2","","77","","","","27","","17","","24.1","","98.90","","","","","","NA"
"-52.75","47.62","ST. JOHN'S INTL A","8403505","2019-07-18 22:30","2019","07","18","22:30","13.8","","9.7","","76","","","","27","","22","","24.1","","98.90","","","","","","NA"
"-52.75","47.62","ST. JOHN'S INTL A","8403505","2019-07-18 23:30","2019","07","18","23:30","14.3","","9.2","","71","","","","27","","19","","24.1","","98.90","","","","","","Mostly Cloudy"
"-52.75","47.62","ST. JOHN'S INTL A","8403505","2019-07-19 00:30","2019","07","19","00:30","13.7","","8.2","","70","","","","27","","24","","24.1","","98.88","","","","","","NA"
"-52.75","47.62","ST. JOHN'S INTL A","8403505","2019-07-19 01:30","2019","07","19","01:30","12.7","","8.6","","76","","","","27","","24","","24.1","","98.89","","","","","","NA"
"-52.75","47.62","ST. JOHN'S INTL A","8403505","2019-07-19 02:30","2019","07","19","02:30","12.2","","8.7","","79","","","","27","","21","","24.1","","98.87","","","","","","Clear"
"-52.75","47.62","ST. JOHN'S INTL A","8403505","2019-07-19 03:30","2019","07","19","03:30","11.8","","8.9","","82","","","","27","","23","","24.1","","98.87","","","","","","NA"
"-52.75","47.62","ST. JOHN'S INTL A","8403505","2019-07-19 04:30","2019","07","19","04:30","11.6","","9.0","","84","","","","27","","22","","24.1","","98.89","","","","","","NA"
"-52.75","47.62","ST. JOHN'S INTL A","8403505","2019-07-19 05:30","2019","07","19","05:30","12.6","","9.3","","80","","","","27","","26","","24.1","","98.87","","","","","","Mainly Clear"
"-52.75","47.62","ST. JOHN'S INTL A","8403505","2019-07-19 06:30","2019","07","19","06:30","13.7","","9.7","","77","","","","27","","33","","24.1","","98.89","","","","","","NA"
"-52.75","47.62","ST. JOHN'S INTL A","8403505","2019-07-19 07:30","2019","07","19","07:30","15.4","","9.8","","69","","","","27","","40","","24.1","","98.83","","","","","","NA"
"-52.75","47.62","ST. JOHN'S INTL A","8403505","2019-07-19 08:30","2019","07","19","08:30","17.5","","9.7","","60","","","","28","","44","","24.1","","98.80","","","","","","Mainly Clear"
"-52.75","47.62","ST. JOHN'S INTL A","8403505","2019-07-19 09:30","2019","07","19","09:30","19.2","","9.6","","53","","","","28","","46","","24.1","","98.73","","","","","","NA"
"-52.75","47.62","ST. JOHN'S INTL A","8403505","2019-07-19 10:30","2019","07","19","10:30","20.5","","9.4","","49","","","","28","","49","","24.1","","98.72","","","","","","NA"
"-52.75","47.62","ST. JOHN'S INTL A","8403505","2019-07-19 11:30","2019","07","19","11:30","20.9","","9.5","","48","","","","27","","52","","24.1","","98.68","","","","","","Mainly Clear"
"-52.75","47.62","ST. JOHN'S INTL A","8403505","2019-07-19 12:30","2019","07","19","12:30","21.3","","9.7","","47","","","","27","","49","","24.1","","98.68","","","","","","NA"
"-52.75","47.62","ST. JOHN'S INTL A","8403505","2019-07-19 13:30","2019","07","19","13:30","22.1","","10.8","","48","","","","28","","41","","24.1","","98.62","","","","","","NA"
"-52.75","47.62","ST. JOHN'S INTL A","8403505","2019-07-19 14:30","2019","07","19","14:30","22.6","","10.7","","46","","","","27","","40","","24.1","","98.59","","","","","","Mainly Clear"
"-52.75","47.62","ST. JOHN'S INTL A","8403505","2019-07-19 15:30","2019","07","19","15:30","22.7","","10.2","","45","","","","27","","44","","24.1","","98.56","","","","","","NA"
"-52.75","47.62","ST. JOHN'S INTL A","8403505","2019-07-19 16:30","2019","07","19","16:30","22.5","","10.9","","47","","","","27","","37","","24.1","","98.53","","","","","","NA"
"-52.75","47.62","ST. JOHN'S INTL A","8403505","2019-07-19 17:30","2019","07","19","17:30","21.8","","11.1","","50","","","","32","","21","","24.1","","98.58","","","","","","Mainly Clear"
"-52.75","47.62","ST. JOHN'S INTL A","8403505","2019-07-19 18:30","2019","07","19","18:30","13.2","","9.0","","75","","","","5","","15","","24.1","","98.66","","","","","","NA"
"-52.75","47.62","ST. JOHN'S INTL A","8403505","2019-07-19 19:30","2019","07","19","19:30","12.1","","8.5","","79","","","","12","","10","","24.1","","98.67","","","","","","NA"
"-52.75","47.62","ST. JOHN'S INTL A","8403505","2019-07-19 20:30","2019","07","19","20:30","11.1","","8.3","","83","","","","17","","9","","24.1","","98.72","","","","","","Mainly Clear"
"-52.75","47.62","ST. JOHN'S INTL A","8403505","2019-07-19 21:30","2019","07","19","21:30","11.3","","8.3","","82","","","","12","","5","","24.1","","98.70","","","","","","NA"
"-52.75","47.62","ST. JOHN'S INTL A","8403505","2019-07-19 22:30","2019","07","19","22:30","11.8","","8.5","","80","","","","20","","5","","24.1","","98.67","","","","","","NA"
"-52.75","47.62","ST. JOHN'S INTL A","8403505","2019-07-19 23:30","2019","07","19","23:30","11.4","","9.6","","88","","","","23","","12","","24.1","","98.65","","","","","","Mainly Clear"
"-52.75","47.62","ST. JOHN'S INTL A","8403505","2019-07-20 00:30","2019","07","20","00:30","12.6","","10.2","","85","","","","26","","21","","24.1","","98.59","","","","","","NA"
"-52.75","47.62","ST. JOHN'S INTL A","8403505","2019-07-20 01:30","2019","07","20","01:30","12.5","","10.5","","87","","","","27","","18","","24.1","","98.53","","","","","","NA"
"-52.75","47.62","ST. JOHN'S INTL A","8403505","2019-07-20 02:30","2019","07","20","02:30","12.5","","10.4","","87","","","","28","","21","","24.1","","98.51","","","","","","Mostly Cloudy"
"-52.75","47.62","ST. JOHN'S INTL A","8403505","2019-07-20 03:30","2019","07","20","03:30","11.8","","10.5","","92","","","","36","","1","","24.1","","98.53","","","","","","NA"
"-52.75","47.62","ST. JOHN'S INTL A","8403505","2019-07-20 04:30","2019","07","20","04:30","11.3","","9.8","","90","","","","2","","5","","24.1","","98.54","","","","","","NA"
"-52.75","47.62","ST. JOHN'S INTL A","8403505","2019-07-20 05:30","2019","07","20","05:30","12.0","","10.2","","88","","","","32","","9","","24.1","","98.52","","","","","","Mostly Cloudy"
"-52.75","47.62","ST. JOHN'S INTL A","8403505","2019-07-20 06:30","2019","07","20","06:30","13.3","","10.4","","82","","","","34","","10","","24.1","","98.55","","","","","","NA"
"-52.75","47.62","ST. JOHN'S INTL A","8403505","2019-07-20 07:30","2019","07","20","07:30","14.6","","10.4","","76","","","","33","","22","","24.1","","98.58","","","","","","NA"
"-52.75","47.62","ST. JOHN'S INTL A","8403505","2019-07-20 08:30","2019","07","20","08:30","15.4","","10.7","","73","","","","33","","25","","24.1","","98.61","","","","","","Mostly Cloudy"
"-52.75","47.62","ST. JOHN'S INTL A","8403505","2019-07-20 09:30","2019","07","20","09:30","15.7","","10.5","","71","","","","33","","20","","24.1","","98.63","","","","","","NA"
"-52.75","47.62","ST. JOHN'S INTL A","8403505","2019-07-20 10:30","2019","07","20","10:30","13.2","","9.9","","80","","","","5","","22","","24.1","","98.65","","","","","","NA"
"-52.75","47.62","ST. JOHN'S INTL A","8403505","2019-07-20 11:30","2019","07","20","11:30","13.7","","9.9","","78","","","","1","","19","","24.1","","98.67","","","","","","Mostly Cloudy"
"-52.75","47.62","ST. JOHN'S INTL A","8403505","2019-07-20 12:30","2019","07","20","12:30","15.0","","9.2","","68","","","","1","","25","","24.1","","98.66","","","","","","NA"
"-52.75","47.62","ST. JOHN'S INTL A","8403505","2019-07-20 13:30","2019","07","20","13:30","14.2","","8.9","","70","","","","35","","24","","24.1","","98.66","","","","","","NA"
"-52.75","47.62","ST. JOHN'S INTL A","8403505","2019-07-20 14:30","2019","07","20","14:30","13.8","","9.5","","75","","","","3","","26","","24.1","","98.66","","","","","","Mostly Cloudy"
"-52.75","47.62","ST. JOHN'S INTL A","8403505","2019-07-20 15:30","2019","07","20","15:30","13.9","","8.6","","70","","","","2","","28","","24.1","","98.71","","","","","","NA"
"-52.75","47.62","ST. JOHN'S INTL A","8403505","2019-07-20 16:30","2019","07","20","16:30","12.8","","8.1","","73","","","","2","","25","","24.1","","98.73","","","","","","NA"
"-52.75","47.62","ST. JOHN'S INTL A","8403505","2019-07-20 17:30","2019","07","20","17:30","11.3","","8.1","","80","","","","2","","20","","24.1","","98.77","","","","","","Mostly Cloudy"
"-52.75","47.62","ST. JOHN'S INTL A","8403505","2019-07-20 18:30","2019","07","20","18:30","10.0","","7.7","","85","","","","3","","18","","24.1","","98.81","","","","","","NA"
"-52.75","47.62","ST. JOHN'S INTL A","8403505","2019-07-20 19:30","2019","07","20","19:30","9.6","","7.5","","87","","","","1","","16","","24.1","","98.87","","","","","","NA"
"-52.75","47.62","ST. JOHN'S INTL A","8403505","2019-07-20 20:30","2019","07","20","20:30","9.2","","7.2","","87","","","","2","","21","","24.1","","98.94","","","","","","Cloudy"
"-52.75","47.62","ST. JOHN'S INTL A","8403505","2019-07-20 21:30","2019","07","20","21:30","9.1","","7.3","","89","","","","3","","16","","24.1","","98.95","","","","","","NA"
"-52.75","47.62","ST. JOHN'S INTL A","8403505","2019-07-20 22:30","2019","07","20","22:30","8.7","","7.4","","92","","","","6","","17","","24.1","","98.99","","","","","","NA"
"-52.75","47.62","ST. JOHN'S INTL A","8403505","2019-07-20 23:30","2019","07","20","23:30","8.5","","7.8","","95","","","","4","","10","","16.1","","99.04","","","","","","Cloudy"
"-52.75","47.62","ST. JOHN'S INTL A","8403505","2019-07-21 00:30","2019","07","21","00:30","8.1","","7.3","","95","","","","7","","7","","12.9","","99.01","","","","","","NA"
"-52.75","47.62","ST. JOHN'S INTL A","8403505","2019-07-21 01:30","2019","07","21","01:30","8.2","","7.4","","95","","","","4","","9","","19.3","","98.99","","","","","","NA"
"-52.75","47.62","ST. JOHN'S INTL A","8403505","2019-07-21 02:30","2019","07","21","02:30","8.4","","7.0","","91","","","","6","","5","","24.1","","99.00","","","","","","Cloudy"
"-52.75","47.62","ST. JOHN'S INTL A","8403505","2019-07-21 03:30","2019","07","21","03:30","8.3","","7.3","","93","","","","11","","7","","24.1","","98.97","","","","","","NA"
"-52.75","47.62","ST. JOHN'S INTL A","8403505","2019-07-21 04:30","2019","07","21","04:30","8.4","","7.1","","91","","","","2","","5","","24.1","","99.04","","","","","","NA"
"-52.75","47.62","ST. JOHN'S INTL A","8403505","2019-07-21 05:30","2019","07","21","05:30","8.4","","7.1","","91","","","","19","","7","","24.1","","99.11","","","","","","Cloudy"
"-52.75","47.62","ST. JOHN'S INTL A","8403505","2019-07-21 06:30","2019","07","21","06:30","8.8","","7.3","","90","","","","15","","7","","24.1","","99.08","","","","","","NA"
"-52.75","47.62","ST. JOHN'S INTL A","8403505","2019-07-21 07:30","2019","07","21","07:30","9.1","","7.4","","89","","","","22","","7","","24.1","","99.19","","","","","","NA"
"-52.75","47.62","ST. JOHN'S INTL A","8403505","2019-07-21 08:30","2019","07","21","08:30","10.0","","8.3","","89","","","","18","","7","","24.1","","99.17","","","","","","Cloudy"
"-52.75","47.62","ST. JOHN'S INTL A","8403505","2019-07-21 09:30","2019","07","21","09:30","10.8","","8.5","","86","","","","19","","7","","24.1","","99.18","","","","","","NA"
"-52.75","47.62","ST. JOHN'S INTL A","8403505","2019-07-21 10:30","2019","07","21","10:30","11.9","","9.3","","84","","","","15","","13","","24.1","","99.21","","","","","","NA"
"-52.75","47.62","ST. JOHN'S INTL A","8403505","2019-07-21 11:30","2019","07","21","11:30","11.3","","9.0","","86","","","","15","","17","","24.1","","99.20","","","","","","Cloudy"
"-52.75","47.62","ST. JOHN'S INTL A","8403505","2019-07-21 12:30","2019","07","21","12:30","12.7","","9.6","","81","","","","17","","20","","24.1","","99.20","","","","","","NA"
"-52.75","47.62","ST. JOHN'S INTL A","8403505","2019-07-21 13:30","2019","07","21","13:30","12.9","","9.7","","81","","","","15","","19","","24.1","","99.17","","","","","","NA"
"-52.75","47.62","ST. JOHN'S INTL A","8403505","2019-07-21 14:30","2019","07","21","14:30","12.0","","9.4","","84","","","","19","","18","","24.1","","99.18","","","","","","Mostly Cloudy"
"-52.75","47.62","ST. JOHN'S INTL A","8403505","2019-07-21 15:30","2019","07","21","15:30","10.4","","9.2","","93","","","","16","","25","","24.1","","99.12","","","","","","NA"
"-52.75","47.62","ST. JOHN'S INTL A","8403505","2019-07-21 16:30","2019","07","21","16:30","9.6","","9.0","","96","","","","18","","20","","24.1","","99.14","","","","","","Rain"
"-52.75","47.62","ST. JOHN'S INTL A","8403505","2019-07-21 17:30","2019","07","21","17:30","9.3","","8.9","","97","","","","18","","25","","24.1","","99.10","","","","","","Rain"
"-52.75","47.62","ST. JOHN'S INTL A","8403505","2019-07-21 18:30","2019","07","21","18:30","9.3","","8.9","","98","","","","17","","22","","19.3","","99.15","","","","","","Rain"
"-52.75","47.62","ST. JOHN'S INTL A","8403505","2019-07-21 19:30","2019","07","21","19:30","9.3","","8.9","","98","","","","17","","28","","19.3","","99.18","","","","","","Rain Showers"
"-52.75","47.62","ST. JOHN'S INTL A","8403505","2019-07-21 20:30","2019","07","21","20:30","9.3","","9.0","","98","","","","16","","35","","9.7","","99.11","","","","","","Rain Showers,Fog"
"-52.75","47.62","ST. JOHN'S INTL A","8403505","2019-07-21 21:30","2019","07","21","21:30","9.1","","8.9","","98","","","","15","","26","","0.2","","99.14","","","","","","Fog"
"-52.75","47.62","ST. JOHN'S INTL A","8403505","2019-07-21 22:30","2019","07","21","22:30","9.3","","9.2","","99","","","","16","","26","","0.8","","99.04","","","","","","Rain,Fog"
"-52.75","47.62","ST. JOHN'S INTL A","8403505","2019-07-21 23:30","2019","07","21","23:30","9.5","","9.3","","99","","","","16","","35","","4.0","","98.92","","","","","","Rain,Fog"
"-52.75","47.62","ST. JOHN'S INTL A","8403505","2019-07-22 00:30","2019","07","22","00:30","9.6","","9.4","","99","","","","15","","21","","2.0","","98.87","","","","","","Rain,Fog"
"-52.75","47.62","ST. JOHN'S INTL A","8403505","2019-07-22 01:30","2019","07","22","01:30","9.6","","9.5","","99","","","","16","","27","","1.2","","98.80","","","","","","Drizzle,Fog"
"-52.75","47.62","ST. JOHN'S INTL A","8403505","2019-07-22 02:30","2019","07","22","02:30","10.1","","9.9","","99","","","","16","","26","","1.0","","98.69","","","","","","Drizzle,Fog"
"-52.75","47.62","ST. JOHN'S INTL A","8403505","2019-07-22 03:30","2019","07","22","03:30","10.2","","10.1","","99","","","","16","","16","","0.4","","98.64","","","","","","Drizzle,Fog"
"-52.75","47.62","ST. JOHN'S INTL A","8403505","2019-07-22 04:30","2019","07","22","04:30","10.3","","10.2","","99","","","","14","","15","","0.2","","98.55","","","","","","Rain,Fog"
"-52.75","47.62","ST. JOHN'S INTL A","8403505","2019-07-22 05:30","2019","07","22","05:30","10.4","","10.3","","99","","","","14","","7","","0.2","","98.53","","","","","","Fog"
"-52.75","47.62","ST. JOHN'S INTL A","8403505","2019-07-22 06:30","2019","07","22","06:30","10.4","","10.3","","99","","","","8","","5","","0.2","","98.50","","","","","","Fog"
"-52.75","47.62","ST. JOHN'S INTL A","8403505","2019-07-22 07:30","2019","07","22","07:30","10.7","","10.6","","99","","","","36","","2","","0.8","","98.38","","","","","","Drizzle,Fog"
"-52.75","47.62","ST. JOHN'S INTL A","8403505","2019-07-22 08:30","2019","07","22","08:30","10.9","","10.8","","99","","","","10","","8","","0.6","","98.30","","","","","","Rain,Fog"
"-52.75","47.62","ST. JOHN'S INTL A","8403505","2019-07-22 09:30","2019","07","22","09:30","12.2","","12.1","","99","","","","34","","9","","4.0","","98.31","","","","","","Fog"
"-52.75","47.62","ST. JOHN'S INTL A","8403505","2019-07-22 10:30","2019","07","22","10:30","13.3","","13.2","","99","","","","31","","10","","24.1","","98.29","","","","","","NA"
"-52.75","47.62","ST. JOHN'S INTL A","8403505","2019-07-22 11:30","2019","07","22","11:30","15.2","","14.7","","96","","","","33","","22","","24.1","","98.31","","","","","","Cloudy"
"-52.75","47.62","ST. JOHN'S INTL A","8403505","2019-07-22 12:30","2019","07","22","12:30","15.3","","13.3","","88","","","","33","","32","","24.1","","98.34","","","","","","NA"
"-52.75","47.62","ST. JOHN'S INTL A","8403505","2019-07-22 13:30","2019","07","22","13:30","16.2","","13.3","","83","","","","32","","36","","24.1","","98.38","","","","","","NA"
"-52.75","47.62","ST. JOHN'S INTL A","8403505","2019-07-22 14:30","2019","07","22","14:30","15.8","","13.3","","85","","","","30","","26","","24.1","","98.43","","","","","","Mostly Cloudy"
"-52.75","47.62","ST. JOHN'S INTL A","8403505","2019-07-22 15:30","2019","07","22","15:30","16.5","","13.5","","82","","","","31","","21","","24.1","","98.52","","","","","","NA"
"-52.75","47.62","ST. JOHN'S INTL A","8403505","2019-07-22 16:30","2019","07","22","16:30","18.5","","14.4","","76","","","","34","","23","","24.1","","98.54","","","","","","NA"
"-52.75","47.62","ST. JOHN'S INTL A","8403505","2019-07-22 17:30","2019","07","22","17:30","19.2","","14.4","","74","","","","32","","27","","24.1","","98.61","","","","","","Mainly Clear"
"-52.75","47.62","ST. JOHN'S INTL A","8403505","2019-07-22 18:30","2019","07","22","18:30","16.5","","13.6","","83","","","","36","","1","","24.1","","98.76","","","","","","NA"
"-52.75","47.62","ST. JOHN'S INTL A","8403505","2019-07-22 19:30","2019","07","22","19:30","16.9","","14.2","","84","","","","34","","13","","24.1","","98.87","","","","","","NA"
"-52.75","47.62","ST. JOHN'S INTL A","8403505","2019-07-22 20:30","2019","07","22","20:30","13.3","","12.1","","93","","","","5","","8","","24.1","","99.00","","","","","","Mainly Clear"
"-52.75","47.62","ST. JOHN'S INTL A","8403505","2019-07-22 21:30","2019","07","22","21:30","12.3","","11.6","","96","","","","34","","11","","24.1","","99.10","","","","","","NA"
"-52.75","47.62","ST. JOHN'S INTL A","8403505","2019-07-22 22:30","2019","07","22","22:30","12.0","","11.4","","96","","","","1","","8","","24.1","","99.21","","","","","","NA"
"-52.75","47.62","ST. JOHN'S INTL A","8403505","2019-07-22 23:30","2019","07","22","23:30","12.5","","11.8","","95","","","","36","","17","","24.1","","99.27","","","","","","Mainly Clear"
"-52.75","47.62","ST. JOHN'S INTL A","8403505","2019-07-23 00:30","2019","07","23","00:30","12.4","","11.3","","93","","","","33","","18","","24.1","","99.31","","","","","","NA"
"-52.75","47.62","ST. JOHN'S INTL A","8403505","2019-07-23 01:30","2019","07","23","01:30","12.3","","11.3","","93","","","","32","","19","","24.1","","99.35","","","","","","NA"
"-52.75","47.62","ST. JOHN'S INTL A","8403505","2019-07-23 02:30","2019","07","23","02:30","10.6","","10.2","","97","","","","29","","10","","24.1","","99.45","","","","","","Mainly Clear"
"-52.75","47.62","ST. JOHN'S INTL A","8403505","2019-07-23 03:30","2019","07","23","03:30","10.5","","10.1","","98","","","","28","","16","","24.1","","99.53","","","","","","NA"
"-52.75","47.62","ST. JOHN'S INTL A","8403505","2019-07-23 04:30","2019","07","23","04:30","11.6","","11.3","","98","","","","26","","14","","24.1","","99.64","","","","","","NA"
"-52.75","47.62","ST. JOHN'S INTL A","8403505","2019-07-23 05:30","2019","07","23","05:30","12.3","","12.0","","98","","","","24","","5","","24.1","","99.71","","","","","","Mostly Cloudy"
"-52.75","47.62","ST. JOHN'S INTL A","8403505","2019-07-23 06:30","2019","07","23","06:30","14.2","","13.1","","93","","","","25","","9","","24.1","","99.78","","","","","","NA"
"-52.75","47.62","ST. JOHN'S INTL A","8403505","2019-07-23 07:30","2019","07","23","07:30","15.9","","13.0","","83","","","","25","","5","","24.1","","99.83","","","","","","NA"
"-52.75","47.62","ST. JOHN'S INTL A","8403505","2019-07-23 08:30","2019","07","23","08:30","16.2","","13.4","","83","","","","17","","13","","24.1","","99.88","","","","","","Mostly Cloudy"
"-52.75","47.62","ST. JOHN'S INTL A","8403505","2019-07-23 09:30","2019","07","23","09:30","16.2","","13.1","","82","","","","16","","14","","24.1","","99.88","","","","","","NA"
"-52.75","47.62","ST. JOHN'S INTL A","8403505","2019-07-23 10:30","2019","07","23","10:30","16.2","","13.1","","","M","","","14","","9","","24.1","","99.94","","","","","","NA"
"-52.75","47.62","ST. JOHN'S INTL A","8403505","2019-07-23 11:30","2019","07","23","11:30","18.1","","12.8","","","M","","","14","","11","","24.1","","99.92","","","","","","Cloudy"
"-52.75","47.62","ST. JOHN'S INTL A","8403505","2019-07-23 12:30","2019","07","23","12:30","17.9","","14.0","","78","","","","18","","19","","24.1","","99.91","","","","","","NA"
"-52.75","47.62","ST. JOHN'S INTL A","8403505","2019-07-23 13:30","2019","07","23","13:30","17.9","","13.9","","77","","","","20","","22","","24.1","","99.95","","","","","","NA"
"-52.75","47.62","ST. JOHN'S INTL A","8403505","2019-07-23 14:30","2019","07","23","14:30","17.2","","14.2","","83","","","","18","","21","","24.1","","99.95","","","","","","Cloudy"
"-52.75","47.62","ST. JOHN'S INTL A","8403505","2019-07-23 15:30","2019","07","23","15:30","16.9","","14.0","","83","","","","17","","14","","24.1","","99.95","","","","","","NA"
"-52.75","47.62","ST. JOHN'S INTL A","8403505","2019-07-23 16:30","2019","07","23","16:30","16.1","","14.1","","88","","","","21","","20","","24.1","","99.95","","","","","","Rain"
"-52.75","47.62","ST. JOHN'S INTL A","8403505","2019-07-23 17:30","2019","07","23","17:30","14.7","","13.3","","91","","","","18","","21","","19.3","","99.89","","","","","","Rain"
"-52.75","47.62","ST. JOHN'S INTL A","8403505","2019-07-23 18:30","2019","07","23","18:30","13.5","","12.9","","96","","","","17","","17","","6.4","","99.96","","","","","","Moderate Rain,Fog"
"-52.75","47.62","ST. JOHN'S INTL A","8403505","2019-07-23 19:30","2019","07","23","19:30","12.9","","12.4","","97","","","","18","","24","","4.8","","99.99","","","","","","Moderate Rain,Fog"
"-52.75","47.62","ST. JOHN'S INTL A","8403505","2019-07-23 20:30","2019","07","23","20:30","11.6","","11.2","","98","","","","15","","17","","1.6","","99.94","","","","","","Fog"
"-52.75","47.62","ST. JOHN'S INTL A","8403505","2019-07-23 21:30","2019","07","23","21:30","10.7","","10.5","","99","","","","13","","23","","0.2","","99.83","","","","","","Rain,Fog"
"-52.75","47.62","ST. JOHN'S INTL A","8403505","2019-07-23 22:30","2019","07","23","22:30","11.1","","11.0","","99","","","","15","","27","","3.2","","99.75","","","","","","Fog"
"-52.75","47.62","ST. JOHN'S INTL A","8403505","2019-07-23 23:30","2019","07","23","23:30","11.1","","11.0","","99","","","","15","","42","","0.2","","99.60","","","","","","Rain,Fog"
"-52.75","47.62","ST. JOHN'S INTL A","8403505","2019-07-24 00:30","2019","07","24","00:30","11.3","","11.2","","99","","","","15","","43","","0.6","","99.49","","","","","","Drizzle,Fog"
"-52.75","47.62","ST. JOHN'S INTL A","8403505","2019-07-24 01:30","2019","07","24","01:30","11.7","","11.5","","99","","","","16","","43","","1.2","","99.41","","","","","","Drizzle,Fog"
"-52.75","47.62","ST. JOHN'S INTL A","8403505","2019-07-24 02:30","2019","07","24","02:30","11.3","","11.2","","99","","","","16","","12","","0.2","","99.33","","","","","","Fog"
"-52.75","47.62","ST. JOHN'S INTL A","8403505","2019-07-24 03:30","2019","07","24","03:30","11.8","","11.7","","99","","","","20","","7","","0.4","","99.29","","","","","","Fog"
"-52.75","47.62","ST. JOHN'S INTL A","8403505","2019-07-24 04:30","2019","07","24","04:30","13.4","","13.3","","99","","","","25","","9","","2.0","","99.27","","","","","","Fog"
"-52.75","47.62","ST. JOHN'S INTL A","8403505","2019-07-24 05:30","2019","07","24","05:30","14.8","","14.7","","99","","","","26","","24","","16.1","","99.29","","","","","","Cloudy"
"-52.75","47.62","ST. JOHN'S INTL A","8403505","2019-07-24 06:30","2019","07","24","06:30","15.0","","14.9","","99","","","","26","","25","","24.1","","99.30","","","","","","NA"
"-52.75","47.62","ST. JOHN'S INTL A","8403505","2019-07-24 07:30","2019","07","24","07:30","16.0","","15.5","","97","","","","26","","29","","24.1","","99.32","","","","","","NA"
"-52.75","47.62","ST. JOHN'S INTL A","8403505","2019-07-24 08:30","2019","07","24","08:30","16.4","","15.5","","94","","","","25","","27","","24.1","","99.35","","","","","","Cloudy"
"-52.75","47.62","ST. JOHN'S INTL A","8403505","2019-07-24 09:30","2019","07","24","09:30","17.9","","16.5","","92","","","","25","","22","","24.1","","99.34","","","","","","NA"
"-52.75","47.62","ST. JOHN'S INTL A","8403505","2019-07-24 10:30","2019","07","24","10:30","18.0","","16.3","","90","","","","26","","18","","24.1","","99.36","","","","","","NA"
"-52.75","47.62","ST. JOHN'S INTL A","8403505","2019-07-24 11:30","2019","07","24","11:30","18.5","","16.3","","87","","","","27","","25","","24.1","","99.38","","","","","","Cloudy"
"-52.75","47.62","ST. JOHN'S INTL A","8403505","2019-07-24 12:30","2019","07","24","12:30","19.5","","16.6","","83","","","","26","","27","","24.1","","99.34","","","","","","NA"
"-52.75","47.62","ST. JOHN'S INTL A","8403505","2019-07-24 13:30","2019","07","24","13:30","17.8","","16.1","","89","","","","27","","17","","24.1","","99.34","","","","","","NA"
"-52.75","47.62","ST. JOHN'S INTL A","8403505","2019-07-24 14:30","2019","07","24","14:30","16.9","","15.6","","92","","","","28","","13","","24.1","","99.39","","","","","","Cloudy"
"-52.75","47.62","ST. JOHN'S INTL A","8403505","2019-07-24 15:30","2019","07","24","15:30","17.6","","15.4","","87","","","","26","","19","","24.1","","99.43","","","","","","NA"
"-52.75","47.62","ST. JOHN'S INTL A","8403505","2019-07-24 16:30","2019","07","24","16:30","17.9","","15.4","","85","","","","28","","17","","24.1","","99.46","","","","","","NA"
"-52.75","47.62","ST. JOHN'S INTL A","8403505","2019-07-24 17:30","2019","07","24","17:30","17.5","","15.2","","86","","","","27","","11","","24.1","","99.52","","","","","","Cloudy"
"-52.75","47.62","ST. JOHN'S INTL A","8403505","2019-07-24 18:30","2019","07","24","18:30","13.9","","13.0","","94","","","","6","","10","","24.1","","99.62","","","","","","NA"
"-52.75","47.62","ST. JOHN'S INTL A","8403505","2019-07-24 19:30","2019","07","24","19:30","12.5","","11.8","","95","","","","7","","7","","19.3","","99.70","","","","","","NA"
"-52.75","47.62","ST. JOHN'S INTL A","8403505","2019-07-24 20:30","2019","07","24","20:30","12.3","","11.5","","95","","","","5","","6","","24.1","","99.72","","","","","","Cloudy"
"-52.75","47.62","ST. JOHN'S INTL A","8403505","2019-07-24 21:30","2019","07","24","21:30","11.9","","11.3","","96","","","","3","","5","","24.1","","99.70","","","","","","NA"
"-52.75","47.62","ST. JOHN'S INTL A","8403505","2019-07-24 22:30","2019","07","24","22:30","11.7","","11.4","","98","","","","9","","5","","12.9","","99.73","","","","","","NA"
"-52.75","47.62","ST. JOHN'S INTL A","8403505","2019-07-24 23:30","2019","07","24","23:30","11.8","","11.6","","98","","","","14","","7","","8.1","","99.76","","","","","","Rain,Fog"
"-52.75","47.62","ST. JOHN'S INTL A","8403505","2019-07-25 00:30","2019","07","25","00:30","11.4","","11.2","","99","","","","36","","2","","4.0","","99.80","","","","","","Rain,Fog"
"-52.75","47.62","ST. JOHN'S INTL A","8403505","2019-07-25 01:30","2019","07","25","01:30","12.0","","11.8","","99","","","","19","","10","","4.8","","99.72","","","","","","Rain,Fog"
"-52.75","47.62","ST. JOHN'S INTL A","8403505","2019-07-25 02:30","2019","07","25","02:30","12.2","","12.1","","99","","","","34","","5","","6.4","","99.78","","","","","","Rain,Fog"
"-52.75","47.62","ST. JOHN'S INTL A","8403505","2019-07-25 03:30","2019","07","25","03:30","12.5","","12.3","","99","","","","35","","5","","2.4","","99.79","","","","","","Rain,Fog"
"-52.75","47.62","ST. JOHN'S INTL A","8403505","2019-07-25 04:30","2019","07","25","04:30","11.5","","11.4","","99","","","","13","","7","","1.6","","99.77","","","","","","Rain,Fog"
"-52.75","47.62","ST. JOHN'S INTL A","8403505","2019-07-25 05:30","2019","07","25","05:30","11.6","","11.5","","99","","","","4","","6","","0.4","","99.80","","","","","","Fog"
"-52.75","47.62","ST. JOHN'S INTL A","8403505","2019-07-25 06:30","2019","07","25","06:30","11.7","","11.6","","99","","","","16","","4","","0.4","","99.84","","","","","","Drizzle,Fog"
"-52.75","47.62","ST. JOHN'S INTL A","8403505","2019-07-25 07:30","2019","07","25","07:30","11.8","","11.7","","99","","","","16","","11","","0.6","","99.89","","","","","","Rain,Fog"
"-52.75","47.62","ST. JOHN'S INTL A","8403505","2019-07-25 08:30","2019","07","25","08:30","11.8","","11.7","","99","","","","15","","5","","0.4","","99.89","","","","","","Rain,Fog"
"-52.75","47.62","ST. JOHN'S INTL A","8403505","2019-07-25 09:30","2019","07","25","09:30","12.3","","12.2","","99","","","","11","","7","","0.8","","99.82","","","","","","Rain,Fog"
"-52.75","47.62","ST. JOHN'S INTL A","8403505","2019-07-25 10:30","2019","07","25","10:30","12.6","","12.5","","99","","","","16","","14","","4.8","","99.87","","","","","","Rain,Fog"
"-52.75","47.62","ST. JOHN'S INTL A","8403505","2019-07-25 11:30","2019","07","25","11:30","12.6","","12.5","","99","","","","15","","11","","2.4","","99.86","","","","","","Rain,Fog"
"-52.75","47.62","ST. JOHN'S INTL A","8403505","2019-07-25 12:30","2019","07","25","12:30","13.5","","13.4","","99","","","","13","","8","","4.0","","99.84","","","","","","Rain,Fog"
"-52.75","47.62","ST. JOHN'S INTL A","8403505","2019-07-25 13:30","2019","07","25","13:30","14.6","","14.3","","98","","","","13","","8","","16.1","","99.82","","","","","","Drizzle"
"-52.75","47.62","ST. JOHN'S INTL A","8403505","2019-07-25 14:30","2019","07","25","14:30","14.0","","13.4","","96","","","","15","","9","","16.1","","99.84","","","","","","Cloudy"
"-52.75","47.62","ST. JOHN'S INTL A","8403505","2019-07-25 15:30","2019","07","25","15:30","14.1","","13.4","","95","","","","15","","9","","16.1","","99.85","","","","","","NA"
"-52.75","47.62","ST. JOHN'S INTL A","8403505","2019-07-25 16:30","2019","07","25","16:30","14.2","","13.2","","94","","","","14","","10","","12.9","","99.85","","","","","","NA"
"-52.75","47.62","ST. JOHN'S INTL A","8403505","2019-07-25 17:30","2019","07","25","17:30","13.7","","12.9","","95","","","","10","","9","","12.9","","99.87","","","","","","Cloudy"
"-52.75","47.62","ST. JOHN'S INTL A","8403505","2019-07-25 18:30","2019","07","25","18:30","13.2","","12.8","","97","","","","10","","6","","4.8","","99.91","","","","","","Fog"
"-52.75","47.62","ST. JOHN'S INTL A","8403505","2019-07-25 19:30","2019","07","25","19:30","12.4","","12.0","","98","","","","36","","2","","12.9","","99.98","","","","","","NA"
"-52.75","47.62","ST. JOHN'S INTL A","8403505","2019-07-25 20:30","2019","07","25","20:30","11.5","","11.3","","99","","","","36","","4","","0.8","","100.02","","","","","","Fog"
"-52.75","47.62","ST. JOHN'S INTL A","8403505","2019-07-25 21:30","2019","07","25","21:30","10.7","","10.5","","99","","","","33","","5","","0.8","","100.07","","","","","","Fog"
"-52.75","47.62","ST. JOHN'S INTL A","8403505","2019-07-25 22:30","2019","07","25","22:30","10.8","","10.7","","99","","","","23","","3","","24.1","","100.07","","","","","","NA"
"-52.75","47.62","ST. JOHN'S INTL A","8403505","2019-07-25 23:30","2019","07","25","23:30","11.1","","11.0","","99","","","","24","","4","","24.1","","100.07","","","","","","Mostly Cloudy"
"-52.75","47.62","ST. JOHN'S INTL A","8403505","2019-07-26 00:30","2019","07","26","00:30","11.4","","11.2","","99","","","","17","","4","","24.1","","100.06","","","","","","NA"
"-52.75","47.62","ST. JOHN'S INTL A","8403505","2019-07-26 01:30","2019","07","26","01:30","11.9","","11.7","","99","","","","36","","1","","24.1","","100.07","","","","","","NA"
"-52.75","47.62","ST. JOHN'S INTL A","8403505","2019-07-26 02:30","2019","07","26","02:30","11.0","","10.8","","99","","","","16","","9","","24.1","","100.07","","","","","","Mostly Cloudy"
"-52.75","47.62","ST. JOHN'S INTL A","8403505","2019-07-26 03:30","2019","07","26","03:30","10.5","","10.4","","99","","","","17","","10","","24.1","","100.08","","","","","","NA"
"-52.75","47.62","ST. JOHN'S INTL A","8403505","2019-07-26 04:30","2019","07","26","04:30","11.1","","10.9","","99","","","","14","","9","","19.3","","100.09","","","","","","NA"
"-52.75","47.62","ST. JOHN'S INTL A","8403505","2019-07-26 05:30","2019","07","26","05:30","11.1","","10.9","","99","","","","16","","4","","24.1","","100.10","","","","","","Cloudy"
"-52.75","47.62","ST. JOHN'S INTL A","8403505","2019-07-26 06:30","2019","07","26","06:30","11.8","","11.6","","99","","","","15","","7","","24.1","","100.17","","","","","","NA"
"-52.75","47.62","ST. JOHN'S INTL A","8403505","2019-07-26 07:30","2019","07","26","07:30","13.3","","13.0","","98","","","","18","","3","","24.1","","100.27","","","","","","NA"
"-52.75","47.62","ST. JOHN'S INTL A","8403505","2019-07-26 08:30","2019","07","26","08:30","15.5","","14.0","","91","","","","36","","2","","24.1","","100.29","","","","","","Mostly Cloudy"
"-52.75","47.62","ST. JOHN'S INTL A","8403505","2019-07-26 09:30","2019","07","26","09:30","17.1","","14.6","","85","","","","15","","5","","24.1","","100.31","","","","","","NA"
"-52.75","47.62","ST. JOHN'S INTL A","8403505","2019-07-26 10:30","2019","07","26","10:30","18.4","","14.9","","80","","","","15","","16","","24.1","","100.31","","","","","","NA"
"-52.75","47.62","ST. JOHN'S INTL A","8403505","2019-07-26 11:30","2019","07","26","11:30","18.7","","14.8","","78","","","","13","","12","","24.1","","100.30","","","","","","Mostly Cloudy"
"-52.75","47.62","ST. JOHN'S INTL A","8403505","2019-07-26 12:30","2019","07","26","12:30","20.8","","16.0","","74","","","","13","","15","","24.1","","100.27","","25","","","","NA"
"-52.75","47.62","ST. JOHN'S INTL A","8403505","2019-07-26 13:30","2019","07","26","13:30","20.0","","15.6","","76","","","","16","","19","","24.1","","100.28","","","","","","NA"
"-52.75","47.62","ST. JOHN'S INTL A","8403505","2019-07-26 14:30","2019","07","26","14:30","19.9","","15.3","","75","","","","15","","16","","24.1","","100.29","","","","","","Mainly Clear"
"-52.75","47.62","ST. JOHN'S INTL A","8403505","2019-07-26 15:30","2019","07","26","15:30","20.6","","16.2","","75","","","","15","","16","","24.1","","100.33","","25","","","","NA"
"-52.75","47.62","ST. JOHN'S INTL A","8403505","2019-07-26 16:30","2019","07","26","16:30","18.7","","15.1","","79","","","","15","","19","","24.1","","100.35","","","","","","NA"
"-52.75","47.62","ST. JOHN'S INTL A","8403505","2019-07-26 17:30","2019","07","26","17:30","18.5","","14.9","","79","","","","15","","10","","24.1","","100.37","","","","","","Mainly Clear"
"-52.75","47.62","ST. JOHN'S INTL A","8403505","2019-07-26 18:30","2019","07","26","18:30","16.7","","13.9","","83","","","","15","","11","","24.1","","100.42","","","","","","NA"
"-52.75","47.62","ST. JOHN'S INTL A","8403505","2019-07-26 19:30","2019","07","26","19:30","15.3","","13.5","","89","","","","18","","9","","24.1","","100.47","","","","","","NA"
"-52.75","47.62","ST. JOHN'S INTL A","8403505","2019-07-26 20:30","2019","07","26","20:30","17.3","","14.6","","84","","","","25","","14","","24.1","","100.53","","","","","","Mainly Clear"
"-52.75","47.62","ST. JOHN'S INTL A","8403505","2019-07-26 21:30","2019","07","26","21:30","15.6","","14.2","","92","","","","27","","12","","24.1","","100.56","","","","","","NA"
"-52.75","47.62","ST. JOHN'S INTL A","8403505","2019-07-26 22:30","2019","07","26","22:30","15.3","","13.3","","88","","","","27","","13","","24.1","","100.57","","","","","","NA"
"-52.75","47.62","ST. JOHN'S INTL A","8403505","2019-07-26 23:30","2019","07","26","23:30","15.1","","12.6","","85","","","","27","","18","","24.1","","100.57","","","","","","Mainly Clear"
"-52.75","47.62","ST. JOHN'S INTL A","8403505","2019-07-27 00:30","2019","07","27","00:30","14.3","","12.3","","88","","","","26","","21","","24.1","","100.59","","","","","","NA"
"-52.75","47.62","ST. JOHN'S INTL A","8403505","2019-07-27 01:30","2019","07","27","01:30","14.5","","11.6","","83","","","","25","","22","","24.1","","100.58","","","","","","NA"
"-52.75","47.62","ST. JOHN'S INTL A","8403505","2019-07-27 02:30","2019","07","27","02:30","14.1","","10.8","","80","","","","26","","18","","24.1","","100.60","","","","","","Clear"
"-52.75","47.62","ST. JOHN'S INTL A","8403505","2019-07-27 03:30","2019","07","27","03:30","14.3","","10.7","","79","","","","25","","24","","24.1","","100.63","","","","","","NA"
"-52.75","47.62","ST. JOHN'S INTL A","8403505","2019-07-27 04:30","2019","07","27","04:30","13.6","","10.7","","83","","","","26","","20","","24.1","","100.68","","","","","","NA"
"-52.75","47.62","ST. JOHN'S INTL A","8403505","2019-07-27 05:30","2019","07","27","05:30","14.2","","11.0","","81","","","","25","","19","","24.1","","100.70","","","","","","Clear"
"-52.75","47.62","ST. JOHN'S INTL A","8403505","2019-07-27 06:30","2019","07","27","06:30","16.3","","11.2","","71","","","","26","","21","","24.1","","100.76","","","","","","NA"
"-52.75","47.62","ST. JOHN'S INTL A","8403505","2019-07-27 07:30","2019","07","27","07:30","17.9","","11.7","","67","","","","26","","22","","24.1","","100.79","","","","","","NA"
"-52.75","47.62","ST. JOHN'S INTL A","8403505","2019-07-27 08:30","2019","07","27","08:30","20.0","","11.6","","58","","","","26","","23","","24.1","","100.81","","","","","","Clear"
"-52.75","47.62","ST. JOHN'S INTL A","8403505","2019-07-27 09:30","2019","07","27","09:30","22.0","","12.3","","53","","","","25","","21","","24.1","","100.78","","","","","","NA"
"-52.75","47.62","ST. JOHN'S INTL A","8403505","2019-07-27 10:30","2019","07","27","10:30","23.8","","12.7","","49","","","","24","","17","","24.1","","100.76","","26","","","","NA"
"-52.75","47.62","ST. JOHN'S INTL A","8403505","2019-07-27 11:30","2019","07","27","11:30","25.1","","13.2","","47","","","","25","","17","","24.1","","100.74","","28","","","","Clear"
"-52.75","47.62","ST. JOHN'S INTL A","8403505","2019-07-27 12:30","2019","07","27","12:30","25.8","","12.2","","42","","","","28","","18","","24.1","","100.72","","28","","","","NA"
"-52.75","47.62","ST. JOHN'S INTL A","8403505","2019-07-27 13:30","2019","07","27","13:30","26.2","","12.0","","41","","","","26","","25","","24.1","","100.68","","28","","","","NA"
"-52.75","47.62","ST. JOHN'S INTL A","8403505","2019-07-27 14:30","2019","07","27","14:30","26.5","","11.5","","39","","","","28","","26","","24.1","","100.65","","29","","","","Mainly Clear"
"-52.75","47.62","ST. JOHN'S INTL A","8403505","2019-07-27 15:30","2019","07","27","15:30","25.9","","9.7","","36","","","","28","","31","","24.1","","100.65","","27","","","","NA"
"-52.75","47.62","ST. JOHN'S INTL A","8403505","2019-07-27 16:30","2019","07","27","16:30","25.0","","9.4","","37","","","","26","","28","","24.1","","100.63","","26","","","","NA"
"-52.75","47.62","ST. JOHN'S INTL A","8403505","2019-07-27 17:30","2019","07","27","17:30","23.6","","7.5","","35","","","","25","","35","","24.1","","100.64","","","","","","Mainly Clear"
"-52.75","47.62","ST. JOHN'S INTL A","8403505","2019-07-27 18:30","2019","07","27","18:30","21.6","","9.9","","47","","","","26","","25","","24.1","","100.65","","","","","","NA"
"-52.75","47.62","ST. JOHN'S INTL A","8403505","2019-07-27 19:30","2019","07","27","19:30","20.1","","10.2","","52","","","","25","","23","","24.1","","100.64","","","","","","NA"
"-52.75","47.62","ST. JOHN'S INTL A","8403505","2019-07-27 20:30","2019","07","27","20:30","18.9","","10.8","","59","","","","24","","20","","24.1","","100.65","","","","","","Mainly Clear"
"-52.75","47.62","ST. JOHN'S INTL A","8403505","2019-07-27 21:30","2019","07","27","21:30","18.1","","10.8","","62","","","","26","","29","","24.1","","100.63","","","","","","NA"
"-52.75","47.62","ST. JOHN'S INTL A","8403505","2019-07-27 22:30","2019","07","27","22:30","17.2","","11.1","","67","","","","27","","32","","24.1","","100.57","","","","","","NA"
"-52.75","47.62","ST. JOHN'S INTL A","8403505","2019-07-27 23:30","2019","07","27","23:30","16.6","","11.3","","71","","","","27","","32","","24.1","","100.57","","","","","","Clear"
"-52.75","47.62","ST. JOHN'S INTL A","8403505","2019-07-28 00:30","2019","07","28","00:30","16.3","","11.3","","72","","","","27","","34","","24.1","","100.56","","","","","","NA"
"-52.75","47.62","ST. JOHN'S INTL A","8403505","2019-07-28 01:30","2019","07","28","01:30","16.0","","10.6","","70","","","","26","","35","","24.1","","100.54","","","","","","NA"
"-52.75","47.62","ST. JOHN'S INTL A","8403505","2019-07-28 02:30","2019","07","28","02:30","15.9","","10.1","","68","","","","26","","36","","24.1","","100.50","","","","","","Clear"
"-52.75","47.62","ST. JOHN'S INTL A","8403505","2019-07-28 03:30","2019","07","28","03:30","15.8","","9.7","","67","","","","26","","40","","24.1","","100.50","","","","","","NA"
"-52.75","47.62","ST. JOHN'S INTL A","8403505","2019-07-28 04:30","2019","07","28","04:30","15.4","","9.5","","68","","","","26","","23","","24.1","","100.53","","","","","","NA"
"-52.75","47.62","ST. JOHN'S INTL A","8403505","2019-07-28 05:30","2019","07","28","05:30","16.2","","9.9","","66","","","","26","","24","","24.1","","100.51","","","","","","Mostly Cloudy"
"-52.75","47.62","ST. JOHN'S INTL A","8403505","2019-07-28 06:30","2019","07","28","06:30","17.1","","10.0","","63","","","","25","","23","","24.1","","100.53","","","","","","NA"
"-52.75","47.62","ST. JOHN'S INTL A","8403505","2019-07-28 07:30","2019","07","28","07:30","17.3","","10.4","","64","","","","25","","31","","24.1","","100.52","","","","","","NA"
"-52.75","47.62","ST. JOHN'S INTL A","8403505","2019-07-28 08:30","2019","07","28","08:30","18.7","","11.6","","63","","","","25","","32","","24.1","","100.48","","","","","","Mostly Cloudy"
"-52.75","47.62","ST. JOHN'S INTL A","8403505","2019-07-28 09:30","2019","07","28","09:30","20.4","","11.1","","55","","","","27","","28","","24.1","","100.43","","","","","","NA"
"-52.75","47.62","ST. JOHN'S INTL A","8403505","2019-07-28 10:30","2019","07","28","10:30","21.1","","11.3","","53","","","","26","","34","","24.1","","100.46","","","","","","NA"
"-52.75","47.62","ST. JOHN'S INTL A","8403505","2019-07-28 11:30","2019","07","28","11:30","20.2","","12.0","","59","","","","25","","30","","24.1","","100.43","","","","","","Mostly Cloudy"
"-52.75","47.62","ST. JOHN'S INTL A","8403505","2019-07-28 12:30","2019","07","28","12:30","20.9","","10.6","","51","","","","26","","34","","24.1","","100.37","","","","","","NA"
"-52.75","47.62","ST. JOHN'S INTL A","8403505","2019-07-28 13:30","2019","07","28","13:30","20.6","","9.9","","50","","","","26","","30","","24.1","","100.34","","","","","","NA"
"-52.75","47.62","ST. JOHN'S INTL A","8403505","2019-07-28 14:30","2019","07","28","14:30","20.8","","10.8","","52","","","","25","","36","","24.1","","100.31","","","","","","Cloudy"
"-52.75","47.62","ST. JOHN'S INTL A","8403505","2019-07-28 15:30","2019","07","28","15:30","19.8","","10.4","","54","","","","26","","32","","24.1","","100.25","","","","","","NA"
"-52.75","47.62","ST. JOHN'S INTL A","8403505","2019-07-28 16:30","2019","07","28","16:30","19.3","","10.5","","56","","","","26","","26","","24.1","","100.24","","","","","","NA"
"-52.75","47.62","ST. JOHN'S INTL A","8403505","2019-07-28 17:30","2019","07","28","17:30","18.8","","10.9","","60","","","","25","","19","","24.1","","100.21","","","","","","Mostly Cloudy"
"-52.75","47.62","ST. JOHN'S INTL A","8403505","2019-07-28 18:30","2019","07","28","18:30","19.1","","8.5","","50","","","","25","","22","","24.1","","100.21","","","","","","NA"
"-52.75","47.62","ST. JOHN'S INTL A","8403505","2019-07-28 19:30","2019","07","28","19:30","16.6","","8.9","","60","","","","23","","11","","24.1","","100.20","","","","","","NA"
"-52.75","47.62","ST. JOHN'S INTL A","8403505","2019-07-28 20:30","2019","07","28","20:30","15.1","","9.1","","67","","","","23","","18","","24.1","","100.21","","","","","","Mainly Clear"
"-52.75","47.62","ST. JOHN'S INTL A","8403505","2019-07-28 21:30","2019","07","28","21:30","14.1","","9.8","","75","","","","23","","19","","24.1","","100.22","","","","","","NA"
"-52.75","47.62","ST. JOHN'S INTL A","8403505","2019-07-28 22:30","2019","07","28","22:30","13.2","","11.4","","89","","","","24","","19","","24.1","","100.18","","","","","","NA"
"-52.75","47.62","ST. JOHN'S INTL A","8403505","2019-07-28 23:30","2019","07","28","23:30","13.1","","12.1","","94","","","","24","","20","","24.1","","100.18","","","","","","Mainly Clear"
"-52.75","47.62","ST. JOHN'S INTL A","8403505","2019-07-29 00:30","2019","07","29","00:30","13.6","","12.9","","95","","","","24","","19","","24.1","","100.17","","","","","","NA"
"-52.75","47.62","ST. JOHN'S INTL A","8403505","2019-07-29 01:30","2019","07","29","01:30","14.9","","14.2","","96","","","","24","","19","","12.9","","100.12","","","","","","NA"
"-52.75","47.62","ST. JOHN'S INTL A","8403505","2019-07-29 02:30","2019","07","29","02:30","15.2","","14.5","","95","","","","27","","21","","16.1","","100.11","","","","","","Cloudy"
"-52.75","47.62","ST. JOHN'S INTL A","8403505","2019-07-29 03:30","2019","07","29","03:30","14.3","","13.8","","97","","","","22","","10","","24.1","","100.09","","","","","","NA"
"-52.75","47.62","ST. JOHN'S INTL A","8403505","2019-07-29 04:30","2019","07","29","04:30","13.3","","12.5","","95","","","","22","","10","","24.1","","100.07","","","","","","NA"
"-52.75","47.62","ST. JOHN'S INTL A","8403505","2019-07-29 05:30","2019","07","29","05:30","13.5","","11.5","","87","","","","21","","9","","24.1","","100.07","","","","","","Clear"
"-52.75","47.62","ST. JOHN'S INTL A","8403505","2019-07-29 06:30","2019","07","29","06:30","15.4","","12.4","","82","","","","19","","8","","24.1","","100.11","","","","","","NA"
"-52.75","47.62","ST. JOHN'S INTL A","8403505","2019-07-29 07:30","2019","07","29","07:30","18.3","","12.4","","68","","","","21","","12","","24.1","","100.08","","","","","","NA"
"-52.75","47.62","ST. JOHN'S INTL A","8403505","2019-07-29 08:30","2019","07","29","08:30","19.6","","11.3","","58","","","","17","","13","","24.1","","100.05","","","","","","Mainly Clear"
"-52.75","47.62","ST. JOHN'S INTL A","8403505","2019-07-29 09:30","2019","07","29","09:30","20.2","","12.9","","62","","","","18","","17","","24.1","","100.04","","","","","","NA"
"-52.75","47.62","ST. JOHN'S INTL A","8403505","2019-07-29 10:30","2019","07","29","10:30","20.6","","13.8","","65","","","","18","","17","","24.1","","100.04","","","","","","NA"
"-52.75","47.62","ST. JOHN'S INTL A","8403505","2019-07-29 11:30","2019","07","29","11:30","21.0","","13.7","","63","","","","18","","21","","24.1","","100.00","","","","","","Mainly Clear"
"-52.75","47.62","ST. JOHN'S INTL A","8403505","2019-07-29 12:30","2019","07","29","12:30","21.1","","14.1","","64","","","","16","","22","","24.1","","99.95","","25","","","","NA"
"-52.75","47.62","ST. JOHN'S INTL A","8403505","2019-07-29 13:30","2019","07","29","13:30","20.3","","14.4","","69","","","","14","","26","","24.1","","99.90","","","","","","NA"
"-52.75","47.62","ST. JOHN'S INTL A","8403505","2019-07-29 14:30","2019","07","29","14:30","20.1","","14.2","","68","","","","17","","22","","24.1","","99.89","","","","","","Mainly Clear"
"-52.75","47.62","ST. JOHN'S INTL A","8403505","2019-07-29 15:30","2019","07","29","15:30","19.7","","14.4","","71","","","","18","","26","","24.1","","99.86","","","","","","NA"
"-52.75","47.62","ST. JOHN'S INTL A","8403505","2019-07-29 16:30","2019","07","29","16:30","18.8","","14.7","","77","","","","18","","27","","24.1","","99.86","","","","","","NA"
"-52.75","47.62","ST. JOHN'S INTL A","8403505","2019-07-29 17:30","2019","07","29","17:30","17.3","","14.6","","84","","","","17","","28","","24.1","","99.83","","","","","","Mainly Clear"
"-52.75","47.62","ST. JOHN'S INTL A","8403505","2019-07-29 18:30","2019","07","29","18:30","15.8","","14.2","","90","","","","17","","23","","24.1","","99.83","","","","","","NA"
"-52.75","47.62","ST. JOHN'S INTL A","8403505","2019-07-29 19:30","2019","07","29","19:30","15.3","","14.5","","95","","","","18","","26","","24.1","","99.83","","","","","","NA"
"-52.75","47.62","ST. JOHN'S INTL A","8403505","2019-07-29 20:30","2019","07","29","20:30","14.9","","14.5","","98","","","","20","","16","","4.8","","99.87","","","","","","Fog"
"-52.75","47.62","ST. JOHN'S INTL A","8403505","2019-07-29 21:30","2019","07","29","21:30","14.4","","14.2","","99","","","","19","","12","","2.8","","99.88","","","","","","Fog"
"-52.75","47.62","ST. JOHN'S INTL A","8403505","2019-07-29 22:30","2019","07","29","22:30","13.4","","13.2","","98","","","","22","","8","","24.1","","99.86","","","","","","NA"
"-52.75","47.62","ST. JOHN'S INTL A","8403505","2019-07-29 23:30","2019","07","29","23:30","14.5","","13.8","","96","","","","26","","17","","24.1","","99.84","","","","","","Mainly Clear"
"-52.75","47.62","ST. JOHN'S INTL A","8403505","2019-07-30 00:30","2019","07","30","00:30","14.9","","13.3","","91","","","","23","","15","","24.1","","99.76","","","","","","Rain Showers"
"-52.75","47.62","ST. JOHN'S INTL A","8403505","2019-07-30 01:30","2019","07","30","01:30","15.1","","12.3","","83","","","","24","","18","","24.1","","99.69","","","","","","NA"
"-52.75","47.62","ST. JOHN'S INTL A","8403505","2019-07-30 02:30","2019","07","30","02:30","15.9","","12.5","","80","","","","26","","22","","24.1","","99.66","","","","","","Cloudy"
"-52.75","47.62","ST. JOHN'S INTL A","8403505","2019-07-30 03:30","2019","07","30","03:30","15.4","","13.4","","88","","","","26","","37","","24.1","","99.61","","","","","","NA"
"-52.75","47.62","ST. JOHN'S INTL A","8403505","2019-07-30 04:30","2019","07","30","04:30","14.8","","14.1","","95","","","","27","","32","","19.3","","99.61","","","","","","NA"
"-52.75","47.62","ST. JOHN'S INTL A","8403505","2019-07-30 05:30","2019","07","30","05:30","14.7","","14.4","","98","","","","27","","34","","2.0","","99.63","","","","","","Fog"
"-52.75","47.62","ST. JOHN'S INTL A","8403505","2019-07-30 06:30","2019","07","30","06:30","15.2","","14.9","","98","","","","26","","33","","2.4","","99.63","","","","","","Fog"
"-52.75","47.62","ST. JOHN'S INTL A","8403505","2019-07-30 07:30","2019","07","30","07:30","15.9","","15.1","","95","","","","26","","33","","8.1","","99.66","","","","","","Fog"
"-52.75","47.62","ST. JOHN'S INTL A","8403505","2019-07-30 08:30","2019","07","30","08:30","17.8","","16.2","","91","","","","27","","27","","16.1","","99.65","","","","","","Cloudy"
"-52.75","47.62","ST. JOHN'S INTL A","8403505","2019-07-30 09:30","2019","07","30","09:30","18.6","","16.5","","88","","","","26","","33","","19.3","","99.61","","","","","","NA"
"-52.75","47.62","ST. JOHN'S INTL A","8403505","2019-07-30 10:30","2019","07","30","10:30","19.6","","17.1","","85","","","","27","","33","","24.1","","99.58","","","","","","NA"
"-52.75","47.62","ST. JOHN'S INTL A","8403505","2019-07-30 11:30","2019","07","30","11:30","21.3","","17.5","","79","","","","26","","34","","24.1","","99.57","","27","","","","Mostly Cloudy"
"-52.75","47.62","ST. JOHN'S INTL A","8403505","2019-07-30 12:30","2019","07","30","12:30","23.2","","18.4","","74","","","","27","","28","","24.1","","99.58","","30","","","","NA"
"-52.75","47.62","ST. JOHN'S INTL A","8403505","2019-07-30 13:30","2019","07","30","13:30","25.1","","18.5","","66","","","","26","","27","","24.1","","99.56","","31","","","","NA"
"-52.75","47.62","ST. JOHN'S INTL A","8403505","2019-07-30 14:30","2019","07","30","14:30","26.4","","17.7","","58","","","","27","","27","","24.1","","99.55","","32","","","","Mainly Clear"
"-52.75","47.62","ST. JOHN'S INTL A","8403505","2019-07-30 15:30","2019","07","30","15:30","26.3","","17.0","","56","","","","26","","26","","24.1","","99.55","","32","","","","NA"
"-52.75","47.62","ST. JOHN'S INTL A","8403505","2019-07-30 16:30","2019","07","30","16:30","23.9","","16.9","","65","","","","27","","23","","24.1","","99.64","","29","","","","NA"
"-52.75","47.62","ST. JOHN'S INTL A","8403505","2019-07-30 17:30","2019","07","30","17:30","21.3","","18.0","","81","","","","29","","29","","24.1","","99.68","","27","","","","Mostly Cloudy"
"-52.75","47.62","ST. JOHN'S INTL A","8403505","2019-07-30 18:30","2019","07","30","18:30","20.7","","16.7","","78","","","","30","","20","","24.1","","99.74","","26","","","","NA"
"-52.75","47.62","ST. JOHN'S INTL A","8403505","2019-07-30 19:30","2019","07","30","19:30","13.0","","12.2","","94","","","","2","","22","","3.2","","99.88","","","","","","Fog"
"-52.75","47.62","ST. JOHN'S INTL A","8403505","2019-07-30 20:30","2019","07","30","20:30","12.1","","11.0","","93","","","","2","","21","","16.1","","100.00","","","","","","Cloudy"
"-52.75","47.62","ST. JOHN'S INTL A","8403505","2019-07-30 21:30","2019","07","30","21:30","12.0","","10.4","","90","","","","2","","19","","24.1","","100.07","","","","","","NA"
"-52.75","47.62","ST. JOHN'S INTL A","8403505","2019-07-30 22:30","2019","07","30","22:30","11.7","","10.4","","92","","","","2","","12","","16.1","","100.10","","","","","","NA"
"-52.75","47.62","ST. JOHN'S INTL A","8403505","2019-07-30 23:30","2019","07","30","23:30","11.5","","9.7","","88","","","","2","","18","","24.1","","100.13","","","","","","Cloudy"
"-52.75","47.62","ST. JOHN'S INTL A","8403505","2019-07-31 00:30","2019","07","31","00:30","11.5","","9.8","","89","","","","1","","10","","24.1","","100.15","","","","","","NA"
"-52.75","47.62","ST. JOHN'S INTL A","8403505","2019-07-31 01:30","2019","07","31","01:30","11.5","","9.5","","87","","","","2","","10","","24.1","","100.17","","","","","","NA"
"-52.75","47.62","ST. JOHN'S INTL A","8403505","2019-07-31 02:30","2019","07","31","02:30","11.4","","9.4","","87","","","","33","","5","","24.1","","100.20","","","","","","Cloudy"
"-52.75","47.62","ST. JOHN'S INTL A","8403505","2019-07-31 03:30","2019","07","31","03:30","11.5","","8.8","","84","","","","2","","7","","24.1","","100.20","","","","","","NA"
"-52.75","47.62","ST. JOHN'S INTL A","8403505","2019-07-31 04:30","2019","07","31","04:30","11.4","","8.9","","84","","","","22","","3","","24.1","","100.19","","","","","","NA"
"-52.75","47.62","ST. JOHN'S INTL A","8403505","2019-07-31 05:30","2019","07","31","05:30","12.2","","8.8","","79","","","","36","","1","","24.1","","100.24","","","","","","Cloudy"
"-52.75","47.62","ST. JOHN'S INTL A","8403505","2019-07-31 06:30","2019","07","31","06:30","12.6","","8.6","","76","","","","16","","5","","24.1","","100.24","","","","","","NA"
"-52.75","47.62","ST. JOHN'S INTL A","8403505","2019-07-31 07:30","2019","07","31","07:30","13.8","","10.0","","78","","","","23","","7","","24.1","","100.29","","","","","","NA"
"-52.75","47.62","ST. JOHN'S INTL A","8403505","2019-07-31 08:30","2019","07","31","08:30","14.5","","11.2","","81","","","","27","","4","","24.1","","100.27","","","","","","Cloudy"
"-52.75","47.62","ST. JOHN'S INTL A","8403505","2019-07-31 09:30","2019","07","31","09:30","15.9","","12.7","","81","","","","25","","9","","24.1","","100.25","","","","","","NA"
"-52.75","47.62","ST. JOHN'S INTL A","8403505","2019-07-31 10:30","2019","07","31","10:30","17.9","","13.5","","75","","","","19","","8","","24.1","","100.21","","","","","","NA"
"-52.75","47.62","ST. JOHN'S INTL A","8403505","2019-07-31 11:30","2019","07","31","11:30","20.4","","15.5","","73","","","","23","","9","","24.1","","100.18","","25","","","","Mostly Cloudy"
"-52.75","47.62","ST. JOHN'S INTL A","8403505","2019-07-31 12:30","2019","07","31","12:30","21.6","","16.0","","70","","","","27","","15","","24.1","","100.13","","26","","","","NA"
"-52.75","47.62","ST. JOHN'S INTL A","8403505","2019-07-31 13:30","2019","07","31","13:30","22.8","","16.4","","67","","","","27","","19","","24.1","","100.10","","28","","","","NA"
"-52.75","47.62","ST. JOHN'S INTL A","8403505","2019-07-31 14:30","2019","07","31","14:30","23.8","","17.1","","65","","","","26","","21","","24.1","","100.08","","29","","","","Mainly Clear"
"-52.75","47.62","ST. JOHN'S INTL A","8403505","2019-07-31 15:30","2019","07","31","15:30","24.8","","17.9","","65","","","","26","","17","","24.1","","100.04","","31","","","","NA"
"-52.75","47.62","ST. JOHN'S INTL A","8403505","2019-07-31 16:30","2019","07","31","16:30","25.5","","18.3","","64","","","","25","","23","","24.1","","100.00","","32","","","","NA"
"-52.75","47.62","ST. JOHN'S INTL A","8403505","2019-07-31 17:30","2019","07","31","17:30","25.3","","18.2","","64","","","","27","","20","","24.1","","99.99","","31","","","","Mainly Clear"
"-52.75","47.62","ST. JOHN'S INTL A","8403505","2019-07-31 18:30","2019","07","31","18:30","23.7","","17.7","","69","","","","26","","23","","24.1","","99.98","","29","","","","NA"
"-52.75","47.62","ST. JOHN'S INTL A","8403505","2019-07-31 19:30","2019","07","31","19:30","21.7","","17.1","","75","","","","26","","22","","24.1","","100.02","","27","","","","NA"
"-52.75","47.62","ST. JOHN'S INTL A","8403505","2019-07-31 20:30","2019","07","31","20:30","19.9","","16.5","","81","","","","27","","22","","24.1","","100.02","","","","","","Mainly Clear"
"-52.75","47.62","ST. JOHN'S INTL A","8403505","2019-07-31 21:30","2019","07","31","21:30","18.4","","16.2","","87","","","","27","","20","","24.1","","100.02","","","","","","NA"
"-52.75","47.62","ST. JOHN'S INTL A","8403505","2019-07-31 22:30","2019","07","31","22:30","17.1","","15.8","","92","","","","27","","24","","24.1","","99.98","","","","","","NA"
"-52.75","47.62","ST. JOHN'S INTL A","8403505","2019-07-31 23:30","2019","07","31","23:30","16.1","","15.6","","97","","","","26","","25","","9.7","","99.97","","","","","","Fog"
