"Longitude (x)","Latitude (y)","Station Name","Climate ID","Date/Time (LST)","Year","Month","Day","Time (LST)","Temp (°C)","Temp Flag","Dew Point Temp (°C)","Dew Point Temp Flag","Rel Hum (%)","Rel Hum Flag","Precip. Amount (mm)","Precip. Amount Flag","Wind Dir (10s deg)","Wind Dir Flag","Wind Spd (km/h)","Wind Spd Flag","Visibility (km)","Visibility Flag","Stn Press (kPa)","Stn Press Flag","Hmdx","Hmdx Flag","Wind Chill","Wind Chill Flag","Weather"
"-52.75","47.62","ST. JOHN'S INTL A","8403505","2018-10-01 00:30","2018","10","01","00:30","7.8","","6.2","","89","","","","5","","20","","24.1","","100.84","","","","","","NA"
"-52.75","47.62","ST. JOHN'S INTL A","8403505","2018-10-01 01:30","2018","10","01","01:30","7.6","","5.9","","89","","","","5","","16","","24.1","","100.82","","","","","","NA"
"-52.75","47.62","ST. JOHN'S INTL A","8403505","2018-10-01 02:30","2018","10","01","02:30","7.2","","5.7","","90","","","","5","","13","","24.1","","100.80","","","","","","Mostly Cloudy"
"-52.75","47.62","ST. JOHN'S INTL A","8403505","2018-10-01 03:30","2018","10","01","03:30","7.1","","5.9","","92","","","","6","","13","","24.1","","100.76","","","","","","NA"
"-52.75","47.62","ST. JOHN'S INTL A","8403505","2018-10-01 04:30","2018","10","01","04:30","7.0","","6.2","","94","","","","7","","13","","24.1","","100.75","","","","","","NA"
"-52.75","47.62","ST. JOHN'S INTL A","8403505","2018-10-01 05:30","2018","10","01","05:30","7.1","","6.0","","93","","","","7","","13","","24.1","","100.78","","","","","","Mostly Cloudy"
"-52.75","47.62","ST. JOHN'S INTL A","8403505","2018-10-01 06:30","2018","10","01","06:30","6.9","","6.0","","93","","","","6","","13","","24.1","","100.79","","","","","","NA"
"-52.75","47.62","ST. JOHN'S INTL A","8403505","2018-10-01 07:30","2018","10","01","07:30","7.8","","6.1","","89","","","","5","","13","","24.1","","100.80","","","","","","NA"
"-52.75","47.62","ST. JOHN'S INTL A","8403505","2018-10-01 08:30","2018","10","01","08:30","8.2","","5.9","","85","","","","6","","15","","24.1","","100.77","","","","","","Mostly Cloudy"
"-52.75","47.62","ST. JOHN'S INTL A","8403505","2018-10-01 09:30","2018","10","01","09:30","8.5","","6.0","","84","","","","6","","16","","24.1","","100.75","","","","","","NA"
"-52.75","47.62","ST. JOHN'S INTL A","8403505","2018-10-01 10:30","2018","10","01","10:30","10.2","","6.9","","80","","","","5","","13","","24.1","","100.69","","","","","","NA"
"-52.75","47.62","ST. JOHN'S INTL A","8403505","2018-10-01 11:30","2018","10","01","11:30","10.5","","6.0","","73","","","","10","","8","","24.1","","100.65","","","","","","Mainly Clear"
"-52.75","47.62","ST. JOHN'S INTL A","8403505","2018-10-01 12:30","2018","10","01","12:30","10.8","","6.2","","73","","","","4","","8","","24.1","","100.61","","","","","","NA"
"-52.75","47.62","ST. JOHN'S INTL A","8403505","2018-10-01 13:30","2018","10","01","13:30","10.3","","6.2","","76","","","","6","","9","","24.1","","100.53","","","","","","NA"
"-52.75","47.62","ST. JOHN'S INTL A","8403505","2018-10-01 14:30","2018","10","01","14:30","10.6","","6.8","","77","","","","8","","6","","24.1","","100.51","","","","","","Mostly Cloudy"
"-52.75","47.62","ST. JOHN'S INTL A","8403505","2018-10-01 15:30","2018","10","01","15:30","9.8","","6.8","","81","","","","7","","5","","24.1","","100.50","","","","","","NA"
"-52.75","47.62","ST. JOHN'S INTL A","8403505","2018-10-01 16:30","2018","10","01","16:30","10.2","","7.0","","81","","","","16","","4","","24.1","","100.48","","","","","","NA"
"-52.75","47.62","ST. JOHN'S INTL A","8403505","2018-10-01 17:30","2018","10","01","17:30","7.8","","6.3","","91","","","","16","","14","","24.1","","100.44","","","","","","Mostly Cloudy"
"-52.75","47.62","ST. JOHN'S INTL A","8403505","2018-10-01 18:30","2018","10","01","18:30","8.1","","5.9","","86","","","","25","","13","","24.1","","100.46","","","","","","NA"
"-52.75","47.62","ST. JOHN'S INTL A","8403505","2018-10-01 19:30","2018","10","01","19:30","9.3","","5.8","","79","","","","26","","19","","24.1","","100.45","","","","","","NA"
"-52.75","47.62","ST. JOHN'S INTL A","8403505","2018-10-01 20:30","2018","10","01","20:30","9.3","","5.8","","79","","","","26","","18","","24.1","","100.43","","","","","","Mostly Cloudy"
"-52.75","47.62","ST. JOHN'S INTL A","8403505","2018-10-01 21:30","2018","10","01","21:30","8.9","","6.8","","87","","","","29","","21","","24.1","","100.43","","","","","","NA"
"-52.75","47.62","ST. JOHN'S INTL A","8403505","2018-10-01 22:30","2018","10","01","22:30","8.2","","7.5","","95","","","","29","","19","","24.1","","100.45","","","","","","NA"
"-52.75","47.62","ST. JOHN'S INTL A","8403505","2018-10-01 23:30","2018","10","01","23:30","8.3","","6.1","","86","","","","33","","18","","24.1","","100.50","","","","","","Mainly Clear"
"-52.75","47.62","ST. JOHN'S INTL A","8403505","2018-10-02 00:30","2018","10","02","00:30","6.9","","4.6","","85","","","","35","","9","","24.1","","100.57","","","","","","NA"
"-52.75","47.62","ST. JOHN'S INTL A","8403505","2018-10-02 01:30","2018","10","02","01:30","6.5","","4.0","","84","","","","36","","12","","24.1","","100.59","","","","","","NA"
"-52.75","47.62","ST. JOHN'S INTL A","8403505","2018-10-02 02:30","2018","10","02","02:30","5.0","","2.9","","86","","","","33","","14","","24.1","","100.61","","","","","","Mostly Cloudy"
"-52.75","47.62","ST. JOHN'S INTL A","8403505","2018-10-02 03:30","2018","10","02","03:30","3.6","","2.2","","91","","","","32","","15","","24.1","","100.66","","","","","","NA"
"-52.75","47.62","ST. JOHN'S INTL A","8403505","2018-10-02 04:30","2018","10","02","04:30","3.9","","2.2","","89","","","","32","","19","","24.1","","100.70","","","","","","NA"
"-52.75","47.62","ST. JOHN'S INTL A","8403505","2018-10-02 05:30","2018","10","02","05:30","3.3","","2.0","","91","","","","30","","14","","24.1","","100.75","","","","","","Mainly Clear"
"-52.75","47.62","ST. JOHN'S INTL A","8403505","2018-10-02 06:30","2018","10","02","06:30","3.8","","2.2","","90","","","","32","","15","","24.1","","100.79","","","","","","NA"
"-52.75","47.62","ST. JOHN'S INTL A","8403505","2018-10-02 07:30","2018","10","02","07:30","6.0","","3.7","","85","","","","33","","16","","24.1","","100.85","","","","","","NA"
"-52.75","47.62","ST. JOHN'S INTL A","8403505","2018-10-02 08:30","2018","10","02","08:30","7.8","","3.5","","74","","","","34","","19","","24.1","","100.90","","","","","","Mainly Clear"
"-52.75","47.62","ST. JOHN'S INTL A","8403505","2018-10-02 09:30","2018","10","02","09:30","9.2","","2.9","","65","","","","36","","7","","24.1","","100.92","","","","","","NA"
"-52.75","47.62","ST. JOHN'S INTL A","8403505","2018-10-02 10:30","2018","10","02","10:30","10.0","","-0.3","","49","","","","35","","16","","24.1","","100.97","","","","","","NA"
"-52.75","47.62","ST. JOHN'S INTL A","8403505","2018-10-02 11:30","2018","10","02","11:30","9.8","","0.8","","53","","","","35","","23","","24.1","","100.98","","","","","","Mostly Cloudy"
"-52.75","47.62","ST. JOHN'S INTL A","8403505","2018-10-02 12:30","2018","10","02","12:30","9.2","","0.6","","55","","","","32","","14","","24.1","","100.99","","","","","","NA"
"-52.75","47.62","ST. JOHN'S INTL A","8403505","2018-10-02 13:30","2018","10","02","13:30","8.6","","1.2","","60","","","","36","","18","","24.1","","101.00","","","","","","NA"
"-52.75","47.62","ST. JOHN'S INTL A","8403505","2018-10-02 14:30","2018","10","02","14:30","8.8","","1.1","","58","","","","36","","14","","24.1","","100.99","","","","","","Mostly Cloudy"
"-52.75","47.62","ST. JOHN'S INTL A","8403505","2018-10-02 15:30","2018","10","02","15:30","8.7","","1.4","","60","","","","2","","17","","24.1","","101.05","","","","","","NA"
"-52.75","47.62","ST. JOHN'S INTL A","8403505","2018-10-02 16:30","2018","10","02","16:30","7.1","","1.8","","69","","","","2","","12","","24.1","","101.10","","","","","","NA"
"-52.75","47.62","ST. JOHN'S INTL A","8403505","2018-10-02 17:30","2018","10","02","17:30","5.9","","1.4","","72","","","","1","","9","","24.1","","101.19","","","","","","Mainly Clear"
"-52.75","47.62","ST. JOHN'S INTL A","8403505","2018-10-02 18:30","2018","10","02","18:30","5.0","","2.3","","83","","","","3","","4","","24.1","","101.25","","","","","","NA"
"-52.75","47.62","ST. JOHN'S INTL A","8403505","2018-10-02 19:30","2018","10","02","19:30","4.3","","1.8","","84","","","","","","0","","24.1","","101.28","","","","","","NA"
"-52.75","47.62","ST. JOHN'S INTL A","8403505","2018-10-02 20:30","2018","10","02","20:30","3.2","","0.9","","85","","","","36","","2","","24.1","","101.30","","","","","","Mainly Clear"
"-52.75","47.62","ST. JOHN'S INTL A","8403505","2018-10-02 21:30","2018","10","02","21:30","3.1","","1.4","","89","","","","36","","2","","24.1","","101.33","","","","","","NA"
"-52.75","47.62","ST. JOHN'S INTL A","8403505","2018-10-02 22:30","2018","10","02","22:30","3.5","","1.5","","87","","","","6","","11","","24.1","","101.35","","","","","","NA"
"-52.75","47.62","ST. JOHN'S INTL A","8403505","2018-10-02 23:30","2018","10","02","23:30","4.0","","1.5","","84","","","","8","","4","","24.1","","101.37","","","","","","Mainly Clear"
"-52.75","47.62","ST. JOHN'S INTL A","8403505","2018-10-03 00:30","2018","10","03","00:30","1.3","","-0.9","","85","","","","36","","2","","24.1","","101.37","","","","","","NA"
"-52.75","47.62","ST. JOHN'S INTL A","8403505","2018-10-03 01:30","2018","10","03","01:30","2.6","","0.2","","84","","","","13","","5","","24.1","","101.39","","","","","","NA"
"-52.75","47.62","ST. JOHN'S INTL A","8403505","2018-10-03 02:30","2018","10","03","02:30","1.7","","0.0","","89","","","","18","","4","","24.1","","101.41","","","","","","Clear"
"-52.75","47.62","ST. JOHN'S INTL A","8403505","2018-10-03 03:30","2018","10","03","03:30","1.2","","-0.8","","86","","","","17","","4","","24.1","","101.43","","","","","","NA"
"-52.75","47.62","ST. JOHN'S INTL A","8403505","2018-10-03 04:30","2018","10","03","04:30","3.0","","0.1","","82","","","","36","","3","","24.1","","101.45","","","","","","NA"
"-52.75","47.62","ST. JOHN'S INTL A","8403505","2018-10-03 05:30","2018","10","03","05:30","1.4","","-0.6","","87","","","","15","","4","","24.1","","101.48","","","","","","Mostly Cloudy"
"-52.75","47.62","ST. JOHN'S INTL A","8403505","2018-10-03 06:30","2018","10","03","06:30","2.5","","-0.1","","83","","","","13","","5","","24.1","","101.50","","","","","","NA"
"-52.75","47.62","ST. JOHN'S INTL A","8403505","2018-10-03 07:30","2018","10","03","07:30","4.1","","1.1","","81","","","","16","","3","","24.1","","101.54","","","","","","NA"
"-52.75","47.62","ST. JOHN'S INTL A","8403505","2018-10-03 08:30","2018","10","03","08:30","6.9","","2.6","","74","","","","13","","9","","24.1","","101.56","","","","","","Mostly Cloudy"
"-52.75","47.62","ST. JOHN'S INTL A","8403505","2018-10-03 09:30","2018","10","03","09:30","7.7","","1.1","","63","","","","16","","16","","24.1","","101.60","","","","","","NA"
"-52.75","47.62","ST. JOHN'S INTL A","8403505","2018-10-03 10:30","2018","10","03","10:30","8.7","","0.4","","56","","","","13","","14","","24.1","","101.56","","","","","","NA"
"-52.75","47.62","ST. JOHN'S INTL A","8403505","2018-10-03 11:30","2018","10","03","11:30","9.3","","1.6","","59","","","","14","","13","","24.1","","101.55","","","","","","Mostly Cloudy"
"-52.75","47.62","ST. JOHN'S INTL A","8403505","2018-10-03 12:30","2018","10","03","12:30","9.4","","1.2","","57","","","","18","","16","","24.1","","101.52","","","","","","NA"
"-52.75","47.62","ST. JOHN'S INTL A","8403505","2018-10-03 13:30","2018","10","03","13:30","9.2","","1.7","","59","","","","12","","24","","24.1","","101.46","","","","","","NA"
"-52.75","47.62","ST. JOHN'S INTL A","8403505","2018-10-03 14:30","2018","10","03","14:30","8.1","","1.7","","64","","","","15","","21","","24.1","","101.46","","","","","","Mostly Cloudy"
"-52.75","47.62","ST. JOHN'S INTL A","8403505","2018-10-03 15:30","2018","10","03","15:30","7.7","","1.7","","65","","","","15","","18","","24.1","","101.47","","","","","","NA"
"-52.75","47.62","ST. JOHN'S INTL A","8403505","2018-10-03 16:30","2018","10","03","16:30","7.4","","1.8","","67","","","","16","","19","","24.1","","101.48","","","","","","NA"
"-52.75","47.62","ST. JOHN'S INTL A","8403505","2018-10-03 17:30","2018","10","03","17:30","6.3","","2.1","","74","","","","16","","14","","24.1","","101.50","","","","","","Mostly Cloudy"
"-52.75","47.62","ST. JOHN'S INTL A","8403505","2018-10-03 18:30","2018","10","03","18:30","6.1","","2.6","","78","","","","15","","10","","24.1","","101.52","","","","","","NA"
"-52.75","47.62","ST. JOHN'S INTL A","8403505","2018-10-03 19:30","2018","10","03","19:30","6.7","","3.1","","78","","","","15","","14","","24.1","","101.49","","","","","","NA"
"-52.75","47.62","ST. JOHN'S INTL A","8403505","2018-10-03 20:30","2018","10","03","20:30","6.9","","3.2","","77","","","","15","","16","","24.1","","101.47","","","","","","Cloudy"
"-52.75","47.62","ST. JOHN'S INTL A","8403505","2018-10-03 21:30","2018","10","03","21:30","7.4","","3.6","","77","","","","15","","21","","24.1","","101.45","","","","","","NA"
"-52.75","47.62","ST. JOHN'S INTL A","8403505","2018-10-03 22:30","2018","10","03","22:30","7.5","","4.0","","79","","","","15","","17","","24.1","","101.44","","","","","","NA"
"-52.75","47.62","ST. JOHN'S INTL A","8403505","2018-10-03 23:30","2018","10","03","23:30","7.8","","4.0","","77","","","","16","","14","","24.1","","101.44","","","","","","Cloudy"
"-52.75","47.62","ST. JOHN'S INTL A","8403505","2018-10-04 00:30","2018","10","04","00:30","7.7","","4.2","","78","","","","16","","14","","24.1","","101.40","","","","","","NA"
"-52.75","47.62","ST. JOHN'S INTL A","8403505","2018-10-04 01:30","2018","10","04","01:30","7.5","","4.3","","80","","","","16","","18","","24.1","","101.29","","","","","","NA"
"-52.75","47.62","ST. JOHN'S INTL A","8403505","2018-10-04 02:30","2018","10","04","02:30","8.0","","4.4","","78","","","","16","","13","","24.1","","101.29","","","","","","Cloudy"
"-52.75","47.62","ST. JOHN'S INTL A","8403505","2018-10-04 03:30","2018","10","04","03:30","7.9","","4.0","","76","","","","14","","15","","24.1","","101.27","","","","","","NA"
"-52.75","47.62","ST. JOHN'S INTL A","8403505","2018-10-04 04:30","2018","10","04","04:30","7.1","","3.2","","76","","","","16","","22","","24.1","","101.20","","","","","","NA"
"-52.75","47.62","ST. JOHN'S INTL A","8403505","2018-10-04 05:30","2018","10","04","05:30","7.2","","4.8","","85","","","","16","","23","","24.1","","101.16","","","","","","Mainly Clear"
"-52.75","47.62","ST. JOHN'S INTL A","8403505","2018-10-04 06:30","2018","10","04","06:30","7.3","","5.9","","90","","","","16","","16","","24.1","","101.21","","","","","","NA"
"-52.75","47.62","ST. JOHN'S INTL A","8403505","2018-10-04 07:30","2018","10","04","07:30","9.8","","6.9","","82","","","","17","","16","","24.1","","101.25","","","","","","NA"
"-52.75","47.62","ST. JOHN'S INTL A","8403505","2018-10-04 08:30","2018","10","04","08:30","10.5","","7.0","","79","","","","17","","20","","24.1","","101.21","","","","","","Mostly Cloudy"
"-52.75","47.62","ST. JOHN'S INTL A","8403505","2018-10-04 09:30","2018","10","04","09:30","11.8","","7.2","","73","","","","15","","25","","24.1","","101.17","","","","","","NA"
"-52.75","47.62","ST. JOHN'S INTL A","8403505","2018-10-04 10:30","2018","10","04","10:30","12.1","","7.4","","73","","","","16","","26","","24.1","","101.15","","","","","","NA"
"-52.75","47.62","ST. JOHN'S INTL A","8403505","2018-10-04 11:30","2018","10","04","11:30","13.1","","7.6","","69","","","","17","","27","","24.1","","101.04","","","","","","Mostly Cloudy"
"-52.75","47.62","ST. JOHN'S INTL A","8403505","2018-10-04 12:30","2018","10","04","12:30","13.3","","8.3","","72","","","","17","","32","","24.1","","100.92","","","","","","NA"
"-52.75","47.62","ST. JOHN'S INTL A","8403505","2018-10-04 13:30","2018","10","04","13:30","12.7","","9.2","","79","","","","17","","28","","24.1","","100.82","","","","","","NA"
"-52.75","47.62","ST. JOHN'S INTL A","8403505","2018-10-04 14:30","2018","10","04","14:30","11.6","","9.5","","86","","","","18","","30","","24.1","","100.77","","","","","","Cloudy"
"-52.75","47.62","ST. JOHN'S INTL A","8403505","2018-10-04 15:30","2018","10","04","15:30","11.5","","10.1","","91","","","","16","","23","","24.1","","100.67","","","","","","NA"
"-52.75","47.62","ST. JOHN'S INTL A","8403505","2018-10-04 16:30","2018","10","04","16:30","11.2","","10.4","","95","","","","17","","23","","19.3","","100.56","","","","","","NA"
"-52.75","47.62","ST. JOHN'S INTL A","8403505","2018-10-04 17:30","2018","10","04","17:30","11.4","","10.4","","93","","","","19","","30","","24.1","","100.47","","","","","","Cloudy"
"-52.75","47.62","ST. JOHN'S INTL A","8403505","2018-10-04 18:30","2018","10","04","18:30","10.9","","10.2","","95","","","","18","","27","","24.1","","100.39","","","","","","NA"
"-52.75","47.62","ST. JOHN'S INTL A","8403505","2018-10-04 19:30","2018","10","04","19:30","12.0","","11.4","","96","","","","19","","31","","24.1","","100.36","","","","","","NA"
"-52.75","47.62","ST. JOHN'S INTL A","8403505","2018-10-04 20:30","2018","10","04","20:30","13.0","","12.1","","94","","","","19","","30","","24.1","","100.29","","","","","","Cloudy"
"-52.75","47.62","ST. JOHN'S INTL A","8403505","2018-10-04 21:30","2018","10","04","21:30","13.2","","12.8","","97","","","","19","","34","","19.3","","100.24","","","","","","Drizzle"
"-52.75","47.62","ST. JOHN'S INTL A","8403505","2018-10-04 22:30","2018","10","04","22:30","13.6","","13.3","","98","","","","19","","22","","19.3","","100.15","","","","","","Drizzle"
"-52.75","47.62","ST. JOHN'S INTL A","8403505","2018-10-04 23:30","2018","10","04","23:30","13.7","","13.4","","98","","","","20","","22","","24.1","","100.07","","","","","","Drizzle"
"-52.75","47.62","ST. JOHN'S INTL A","8403505","2018-10-05 00:30","2018","10","05","00:30","14.2","","14.0","","99","","","","20","","27","","8.1","","99.96","","","","","","Drizzle,Fog"
"-52.75","47.62","ST. JOHN'S INTL A","8403505","2018-10-05 01:30","2018","10","05","01:30","15.8","","15.5","","98","","","","21","","28","","24.1","","99.86","","","","","","NA"
"-52.75","47.62","ST. JOHN'S INTL A","8403505","2018-10-05 02:30","2018","10","05","02:30","15.9","","15.4","","97","","","","21","","32","","24.1","","99.70","","","","","","Mostly Cloudy"
"-52.75","47.62","ST. JOHN'S INTL A","8403505","2018-10-05 03:30","2018","10","05","03:30","16.4","","15.8","","96","","","","22","","35","","24.1","","99.66","","","","","","NA"
"-52.75","47.62","ST. JOHN'S INTL A","8403505","2018-10-05 04:30","2018","10","05","04:30","16.5","","15.8","","96","","","","23","","28","","24.1","","99.63","","","","","","NA"
"-52.75","47.62","ST. JOHN'S INTL A","8403505","2018-10-05 05:30","2018","10","05","05:30","16.9","","16.3","","96","","","","22","","38","","24.1","","99.58","","","","","","Cloudy"
"-52.75","47.62","ST. JOHN'S INTL A","8403505","2018-10-05 06:30","2018","10","05","06:30","17.3","","16.4","","94","","","","23","","29","","24.1","","99.57","","","","","","NA"
"-52.75","47.62","ST. JOHN'S INTL A","8403505","2018-10-05 07:30","2018","10","05","07:30","18.5","","17.6","","95","","","","23","","24","","24.1","","99.60","","","","","","NA"
"-52.75","47.62","ST. JOHN'S INTL A","8403505","2018-10-05 08:30","2018","10","05","08:30","16.9","","16.4","","96","","","","24","","30","","19.3","","99.68","","","","","","Rain"
"-52.75","47.62","ST. JOHN'S INTL A","8403505","2018-10-05 09:30","2018","10","05","09:30","17.2","","16.3","","95","","","","23","","26","","24.1","","99.61","","","","","","NA"
"-52.75","47.62","ST. JOHN'S INTL A","8403505","2018-10-05 10:30","2018","10","05","10:30","17.5","","16.3","","93","","","","24","","27","","24.1","","99.56","","","","","","NA"
"-52.75","47.62","ST. JOHN'S INTL A","8403505","2018-10-05 11:30","2018","10","05","11:30","15.4","","14.9","","97","","","","29","","30","","9.7","","99.69","","","","","","Drizzle,Fog"
"-52.75","47.62","ST. JOHN'S INTL A","8403505","2018-10-05 12:30","2018","10","05","12:30","17.0","","15.9","","94","","","","25","","21","","24.1","","99.67","","","","","","NA"
"-52.75","47.62","ST. JOHN'S INTL A","8403505","2018-10-05 13:30","2018","10","05","13:30","17.1","","15.2","","88","","","","27","","22","","24.1","","99.66","","","","","","NA"
"-52.75","47.62","ST. JOHN'S INTL A","8403505","2018-10-05 14:30","2018","10","05","14:30","18.1","","14.2","","77","","","","28","","23","","24.1","","99.69","","","","","","Mainly Clear"
"-52.75","47.62","ST. JOHN'S INTL A","8403505","2018-10-05 15:30","2018","10","05","15:30","17.8","","13.6","","76","","","","28","","23","","24.1","","99.72","","","","","","NA"
"-52.75","47.62","ST. JOHN'S INTL A","8403505","2018-10-05 16:30","2018","10","05","16:30","9.8","","7.6","","86","","","","5","","23","","24.1","","99.86","","","","","","NA"
"-52.75","47.62","ST. JOHN'S INTL A","8403505","2018-10-05 17:30","2018","10","05","17:30","9.2","","6.4","","83","","","","6","","16","","24.1","","99.92","","","","","","Mostly Cloudy"
"-52.75","47.62","ST. JOHN'S INTL A","8403505","2018-10-05 18:30","2018","10","05","18:30","8.9","","5.9","","81","","","","6","","14","","24.1","","99.98","","","","","","NA"
"-52.75","47.62","ST. JOHN'S INTL A","8403505","2018-10-05 19:30","2018","10","05","19:30","8.8","","6.2","","84","","","","9","","11","","24.1","","100.02","","","","","","NA"
"-52.75","47.62","ST. JOHN'S INTL A","8403505","2018-10-05 20:30","2018","10","05","20:30","8.6","","5.9","","83","","","","9","","10","","24.1","","100.05","","","","","","Cloudy"
"-52.75","47.62","ST. JOHN'S INTL A","8403505","2018-10-05 21:30","2018","10","05","21:30","8.4","","6.3","","87","","","","8","","9","","24.1","","100.02","","","","","","NA"
"-52.75","47.62","ST. JOHN'S INTL A","8403505","2018-10-05 22:30","2018","10","05","22:30","8.4","","6.3","","87","","","","10","","7","","24.1","","100.06","","","","","","NA"
"-52.75","47.62","ST. JOHN'S INTL A","8403505","2018-10-05 23:30","2018","10","05","23:30","7.4","","6.0","","91","","","","9","","7","","24.1","","100.03","","","","","","Mostly Cloudy"
"-52.75","47.62","ST. JOHN'S INTL A","8403505","2018-10-06 00:30","2018","10","06","00:30","6.9","","5.6","","91","","","","8","","7","","24.1","","100.01","","","","","","NA"
"-52.75","47.62","ST. JOHN'S INTL A","8403505","2018-10-06 01:30","2018","10","06","01:30","7.5","","6.0","","90","","","","8","","7","","24.1","","100.01","","","","","","NA"
"-52.75","47.62","ST. JOHN'S INTL A","8403505","2018-10-06 02:30","2018","10","06","02:30","8.0","","6.0","","87","","","","5","","4","","24.1","","100.03","","","","","","Cloudy"
"-52.75","47.62","ST. JOHN'S INTL A","8403505","2018-10-06 03:30","2018","10","06","03:30","8.1","","5.5","","84","","","","6","","4","","24.1","","99.99","","","","","","NA"
"-52.75","47.62","ST. JOHN'S INTL A","8403505","2018-10-06 04:30","2018","10","06","04:30","7.8","","5.6","","86","","","","12","","7","","24.1","","99.94","","","","","","NA"
"-52.75","47.62","ST. JOHN'S INTL A","8403505","2018-10-06 05:30","2018","10","06","05:30","7.4","","5.9","","90","","","","1","","3","","24.1","","99.95","","","","","","Cloudy"
"-52.75","47.62","ST. JOHN'S INTL A","8403505","2018-10-06 06:30","2018","10","06","06:30","6.3","","4.4","","87","","","","3","","3","","24.1","","99.95","","","","","","NA"
"-52.75","47.62","ST. JOHN'S INTL A","8403505","2018-10-06 07:30","2018","10","06","07:30","8.7","","5.4","","79","","","","15","","4","","24.1","","99.96","","","","","","NA"
"-52.75","47.62","ST. JOHN'S INTL A","8403505","2018-10-06 08:30","2018","10","06","08:30","9.7","","4.4","","70","","","","22","","5","","24.1","","99.99","","","","","","Mainly Clear"
"-52.75","47.62","ST. JOHN'S INTL A","8403505","2018-10-06 09:30","2018","10","06","09:30","10.9","","5.5","","69","","","","27","","12","","24.1","","100.02","","","","","","NA"
"-52.75","47.62","ST. JOHN'S INTL A","8403505","2018-10-06 10:30","2018","10","06","10:30","11.8","","6.8","","71","","","","10","","9","","24.1","","99.99","","","","","","NA"
"-52.75","47.62","ST. JOHN'S INTL A","8403505","2018-10-06 11:30","2018","10","06","11:30","9.6","","4.9","","73","","","","4","","11","","24.1","","99.96","","","","","","Mostly Cloudy"
"-52.75","47.62","ST. JOHN'S INTL A","8403505","2018-10-06 12:30","2018","10","06","12:30","10.1","","4.5","","68","","","","5","","10","","24.1","","99.90","","","","","","NA"
"-52.75","47.62","ST. JOHN'S INTL A","8403505","2018-10-06 13:30","2018","10","06","13:30","9.3","","3.9","","69","","","","6","","14","","24.1","","99.89","","","","","","NA"
"-52.75","47.62","ST. JOHN'S INTL A","8403505","2018-10-06 14:30","2018","10","06","14:30","10.3","","4.5","","67","","","","3","","12","","24.1","","99.90","","","","","","Mostly Cloudy"
"-52.75","47.62","ST. JOHN'S INTL A","8403505","2018-10-06 15:30","2018","10","06","15:30","10.1","","1.9","","56","","","","32","","18","","24.1","","99.92","","","","","","NA"
"-52.75","47.62","ST. JOHN'S INTL A","8403505","2018-10-06 16:30","2018","10","06","16:30","8.9","","1.8","","61","","","","2","","10","","24.1","","99.94","","","","","","NA"
"-52.75","47.62","ST. JOHN'S INTL A","8403505","2018-10-06 17:30","2018","10","06","17:30","6.9","","2.7","","74","","","","9","","10","","24.1","","99.98","","","","","","Mainly Clear"
"-52.75","47.62","ST. JOHN'S INTL A","8403505","2018-10-06 18:30","2018","10","06","18:30","5.7","","2.9","","82","","","","8","","10","","24.1","","100.07","","","","","","NA"
"-52.75","47.62","ST. JOHN'S INTL A","8403505","2018-10-06 19:30","2018","10","06","19:30","5.5","","2.8","","83","","","","10","","8","","24.1","","100.17","","","","","","NA"
"-52.75","47.62","ST. JOHN'S INTL A","8403505","2018-10-06 20:30","2018","10","06","20:30","5.1","","2.3","","82","","","","10","","8","","24.1","","100.16","","","","","","Clear"
"-52.75","47.62","ST. JOHN'S INTL A","8403505","2018-10-06 21:30","2018","10","06","21:30","4.9","","2.4","","83","","","","11","","8","","24.1","","100.18","","","","","","NA"
"-52.75","47.62","ST. JOHN'S INTL A","8403505","2018-10-06 22:30","2018","10","06","22:30","4.6","","2.6","","87","","","","13","","8","","24.1","","100.13","","","","","","NA"
"-52.75","47.62","ST. JOHN'S INTL A","8403505","2018-10-06 23:30","2018","10","06","23:30","4.3","","2.9","","90","","","","15","","8","","24.1","","100.09","","","","","","Mainly Clear"
"-52.75","47.62","ST. JOHN'S INTL A","8403505","2018-10-07 00:30","2018","10","07","00:30","5.6","","3.5","","86","","","","18","","3","","24.1","","100.08","","","","","","NA"
"-52.75","47.62","ST. JOHN'S INTL A","8403505","2018-10-07 01:30","2018","10","07","01:30","4.4","","2.5","","88","","","","36","","1","","24.1","","100.07","","","","","","NA"
"-52.75","47.62","ST. JOHN'S INTL A","8403505","2018-10-07 02:30","2018","10","07","02:30","4.1","","2.7","","91","","","","21","","6","","24.1","","100.07","","","","","","Mostly Cloudy"
"-52.75","47.62","ST. JOHN'S INTL A","8403505","2018-10-07 03:30","2018","10","07","03:30","3.8","","2.8","","93","","","","18","","5","","24.1","","100.02","","","","","","NA"
"-52.75","47.62","ST. JOHN'S INTL A","8403505","2018-10-07 04:30","2018","10","07","04:30","4.0","","3.0","","93","","","","19","","7","","24.1","","100.03","","","","","","NA"
"-52.75","47.62","ST. JOHN'S INTL A","8403505","2018-10-07 05:30","2018","10","07","05:30","4.5","","3.6","","94","","","","21","","9","","24.1","","100.03","","","","","","Mostly Cloudy"
"-52.75","47.62","ST. JOHN'S INTL A","8403505","2018-10-07 06:30","2018","10","07","06:30","6.0","","4.4","","89","","","","20","","9","","24.1","","100.02","","","","","","NA"
"-52.75","47.62","ST. JOHN'S INTL A","8403505","2018-10-07 07:30","2018","10","07","07:30","6.7","","4.9","","89","","","","21","","9","","24.1","","100.08","","","","","","NA"
"-52.75","47.62","ST. JOHN'S INTL A","8403505","2018-10-07 08:30","2018","10","07","08:30","7.5","","5.2","","85","","","","20","","14","","24.1","","100.07","","","","","","Mostly Cloudy"
"-52.75","47.62","ST. JOHN'S INTL A","8403505","2018-10-07 09:30","2018","10","07","09:30","9.1","","5.5","","78","","","","21","","18","","24.1","","100.06","","","","","","NA"
"-52.75","47.62","ST. JOHN'S INTL A","8403505","2018-10-07 10:30","2018","10","07","10:30","11.0","","6.0","","71","","","","21","","18","","24.1","","99.95","","","","","","NA"
"-52.75","47.62","ST. JOHN'S INTL A","8403505","2018-10-07 11:30","2018","10","07","11:30","11.6","","5.5","","66","","","","25","","24","","24.1","","99.94","","","","","","Mostly Cloudy"
"-52.75","47.62","ST. JOHN'S INTL A","8403505","2018-10-07 12:30","2018","10","07","12:30","13.0","","6.2","","63","","","","26","","22","","24.1","","99.88","","","","","","NA"
"-52.75","47.62","ST. JOHN'S INTL A","8403505","2018-10-07 13:30","2018","10","07","13:30","11.0","","5.5","","69","","","","31","","22","","24.1","","99.88","","","","","","NA"
"-52.75","47.62","ST. JOHN'S INTL A","8403505","2018-10-07 14:30","2018","10","07","14:30","10.7","","1.0","","51","","","","30","","26","","24.1","","99.91","","","","","","Mostly Cloudy"
"-52.75","47.62","ST. JOHN'S INTL A","8403505","2018-10-07 15:30","2018","10","07","15:30","9.9","","-2.6","","42","","","","35","","22","","24.1","","99.97","","","","","","NA"
"-52.75","47.62","ST. JOHN'S INTL A","8403505","2018-10-07 16:30","2018","10","07","16:30","9.0","","0.0","","53","","","","34","","18","","24.1","","100.03","","","","","","NA"
"-52.75","47.62","ST. JOHN'S INTL A","8403505","2018-10-07 17:30","2018","10","07","17:30","7.4","","0.3","","61","","","","1","","15","","24.1","","100.10","","","","","","Mostly Cloudy"
"-52.75","47.62","ST. JOHN'S INTL A","8403505","2018-10-07 18:30","2018","10","07","18:30","7.0","","1.1","","66","","","","2","","10","","24.1","","100.16","","","","","","NA"
"-52.75","47.62","ST. JOHN'S INTL A","8403505","2018-10-07 19:30","2018","10","07","19:30","6.9","","1.7","","69","","","","36","","14","","24.1","","100.21","","","","","","NA"
"-52.75","47.62","ST. JOHN'S INTL A","8403505","2018-10-07 20:30","2018","10","07","20:30","6.7","","3.6","","80","","","","2","","13","","24.1","","100.27","","","","","","Cloudy"
"-52.75","47.62","ST. JOHN'S INTL A","8403505","2018-10-07 21:30","2018","10","07","21:30","5.9","","4.3","","89","","","","2","","6","","24.1","","100.31","","","","","","Rain Showers"
"-52.75","47.62","ST. JOHN'S INTL A","8403505","2018-10-07 22:30","2018","10","07","22:30","5.1","","3.8","","91","","","","32","","7","","24.1","","100.32","","","","","","NA"
"-52.75","47.62","ST. JOHN'S INTL A","8403505","2018-10-07 23:30","2018","10","07","23:30","4.8","","4.0","","94","","","","36","","14","","24.1","","100.36","","","","","","Rain Showers"
"-52.75","47.62","ST. JOHN'S INTL A","8403505","2018-10-08 00:30","2018","10","08","00:30","4.6","","3.3","","91","","","","35","","17","","24.1","","100.41","","","","","","Rain Showers"
"-52.75","47.62","ST. JOHN'S INTL A","8403505","2018-10-08 01:30","2018","10","08","01:30","4.5","","2.1","","85","","","","35","","16","","24.1","","100.45","","","","","","NA"
"-52.75","47.62","ST. JOHN'S INTL A","8403505","2018-10-08 02:30","2018","10","08","02:30","3.6","","0.5","","80","","","","34","","13","","24.1","","100.47","","","","","","Mostly Cloudy"
"-52.75","47.62","ST. JOHN'S INTL A","8403505","2018-10-08 03:30","2018","10","08","03:30","1.7","","-0.2","","87","","","","32","","11","","24.1","","100.51","","","","","","NA"
"-52.75","47.62","ST. JOHN'S INTL A","8403505","2018-10-08 04:30","2018","10","08","04:30","1.7","","-0.9","","83","","","","34","","13","","24.1","","100.57","","","","","","NA"
"-52.75","47.62","ST. JOHN'S INTL A","8403505","2018-10-08 05:30","2018","10","08","05:30","0.9","","-0.9","","88","","","","31","","10","","24.1","","100.61","","","","","","Mostly Cloudy"
"-52.75","47.62","ST. JOHN'S INTL A","8403505","2018-10-08 06:30","2018","10","08","06:30","1.7","","-0.4","","86","","","","32","","12","","24.1","","100.63","","","","","","NA"
"-52.75","47.62","ST. JOHN'S INTL A","8403505","2018-10-08 07:30","2018","10","08","07:30","4.1","","0.7","","78","","","","32","","14","","24.1","","100.69","","","","","","NA"
"-52.75","47.62","ST. JOHN'S INTL A","8403505","2018-10-08 08:30","2018","10","08","08:30","4.8","","0.1","","72","","","","33","","17","","24.1","","100.75","","","","","","Mostly Cloudy"
"-52.75","47.62","ST. JOHN'S INTL A","8403505","2018-10-08 09:30","2018","10","08","09:30","5.6","","-1.5","","61","","","","31","","26","","24.1","","100.82","","","","","","NA"
"-52.75","47.62","ST. JOHN'S INTL A","8403505","2018-10-08 10:30","2018","10","08","10:30","6.5","","-0.8","","59","","","","32","","23","","24.1","","100.80","","","","","","NA"
"-52.75","47.62","ST. JOHN'S INTL A","8403505","2018-10-08 11:30","2018","10","08","11:30","6.8","","-2.4","","52","","","","30","","24","","24.1","","100.77","","","","","","Mainly Clear"
"-52.75","47.62","ST. JOHN'S INTL A","8403505","2018-10-08 12:30","2018","10","08","12:30","7.4","","-2.4","","50","","","","32","","26","","24.1","","100.73","","","","","","NA"
"-52.75","47.62","ST. JOHN'S INTL A","8403505","2018-10-08 13:30","2018","10","08","13:30","7.7","","-3.2","","46","","","","31","","24","","24.1","","100.74","","","","","","NA"
"-52.75","47.62","ST. JOHN'S INTL A","8403505","2018-10-08 14:30","2018","10","08","14:30","8.4","","-2.9","","45","","","","32","","23","","24.1","","100.76","","","","","","Mainly Clear"
"-52.75","47.62","ST. JOHN'S INTL A","8403505","2018-10-08 15:30","2018","10","08","15:30","8.0","","-3.1","","45","","","","33","","22","","24.1","","100.75","","","","","","NA"
"-52.75","47.62","ST. JOHN'S INTL A","8403505","2018-10-08 16:30","2018","10","08","16:30","7.2","","-3.6","","46","","","","32","","18","","24.1","","100.75","","","","","","NA"
"-52.75","47.62","ST. JOHN'S INTL A","8403505","2018-10-08 17:30","2018","10","08","17:30","5.1","","-3.4","","54","","","","32","","16","","24.1","","100.81","","","","","","Mainly Clear"
"-52.75","47.62","ST. JOHN'S INTL A","8403505","2018-10-08 18:30","2018","10","08","18:30","3.0","","-3.0","","65","","","","32","","6","","24.1","","100.84","","","","","","NA"
"-52.75","47.62","ST. JOHN'S INTL A","8403505","2018-10-08 19:30","2018","10","08","19:30","3.3","","-3.5","","61","","","","29","","8","","24.1","","100.84","","","","","","NA"
"-52.75","47.62","ST. JOHN'S INTL A","8403505","2018-10-08 20:30","2018","10","08","20:30","2.9","","-3.4","","63","","","","27","","9","","24.1","","100.90","","","","","","Mainly Clear"
"-52.75","47.62","ST. JOHN'S INTL A","8403505","2018-10-08 21:30","2018","10","08","21:30","2.3","","-2.5","","71","","","","27","","10","","24.1","","100.86","","","","","","NA"
"-52.75","47.62","ST. JOHN'S INTL A","8403505","2018-10-08 22:30","2018","10","08","22:30","1.7","","-0.6","","85","","","","24","","14","","24.1","","100.84","","","","","","NA"
"-52.75","47.62","ST. JOHN'S INTL A","8403505","2018-10-08 23:30","2018","10","08","23:30","2.0","","-0.3","","84","","","","26","","12","","24.1","","100.82","","","","","","Mostly Cloudy"
"-52.75","47.62","ST. JOHN'S INTL A","8403505","2018-10-09 00:30","2018","10","09","00:30","1.2","","-1.3","","83","","","","29","","11","","24.1","","100.82","","","","","","NA"
"-52.75","47.62","ST. JOHN'S INTL A","8403505","2018-10-09 01:30","2018","10","09","01:30","2.3","","-0.2","","84","","","","31","","19","","24.1","","100.82","","","","","","NA"
"-52.75","47.62","ST. JOHN'S INTL A","8403505","2018-10-09 02:30","2018","10","09","02:30","1.9","","-0.3","","86","","","","29","","16","","24.1","","100.79","","","","","","Mainly Clear"
"-52.75","47.62","ST. JOHN'S INTL A","8403505","2018-10-09 03:30","2018","10","09","03:30","1.4","","-0.1","","90","","","","27","","14","","24.1","","100.78","","","","","","NA"
"-52.75","47.62","ST. JOHN'S INTL A","8403505","2018-10-09 04:30","2018","10","09","04:30","1.1","","-0.7","","88","","","","28","","11","","24.1","","100.79","","","","","","NA"
"-52.75","47.62","ST. JOHN'S INTL A","8403505","2018-10-09 05:30","2018","10","09","05:30","1.2","","-0.2","","90","","","","31","","14","","24.1","","100.84","","","","","","Cloudy"
"-52.75","47.62","ST. JOHN'S INTL A","8403505","2018-10-09 06:30","2018","10","09","06:30","1.7","","-0.3","","87","","","","30","","12","","24.1","","100.85","","","","","","NA"
"-52.75","47.62","ST. JOHN'S INTL A","8403505","2018-10-09 07:30","2018","10","09","07:30","3.4","","0.6","","82","","","","30","","14","","24.1","","100.83","","","","","","NA"
"-52.75","47.62","ST. JOHN'S INTL A","8403505","2018-10-09 08:30","2018","10","09","08:30","4.5","","0.5","","75","","","","30","","15","","24.1","","100.81","","","","","","Cloudy"
"-52.75","47.62","ST. JOHN'S INTL A","8403505","2018-10-09 09:30","2018","10","09","09:30","4.9","","0.5","","73","","","","28","","19","","24.1","","100.74","","","","","","NA"
"-52.75","47.62","ST. JOHN'S INTL A","8403505","2018-10-09 10:30","2018","10","09","10:30","5.9","","0.0","","66","","","","27","","27","","24.1","","100.69","","","","","","NA"
"-52.75","47.62","ST. JOHN'S INTL A","8403505","2018-10-09 11:30","2018","10","09","11:30","6.1","","0.0","","65","","","","29","","24","","24.1","","100.64","","","","","","Cloudy"
"-52.75","47.62","ST. JOHN'S INTL A","8403505","2018-10-09 12:30","2018","10","09","12:30","6.5","","-2.2","","53","","","","28","","17","","24.1","","100.49","","","","","","NA"
"-52.75","47.62","ST. JOHN'S INTL A","8403505","2018-10-09 13:30","2018","10","09","13:30","6.2","","-2.2","","55","","","","27","","14","","24.1","","100.42","","","","","","NA"
"-52.75","47.62","ST. JOHN'S INTL A","8403505","2018-10-09 14:30","2018","10","09","14:30","6.3","","-0.5","","61","","","","25","","14","","24.1","","100.36","","","","","","Cloudy"
"-52.75","47.62","ST. JOHN'S INTL A","8403505","2018-10-09 15:30","2018","10","09","15:30","6.3","","0.2","","65","","","","26","","21","","24.1","","100.28","","","","","","NA"
"-52.75","47.62","ST. JOHN'S INTL A","8403505","2018-10-09 16:30","2018","10","09","16:30","6.1","","1.5","","72","","","","27","","18","","24.1","","100.23","","","","","","NA"
"-52.75","47.62","ST. JOHN'S INTL A","8403505","2018-10-09 17:30","2018","10","09","17:30","5.5","","3.0","","84","","","","27","","7","","24.1","","100.19","","","","","","Rain"
"-52.75","47.62","ST. JOHN'S INTL A","8403505","2018-10-09 18:30","2018","10","09","18:30","4.8","","4.0","","94","","","","21","","9","","24.1","","100.07","","","","","","Rain"
"-52.75","47.62","ST. JOHN'S INTL A","8403505","2018-10-09 19:30","2018","10","09","19:30","4.6","","4.0","","96","","","","21","","10","","24.1","","99.99","","","","","","Rain"
"-52.75","47.62","ST. JOHN'S INTL A","8403505","2018-10-09 20:30","2018","10","09","20:30","4.7","","4.0","","95","","","","21","","11","","24.1","","99.84","","","","","","Cloudy"
"-52.75","47.62","ST. JOHN'S INTL A","8403505","2018-10-09 21:30","2018","10","09","21:30","4.7","","3.9","","94","","","","21","","10","","24.1","","99.78","","","","","","NA"
"-52.75","47.62","ST. JOHN'S INTL A","8403505","2018-10-09 22:30","2018","10","09","22:30","4.7","","4.2","","97","","","","18","","13","","24.1","","99.61","","","","","","Rain"
"-52.75","47.62","ST. JOHN'S INTL A","8403505","2018-10-09 23:30","2018","10","09","23:30","4.9","","4.7","","99","","","","17","","9","","16.1","","99.48","","","","","","Rain"
"-52.75","47.62","ST. JOHN'S INTL A","8403505","2018-10-10 00:30","2018","10","10","00:30","5.4","","5.4","","100","","","","15","","8","","4.8","","99.35","","","","","","Rain,Fog"
"-52.75","47.62","ST. JOHN'S INTL A","8403505","2018-10-10 01:30","2018","10","10","01:30","5.9","","5.9","","100","","","","16","","8","","4.0","","99.25","","","","","","Rain,Fog"
"-52.75","47.62","ST. JOHN'S INTL A","8403505","2018-10-10 02:30","2018","10","10","02:30","6.3","","6.3","","100","","","","14","","9","","1.2","","99.11","","","","","","Rain,Fog"
"-52.75","47.62","ST. JOHN'S INTL A","8403505","2018-10-10 03:30","2018","10","10","03:30","6.5","","6.5","","100","","","","12","","9","","3.2","","99.01","","","","","","Drizzle,Fog"
"-52.75","47.62","ST. JOHN'S INTL A","8403505","2018-10-10 04:30","2018","10","10","04:30","6.5","","6.5","","100","","","","7","","5","","2.0","","98.98","","","","","","Rain,Fog"
"-52.75","47.62","ST. JOHN'S INTL A","8403505","2018-10-10 05:30","2018","10","10","05:30","6.5","","6.5","","100","","","","6","","6","","3.2","","98.92","","","","","","Drizzle,Fog"
"-52.75","47.62","ST. JOHN'S INTL A","8403505","2018-10-10 06:30","2018","10","10","06:30","6.5","","6.5","","100","","","","5","","5","","1.2","","98.91","","","","","","Drizzle,Fog"
"-52.75","47.62","ST. JOHN'S INTL A","8403505","2018-10-10 07:30","2018","10","10","07:30","6.6","","6.6","","100","","","","8","","6","","1.2","","98.87","","","","","","Drizzle,Fog"
"-52.75","47.62","ST. JOHN'S INTL A","8403505","2018-10-10 08:30","2018","10","10","08:30","6.9","","6.9","","100","","","","36","","2","","12.9","","98.83","","","","","","Cloudy"
"-52.75","47.62","ST. JOHN'S INTL A","8403505","2018-10-10 09:30","2018","10","10","09:30","7.0","","6.9","","99","","","","36","","4","","4.8","","98.80","","","","","","Drizzle,Fog"
"-52.75","47.62","ST. JOHN'S INTL A","8403505","2018-10-10 10:30","2018","10","10","10:30","7.9","","7.7","","98","","","","29","","10","","4.8","","98.78","","","","","","Drizzle,Fog"
"-52.75","47.62","ST. JOHN'S INTL A","8403505","2018-10-10 11:30","2018","10","10","11:30","7.9","","7.5","","97","","","","32","","20","","24.1","","98.71","","","","","","Drizzle"
"-52.75","47.62","ST. JOHN'S INTL A","8403505","2018-10-10 12:30","2018","10","10","12:30","7.9","","7.5","","97","","","","32","","19","","4.8","","98.65","","","","","","Rain,Fog"
"-52.75","47.62","ST. JOHN'S INTL A","8403505","2018-10-10 13:30","2018","10","10","13:30","8.3","","6.7","","89","","","","33","","28","","24.1","","98.61","","","","","","NA"
"-52.75","47.62","ST. JOHN'S INTL A","8403505","2018-10-10 14:30","2018","10","10","14:30","7.5","","6.6","","94","","","","34","","30","","24.1","","98.63","","","","","","Drizzle"
"-52.75","47.62","ST. JOHN'S INTL A","8403505","2018-10-10 15:30","2018","10","10","15:30","6.4","","5.6","","94","","","","33","","24","","24.1","","98.71","","","","","","Rain"
"-52.75","47.62","ST. JOHN'S INTL A","8403505","2018-10-10 16:30","2018","10","10","16:30","5.2","","4.0","","92","","","","34","","32","","24.1","","98.82","","","","","","Rain"
"-52.75","47.62","ST. JOHN'S INTL A","8403505","2018-10-10 17:30","2018","10","10","17:30","4.5","","2.9","","89","","","","33","","20","","24.1","","98.89","","","","","","Mostly Cloudy"
"-52.75","47.62","ST. JOHN'S INTL A","8403505","2018-10-10 18:30","2018","10","10","18:30","4.6","","2.3","","85","","","","34","","35","","24.1","","98.97","","","","","","NA"
"-52.75","47.62","ST. JOHN'S INTL A","8403505","2018-10-10 19:30","2018","10","10","19:30","3.8","","1.5","","84","","","","34","","35","","24.1","","99.04","","","","","","Rain Showers"
"-52.75","47.62","ST. JOHN'S INTL A","8403505","2018-10-10 20:30","2018","10","10","20:30","3.2","","1.1","","86","","","","35","","26","","24.1","","99.08","","","","","","Cloudy"
"-52.75","47.62","ST. JOHN'S INTL A","8403505","2018-10-10 21:30","2018","10","10","21:30","2.6","","0.5","","85","","","","36","","25","","19.3","","99.18","","","","","","Rain Showers"
"-52.75","47.62","ST. JOHN'S INTL A","8403505","2018-10-10 22:30","2018","10","10","22:30","2.0","","-0.1","","86","","","","34","","17","","24.1","","99.16","","","","","","NA"
"-52.75","47.62","ST. JOHN'S INTL A","8403505","2018-10-10 23:30","2018","10","10","23:30","1.7","","-0.1","","88","","","","36","","19","","24.1","","99.19","","","","","","Cloudy"
"-52.75","47.62","ST. JOHN'S INTL A","8403505","2018-10-11 00:30","2018","10","11","00:30","1.5","","-1.1","","83","","","","35","","23","","24.1","","99.22","","","","","","NA"
"-52.75","47.62","ST. JOHN'S INTL A","8403505","2018-10-11 01:30","2018","10","11","01:30","0.6","","-1.8","","84","","","","34","","20","","24.1","","99.30","","","","","","NA"
"-52.75","47.62","ST. JOHN'S INTL A","8403505","2018-10-11 02:30","2018","10","11","02:30","0.8","","-3.0","","76","","","","33","","20","","24.1","","99.30","","","","","","Mostly Cloudy"
"-52.75","47.62","ST. JOHN'S INTL A","8403505","2018-10-11 03:30","2018","10","11","03:30","0.3","","-2.4","","82","","","","33","","28","","24.1","","99.35","","","","","","NA"
"-52.75","47.62","ST. JOHN'S INTL A","8403505","2018-10-11 04:30","2018","10","11","04:30","0.9","","-4.8","","66","","","","34","","29","","24.1","","99.38","","","","","","NA"
"-52.75","47.62","ST. JOHN'S INTL A","8403505","2018-10-11 05:30","2018","10","11","05:30","0.7","","-4.9","","66","","","","34","","27","","24.1","","99.42","","","","","","Mostly Cloudy"
"-52.75","47.62","ST. JOHN'S INTL A","8403505","2018-10-11 06:30","2018","10","11","06:30","0.9","","-3.5","","73","","","","33","","26","","24.1","","99.46","","","","","","NA"
"-52.75","47.62","ST. JOHN'S INTL A","8403505","2018-10-11 07:30","2018","10","11","07:30","1.4","","-3.6","","69","","","","32","","35","","24.1","","99.51","","","","","","NA"
"-52.75","47.62","ST. JOHN'S INTL A","8403505","2018-10-11 08:30","2018","10","11","08:30","2.0","","-3.8","","65","","","","33","","31","","24.1","","99.55","","","","","","Mostly Cloudy"
"-52.75","47.62","ST. JOHN'S INTL A","8403505","2018-10-11 09:30","2018","10","11","09:30","2.3","","-4.6","","60","","","","32","","35","","24.1","","99.56","","","","","","NA"
"-52.75","47.62","ST. JOHN'S INTL A","8403505","2018-10-11 10:30","2018","10","11","10:30","3.5","","-4.1","","57","","","","34","","36","","24.1","","99.57","","","","","","NA"
"-52.75","47.62","ST. JOHN'S INTL A","8403505","2018-10-11 11:30","2018","10","11","11:30","3.3","","-5.1","","54","","","","34","","37","","24.1","","99.57","","","","","","Mostly Cloudy"
"-52.75","47.62","ST. JOHN'S INTL A","8403505","2018-10-11 12:30","2018","10","11","12:30","3.5","","-6.3","","49","","","","33","","37","","24.1","","99.56","","","","","","NA"
"-52.75","47.62","ST. JOHN'S INTL A","8403505","2018-10-11 13:30","2018","10","11","13:30","3.5","","-6.5","","48","","","","35","","35","","24.1","","99.58","","","","","","NA"
"-52.75","47.62","ST. JOHN'S INTL A","8403505","2018-10-11 14:30","2018","10","11","14:30","3.9","","-5.4","","51","","","","34","","33","","24.1","","99.62","","","","","","Mostly Cloudy"
"-52.75","47.62","ST. JOHN'S INTL A","8403505","2018-10-11 15:30","2018","10","11","15:30","3.9","","-3.9","","57","","","","35","","34","","24.1","","99.69","","","","","","NA"
"-52.75","47.62","ST. JOHN'S INTL A","8403505","2018-10-11 16:30","2018","10","11","16:30","3.1","","-5.6","","53","","","","35","","31","","24.1","","99.74","","","","","","NA"
"-52.75","47.62","ST. JOHN'S INTL A","8403505","2018-10-11 17:30","2018","10","11","17:30","1.8","","-2.5","","73","","","","35","","19","","16.1","","99.80","","","","","","Ice Pellet Showers"
"-52.75","47.62","ST. JOHN'S INTL A","8403505","2018-10-11 18:30","2018","10","11","18:30","1.8","","-3.4","","69","","","","35","","21","","24.1","","99.84","","","","","","NA"
"-52.75","47.62","ST. JOHN'S INTL A","8403505","2018-10-11 19:30","2018","10","11","19:30","1.3","","-5.4","","61","","","","34","","18","","24.1","","99.87","","","","","","NA"
"-52.75","47.62","ST. JOHN'S INTL A","8403505","2018-10-11 20:30","2018","10","11","20:30","2.0","","-4.1","","64","","","","35","","22","","24.1","","99.87","","","","","","Mostly Cloudy"
"-52.75","47.62","ST. JOHN'S INTL A","8403505","2018-10-11 21:30","2018","10","11","21:30","1.9","","-3.7","","67","","","","33","","17","","24.1","","99.89","","","","","","NA"
"-52.75","47.62","ST. JOHN'S INTL A","8403505","2018-10-11 22:30","2018","10","11","22:30","1.8","","-3.3","","69","","","","31","","13","","24.1","","99.86","","","","","","NA"
"-52.75","47.62","ST. JOHN'S INTL A","8403505","2018-10-11 23:30","2018","10","11","23:30","2.1","","-3.2","","68","","","","33","","13","","24.1","","99.86","","","","","","Cloudy"
"-52.75","47.62","ST. JOHN'S INTL A","8403505","2018-10-12 00:30","2018","10","12","00:30","0.7","","-3.8","","72","","","","33","","10","","24.1","","99.82","","","","","","NA"
"-52.75","47.62","ST. JOHN'S INTL A","8403505","2018-10-12 01:30","2018","10","12","01:30","-0.4","","-3.8","","77","","","","28","","13","","24.1","","99.83","","","","-5","","NA"
"-52.75","47.62","ST. JOHN'S INTL A","8403505","2018-10-12 02:30","2018","10","12","02:30","0.0","","-2.9","","81","","","","29","","12","","24.1","","99.82","","","","-4","","Mainly Clear"
"-52.75","47.62","ST. JOHN'S INTL A","8403505","2018-10-12 03:30","2018","10","12","03:30","0.1","","-2.6","","82","","","","29","","13","","24.1","","99.81","","","","","","NA"
"-52.75","47.62","ST. JOHN'S INTL A","8403505","2018-10-12 04:30","2018","10","12","04:30","0.1","","-2.5","","82","","","","29","","12","","24.1","","99.79","","","","","","NA"
"-52.75","47.62","ST. JOHN'S INTL A","8403505","2018-10-12 05:30","2018","10","12","05:30","-0.5","","-2.4","","87","","","","29","","8","","24.1","","99.74","","","","-3","","Mostly Cloudy"
"-52.75","47.62","ST. JOHN'S INTL A","8403505","2018-10-12 06:30","2018","10","12","06:30","0.8","","-2.1","","81","","","","23","","4","","24.1","","99.71","","","","","","NA"
"-52.75","47.62","ST. JOHN'S INTL A","8403505","2018-10-12 07:30","2018","10","12","07:30","1.7","","-0.7","","84","","","","18","","4","","24.1","","99.73","","","","","","NA"
"-52.75","47.62","ST. JOHN'S INTL A","8403505","2018-10-12 08:30","2018","10","12","08:30","2.9","","-3.0","","65","","","","16","","8","","24.1","","99.65","","","","","","Cloudy"
"-52.75","47.62","ST. JOHN'S INTL A","8403505","2018-10-12 09:30","2018","10","12","09:30","3.7","","-2.5","","64","","","","18","","10","","24.1","","99.65","","","","","","NA"
"-52.75","47.62","ST. JOHN'S INTL A","8403505","2018-10-12 10:30","2018","10","12","10:30","4.6","","-1.7","","64","","","","18","","14","","24.1","","99.57","","","","","","NA"
"-52.75","47.62","ST. JOHN'S INTL A","8403505","2018-10-12 11:30","2018","10","12","11:30","5.3","","-0.6","","66","","","","16","","22","","24.1","","99.41","","","","","","Cloudy"
"-52.75","47.62","ST. JOHN'S INTL A","8403505","2018-10-12 12:30","2018","10","12","12:30","4.8","","-0.1","","71","","","","16","","21","","24.1","","99.32","","","","","","NA"
"-52.75","47.62","ST. JOHN'S INTL A","8403505","2018-10-12 13:30","2018","10","12","13:30","4.6","","0.7","","76","","","","16","","22","","24.1","","99.19","","","","","","Rain"
"-52.75","47.62","ST. JOHN'S INTL A","8403505","2018-10-12 14:30","2018","10","12","14:30","4.7","","2.7","","87","","","","15","","18","","24.1","","99.12","","","","","","Rain"
"-52.75","47.62","ST. JOHN'S INTL A","8403505","2018-10-12 15:30","2018","10","12","15:30","4.9","","3.4","","90","","","","15","","26","","24.1","","98.99","","","","","","Moderate Rain"
"-52.75","47.62","ST. JOHN'S INTL A","8403505","2018-10-12 16:30","2018","10","12","16:30","5.0","","4.2","","95","","","","15","","27","","19.3","","98.88","","","","","","Rain"
"-52.75","47.62","ST. JOHN'S INTL A","8403505","2018-10-12 17:30","2018","10","12","17:30","4.9","","4.2","","96","","","","14","","32","","19.3","","98.78","","","","","","Rain"
"-52.75","47.62","ST. JOHN'S INTL A","8403505","2018-10-12 18:30","2018","10","12","18:30","4.3","","2.9","","91","","","","14","","26","","16.1","","98.72","","","","","","Rain"
"-52.75","47.62","ST. JOHN'S INTL A","8403505","2018-10-12 19:30","2018","10","12","19:30","4.2","","3.7","","96","","","","13","","32","","16.1","","98.62","","","","","","Rain"
"-52.75","47.62","ST. JOHN'S INTL A","8403505","2018-10-12 20:30","2018","10","12","20:30","4.7","","4.2","","96","","","","13","","38","","16.1","","98.48","","","","","","Rain"
"-52.75","47.62","ST. JOHN'S INTL A","8403505","2018-10-12 21:30","2018","10","12","21:30","4.9","","4.4","","96","","","","12","","39","","16.1","","98.36","","","","","","Rain"
"-52.75","47.62","ST. JOHN'S INTL A","8403505","2018-10-12 22:30","2018","10","12","22:30","5.6","","5.3","","98","","","","13","","45","","24.1","","98.18","","","","","","Rain"
"-52.75","47.62","ST. JOHN'S INTL A","8403505","2018-10-12 23:30","2018","10","12","23:30","6.1","","5.9","","99","","","","13","","35","","12.9","","97.98","","","","","","Rain"
"-52.75","47.62","ST. JOHN'S INTL A","8403505","2018-10-13 00:30","2018","10","13","00:30","6.8","","6.7","","99","","","","12","","34","","2.4","","97.79","","","","","","Moderate Rain,Fog"
"-52.75","47.62","ST. JOHN'S INTL A","8403505","2018-10-13 01:30","2018","10","13","01:30","7.3","","7.2","","100","","","","13","","35","","9.7","","97.66","","","","","","Moderate Rain"
"-52.75","47.62","ST. JOHN'S INTL A","8403505","2018-10-13 02:30","2018","10","13","02:30","7.5","","7.4","","100","","","","10","","29","","6.4","","97.45","","","","","","Heavy Rain"
"-52.75","47.62","ST. JOHN'S INTL A","8403505","2018-10-13 03:30","2018","10","13","03:30","7.4","","7.3","","100","","","","8","","31","","4.8","","97.26","","","","","","Heavy Rain"
"-52.75","47.62","ST. JOHN'S INTL A","8403505","2018-10-13 04:30","2018","10","13","04:30","7.2","","7.2","","100","","","","7","","32","","6.4","","97.21","","","","","","Heavy Rain"
"-52.75","47.62","ST. JOHN'S INTL A","8403505","2018-10-13 05:30","2018","10","13","05:30","6.4","","6.4","","100","","","","5","","41","","12.9","","97.01","","","","","","Rain"
"-52.75","47.62","ST. JOHN'S INTL A","8403505","2018-10-13 06:30","2018","10","13","06:30","6.1","","6.1","","100","","","","5","","33","","12.9","","97.11","","","","","","Drizzle"
"-52.75","47.62","ST. JOHN'S INTL A","8403505","2018-10-13 07:30","2018","10","13","07:30","6.2","","6.0","","99","","","","3","","23","","19.3","","97.54","","","","","","NA"
"-52.75","47.62","ST. JOHN'S INTL A","8403505","2018-10-13 08:30","2018","10","13","08:30","6.4","","6.3","","99","","","","3","","25","","2.4","","97.81","","","","","","Drizzle,Fog"
"-52.75","47.62","ST. JOHN'S INTL A","8403505","2018-10-13 09:30","2018","10","13","09:30","6.6","","6.5","","100","","","","3","","24","","1.6","","98.01","","","","","","Drizzle,Fog"
"-52.75","47.62","ST. JOHN'S INTL A","8403505","2018-10-13 10:30","2018","10","13","10:30","6.6","","6.5","","100","","","","5","","28","","1.2","","98.16","","","","","","Drizzle,Fog"
"-52.75","47.62","ST. JOHN'S INTL A","8403505","2018-10-13 11:30","2018","10","13","11:30","6.9","","6.7","","99","","","","5","","26","","2.4","","98.28","","","","","","Drizzle,Fog"
"-52.75","47.62","ST. JOHN'S INTL A","8403505","2018-10-13 12:30","2018","10","13","12:30","6.9","","6.6","","98","","","","7","","13","","2.4","","98.41","","","","","","Drizzle,Fog"
"-52.75","47.62","ST. JOHN'S INTL A","8403505","2018-10-13 13:30","2018","10","13","13:30","7.1","","6.1","","93","","","","8","","8","","11.3","","98.57","","","","","","NA"
"-52.75","47.62","ST. JOHN'S INTL A","8403505","2018-10-13 14:30","2018","10","13","14:30","6.8","","6.3","","97","","","","10","","7","","24.1","","98.65","","","","","","Drizzle"
"-52.75","47.62","ST. JOHN'S INTL A","8403505","2018-10-13 15:30","2018","10","13","15:30","6.7","","6.4","","98","","","","12","","5","","11.3","","98.74","","","","","","Drizzle"
"-52.75","47.62","ST. JOHN'S INTL A","8403505","2018-10-13 16:30","2018","10","13","16:30","6.6","","6.5","","99","","","","16","","12","","4.0","","98.78","","","","","","Drizzle,Fog"
"-52.75","47.62","ST. JOHN'S INTL A","8403505","2018-10-13 17:30","2018","10","13","17:30","6.4","","6.3","","99","","","","14","","11","","2.4","","98.79","","","","","","Drizzle,Fog"
"-52.75","47.62","ST. JOHN'S INTL A","8403505","2018-10-13 18:30","2018","10","13","18:30","6.1","","5.9","","99","","","","17","","6","","24.1","","98.78","","","","","","NA"
"-52.75","47.62","ST. JOHN'S INTL A","8403505","2018-10-13 19:30","2018","10","13","19:30","6.3","","6.2","","99","","","","18","","12","","24.1","","98.77","","","","","","NA"
"-52.75","47.62","ST. JOHN'S INTL A","8403505","2018-10-13 20:30","2018","10","13","20:30","6.5","","6.2","","98","","","","19","","16","","24.1","","98.80","","","","","","Cloudy"
"-52.75","47.62","ST. JOHN'S INTL A","8403505","2018-10-13 21:30","2018","10","13","21:30","6.6","","6.5","","99","","","","18","","18","","16.1","","98.79","","","","","","Drizzle"
"-52.75","47.62","ST. JOHN'S INTL A","8403505","2018-10-13 22:30","2018","10","13","22:30","6.9","","6.8","","100","","","","19","","10","","19.3","","98.70","","","","","","Drizzle"
"-52.75","47.62","ST. JOHN'S INTL A","8403505","2018-10-13 23:30","2018","10","13","23:30","7.1","","7.0","","100","","","","19","","9","","24.1","","98.59","","","","","","Cloudy"
"-52.75","47.62","ST. JOHN'S INTL A","8403505","2018-10-14 00:30","2018","10","14","00:30","7.3","","7.1","","99","","","","20","","7","","19.3","","98.55","","","","","","NA"
"-52.75","47.62","ST. JOHN'S INTL A","8403505","2018-10-14 01:30","2018","10","14","01:30","7.2","","7.2","","100","","","","16","","8","","0.8","","98.46","","","","","","Drizzle,Fog"
"-52.75","47.62","ST. JOHN'S INTL A","8403505","2018-10-14 02:30","2018","10","14","02:30","7.4","","7.4","","100","","","","22","","8","","0.8","","98.36","","","","","","Drizzle,Fog"
"-52.75","47.62","ST. JOHN'S INTL A","8403505","2018-10-14 03:30","2018","10","14","03:30","8.2","","8.2","","100","","","","26","","21","","24.1","","98.35","","","","","","Drizzle"
"-52.75","47.62","ST. JOHN'S INTL A","8403505","2018-10-14 04:30","2018","10","14","04:30","8.1","","7.9","","98","","","","28","","16","","24.1","","98.34","","","","","","NA"
"-52.75","47.62","ST. JOHN'S INTL A","8403505","2018-10-14 05:30","2018","10","14","05:30","7.8","","7.3","","96","","","","25","","16","","24.1","","98.30","","","","","","Cloudy"
"-52.75","47.62","ST. JOHN'S INTL A","8403505","2018-10-14 06:30","2018","10","14","06:30","7.7","","6.8","","94","","","","27","","19","","24.1","","98.26","","","","","","NA"
"-52.75","47.62","ST. JOHN'S INTL A","8403505","2018-10-14 07:30","2018","10","14","07:30","7.1","","5.2","","88","","","","27","","30","","24.1","","98.26","","","","","","NA"
"-52.75","47.62","ST. JOHN'S INTL A","8403505","2018-10-14 08:30","2018","10","14","08:30","6.9","","5.0","","88","","","","28","","29","","24.1","","98.27","","","","","","Cloudy"
"-52.75","47.62","ST. JOHN'S INTL A","8403505","2018-10-14 09:30","2018","10","14","09:30","8.3","","5.3","","82","","","","29","","36","","24.1","","98.28","","","","","","NA"
"-52.75","47.62","ST. JOHN'S INTL A","8403505","2018-10-14 10:30","2018","10","14","10:30","7.7","","3.7","","76","","","","30","","26","","24.1","","98.34","","","","","","NA"
"-52.75","47.62","ST. JOHN'S INTL A","8403505","2018-10-14 11:30","2018","10","14","11:30","9.1","","4.3","","72","","","","30","","25","","24.1","","98.30","","","","","","Mainly Clear"
"-52.75","47.62","ST. JOHN'S INTL A","8403505","2018-10-14 12:30","2018","10","14","12:30","9.7","","2.8","","62","","","","30","","31","","24.1","","98.29","","","","","","NA"
"-52.75","47.62","ST. JOHN'S INTL A","8403505","2018-10-14 13:30","2018","10","14","13:30","8.5","","2.0","","63","","","","29","","35","","24.1","","98.28","","","","","","NA"
"-52.75","47.62","ST. JOHN'S INTL A","8403505","2018-10-14 14:30","2018","10","14","14:30","9.0","","1.5","","59","","","","28","","34","","24.1","","98.30","","","","","","Mostly Cloudy"
"-52.75","47.62","ST. JOHN'S INTL A","8403505","2018-10-14 15:30","2018","10","14","15:30","8.2","","1.5","","63","","","","28","","36","","24.1","","98.33","","","","","","NA"
"-52.75","47.62","ST. JOHN'S INTL A","8403505","2018-10-14 16:30","2018","10","14","16:30","7.2","","2.0","","69","","","","27","","32","","24.1","","98.40","","","","","","NA"
"-52.75","47.62","ST. JOHN'S INTL A","8403505","2018-10-14 17:30","2018","10","14","17:30","6.9","","1.5","","68","","","","27","","35","","24.1","","98.50","","","","","","Mainly Clear"
"-52.75","47.62","ST. JOHN'S INTL A","8403505","2018-10-14 18:30","2018","10","14","18:30","6.6","","2.9","","77","","","","28","","34","","24.1","","98.57","","","","","","Rain Showers"
"-52.75","47.62","ST. JOHN'S INTL A","8403505","2018-10-14 19:30","2018","10","14","19:30","6.0","","2.8","","80","","","","28","","34","","24.1","","98.65","","","","","","NA"
"-52.75","47.62","ST. JOHN'S INTL A","8403505","2018-10-14 20:30","2018","10","14","20:30","5.8","","2.4","","78","","","","29","","39","","24.1","","98.75","","","","","","Mostly Cloudy"
"-52.75","47.62","ST. JOHN'S INTL A","8403505","2018-10-14 21:30","2018","10","14","21:30","5.6","","1.5","","75","","","","30","","41","","24.1","","98.88","","","","","","NA"
"-52.75","47.62","ST. JOHN'S INTL A","8403505","2018-10-14 22:30","2018","10","14","22:30","5.3","","1.5","","76","","","","29","","40","","24.1","","98.95","","","","","","NA"
"-52.75","47.62","ST. JOHN'S INTL A","8403505","2018-10-14 23:30","2018","10","14","23:30","5.2","","1.2","","75","","","","30","","32","","24.1","","99.02","","","","","","Cloudy"
"-52.75","47.62","ST. JOHN'S INTL A","8403505","2018-10-15 00:30","2018","10","15","00:30","5.0","","0.9","","75","","","","30","","29","","24.1","","99.09","","","","","","NA"
"-52.75","47.62","ST. JOHN'S INTL A","8403505","2018-10-15 01:30","2018","10","15","01:30","4.9","","0.7","","74","","","","29","","40","","24.1","","99.17","","","","","","NA"
"-52.75","47.62","ST. JOHN'S INTL A","8403505","2018-10-15 02:30","2018","10","15","02:30","4.7","","0.7","","75","","","","29","","36","","24.1","","99.24","","","","","","Cloudy"
"-52.75","47.62","ST. JOHN'S INTL A","8403505","2018-10-15 03:30","2018","10","15","03:30","4.5","","0.7","","76","","","","29","","29","","24.1","","99.32","","","","","","NA"
"-52.75","47.62","ST. JOHN'S INTL A","8403505","2018-10-15 04:30","2018","10","15","04:30","4.6","","1.2","","79","","","","29","","23","","24.1","","99.42","","","","","","NA"
"-52.75","47.62","ST. JOHN'S INTL A","8403505","2018-10-15 05:30","2018","10","15","05:30","4.5","","1.3","","80","","","","29","","33","","24.1","","99.46","","","","","","Cloudy"
"-52.75","47.62","ST. JOHN'S INTL A","8403505","2018-10-15 06:30","2018","10","15","06:30","4.5","","1.6","","81","","","","29","","32","","24.1","","99.54","","","","","","NA"
"-52.75","47.62","ST. JOHN'S INTL A","8403505","2018-10-15 07:30","2018","10","15","07:30","4.8","","1.9","","81","","","","29","","23","","24.1","","99.63","","","","","","NA"
"-52.75","47.62","ST. JOHN'S INTL A","8403505","2018-10-15 08:30","2018","10","15","08:30","5.2","","1.8","","79","","","","30","","27","","24.1","","99.73","","","","","","Mostly Cloudy"
"-52.75","47.62","ST. JOHN'S INTL A","8403505","2018-10-15 09:30","2018","10","15","09:30","5.9","","1.7","","74","","","","30","","24","","24.1","","99.79","","","","","","NA"
"-52.75","47.62","ST. JOHN'S INTL A","8403505","2018-10-15 10:30","2018","10","15","10:30","7.2","","1.7","","68","","","","30","","29","","24.1","","99.81","","","","","","NA"
"-52.75","47.62","ST. JOHN'S INTL A","8403505","2018-10-15 11:30","2018","10","15","11:30","7.2","","1.3","","66","","","","30","","29","","24.1","","99.86","","","","","","Mostly Cloudy"
"-52.75","47.62","ST. JOHN'S INTL A","8403505","2018-10-15 12:30","2018","10","15","12:30","9.7","","1.8","","58","","","","28","","28","","24.1","","99.87","","","","","","NA"
"-52.75","47.62","ST. JOHN'S INTL A","8403505","2018-10-15 13:30","2018","10","15","13:30","8.4","","1.0","","59","","","","29","","34","","24.1","","99.89","","","","","","NA"
"-52.75","47.62","ST. JOHN'S INTL A","8403505","2018-10-15 14:30","2018","10","15","14:30","9.3","","1.2","","57","","","","28","","31","","24.1","","99.96","","","","","","Mainly Clear"
"-52.75","47.62","ST. JOHN'S INTL A","8403505","2018-10-15 15:30","2018","10","15","15:30","9.3","","0.8","","55","","","","28","","29","","24.1","","100.02","","","","","","NA"
"-52.75","47.62","ST. JOHN'S INTL A","8403505","2018-10-15 16:30","2018","10","15","16:30","7.6","","1.7","","66","","","","27","","21","","24.1","","100.09","","","","","","NA"
"-52.75","47.62","ST. JOHN'S INTL A","8403505","2018-10-15 17:30","2018","10","15","17:30","5.5","","1.5","","75","","","","27","","11","","24.1","","100.16","","","","","","Mainly Clear"
"-52.75","47.62","ST. JOHN'S INTL A","8403505","2018-10-15 18:30","2018","10","15","18:30","5.3","","1.6","","77","","","","25","","14","","24.1","","100.23","","","","","","NA"
"-52.75","47.62","ST. JOHN'S INTL A","8403505","2018-10-15 19:30","2018","10","15","19:30","4.8","","1.9","","81","","","","25","","19","","24.1","","100.27","","","","","","NA"
"-52.75","47.62","ST. JOHN'S INTL A","8403505","2018-10-15 20:30","2018","10","15","20:30","4.0","","2.0","","87","","","","25","","19","","24.1","","100.30","","","","","","Mainly Clear"
"-52.75","47.62","ST. JOHN'S INTL A","8403505","2018-10-15 21:30","2018","10","15","21:30","4.7","","2.6","","86","","","","26","","22","","24.1","","100.31","","","","","","NA"
"-52.75","47.62","ST. JOHN'S INTL A","8403505","2018-10-15 22:30","2018","10","15","22:30","4.3","","2.7","","89","","","","25","","14","","24.1","","100.36","","","","","","NA"
"-52.75","47.62","ST. JOHN'S INTL A","8403505","2018-10-15 23:30","2018","10","15","23:30","3.1","","1.9","","91","","","","22","","15","","24.1","","100.37","","","","","","Mainly Clear"
"-52.75","47.62","ST. JOHN'S INTL A","8403505","2018-10-16 00:30","2018","10","16","00:30","3.6","","1.9","","88","","","","23","","15","","24.1","","100.32","","","","","","NA"
"-52.75","47.62","ST. JOHN'S INTL A","8403505","2018-10-16 01:30","2018","10","16","01:30","3.2","","1.2","","87","","","","22","","11","","24.1","","100.30","","","","","","NA"
"-52.75","47.62","ST. JOHN'S INTL A","8403505","2018-10-16 02:30","2018","10","16","02:30","3.2","","1.2","","87","","","","23","","14","","24.1","","100.24","","","","","","Mainly Clear"
"-52.75","47.62","ST. JOHN'S INTL A","8403505","2018-10-16 03:30","2018","10","16","03:30","2.7","","1.3","","90","","","","23","","13","","24.1","","100.18","","","","","","NA"
"-52.75","47.62","ST. JOHN'S INTL A","8403505","2018-10-16 04:30","2018","10","16","04:30","4.0","","2.2","","88","","","","20","","21","","24.1","","100.03","","","","","","NA"
"-52.75","47.62","ST. JOHN'S INTL A","8403505","2018-10-16 05:30","2018","10","16","05:30","5.5","","2.8","","83","","","","21","","25","","24.1","","99.97","","","","","","Mostly Cloudy"
"-52.75","47.62","ST. JOHN'S INTL A","8403505","2018-10-16 06:30","2018","10","16","06:30","6.2","","4.2","","87","","","","19","","27","","24.1","","99.78","","","","","","NA"
"-52.75","47.62","ST. JOHN'S INTL A","8403505","2018-10-16 07:30","2018","10","16","07:30","7.5","","5.2","","85","","","","18","","31","","24.1","","99.63","","","","","","NA"
"-52.75","47.62","ST. JOHN'S INTL A","8403505","2018-10-16 08:30","2018","10","16","08:30","8.5","","6.5","","87","","","","18","","43","","24.1","","99.46","","","","","","Cloudy"
"-52.75","47.62","ST. JOHN'S INTL A","8403505","2018-10-16 09:30","2018","10","16","09:30","8.6","","7.8","","95","","","","17","","39","","24.1","","99.16","","","","","","Rain"
"-52.75","47.62","ST. JOHN'S INTL A","8403505","2018-10-16 10:30","2018","10","16","10:30","9.0","","8.3","","95","","","","18","","52","","19.3","","98.88","","","","","","Rain"
"-52.75","47.62","ST. JOHN'S INTL A","8403505","2018-10-16 11:30","2018","10","16","11:30","9.9","","9.6","","98","","","","18","","52","","9.7","","98.52","","","","","","Rain,Fog"
"-52.75","47.62","ST. JOHN'S INTL A","8403505","2018-10-16 12:30","2018","10","16","12:30","11.2","","10.8","","97","","","","18","","61","","6.4","","98.12","","","","","","Moderate Rain,Fog"
"-52.75","47.62","ST. JOHN'S INTL A","8403505","2018-10-16 13:30","2018","10","16","13:30","11.9","","11.6","","98","","","","19","","58","","2.4","","97.81","","","","","","Moderate Rain,Fog"
"-52.75","47.62","ST. JOHN'S INTL A","8403505","2018-10-16 14:30","2018","10","16","14:30","13.5","","13.0","","97","","","","20","","51","","19.3","","97.49","","","","","","Rain"
"-52.75","47.62","ST. JOHN'S INTL A","8403505","2018-10-16 15:30","2018","10","16","15:30","14.2","","12.9","","92","","","","24","","57","","12.9","","97.36","","","","","","Rain"
"-52.75","47.62","ST. JOHN'S INTL A","8403505","2018-10-16 16:30","2018","10","16","16:30","8.9","","6.5","","85","","","","26","","49","","24.1","","97.57","","","","","","NA"
"-52.75","47.62","ST. JOHN'S INTL A","8403505","2018-10-16 17:30","2018","10","16","17:30","8.3","","5.4","","81","","","","25","","51","","24.1","","97.74","","","","","","Mainly Clear"
"-52.75","47.62","ST. JOHN'S INTL A","8403505","2018-10-16 18:30","2018","10","16","18:30","7.6","","2.5","","70","","","","25","","58","","24.1","","97.82","","","","","","NA"
"-52.75","47.62","ST. JOHN'S INTL A","8403505","2018-10-16 19:30","2018","10","16","19:30","7.7","","3.2","","73","","","","25","","52","","24.1","","97.85","","","","","","NA"
"-52.75","47.62","ST. JOHN'S INTL A","8403505","2018-10-16 20:30","2018","10","16","20:30","8.6","","3.3","","70","","","","25","","66","","24.1","","97.92","","","","","","Cloudy"
"-52.75","47.62","ST. JOHN'S INTL A","8403505","2018-10-16 21:30","2018","10","16","21:30","8.4","","3.6","","72","","","","26","","61","","24.1","","97.92","","","","","","NA"
"-52.75","47.62","ST. JOHN'S INTL A","8403505","2018-10-16 22:30","2018","10","16","22:30","8.8","","3.3","","68","","","","26","","62","","24.1","","97.98","","","","","","NA"
"-52.75","47.62","ST. JOHN'S INTL A","8403505","2018-10-16 23:30","2018","10","16","23:30","8.9","","4.0","","71","","","","27","","61","","24.1","","98.05","","","","","","Cloudy"
"-52.75","47.62","ST. JOHN'S INTL A","8403505","2018-10-17 00:30","2018","10","17","00:30","8.7","","4.4","","74","","","","26","","62","","24.1","","98.08","","","","","","NA"
"-52.75","47.62","ST. JOHN'S INTL A","8403505","2018-10-17 01:30","2018","10","17","01:30","8.1","","4.1","","76","","","","27","","57","","24.1","","98.11","","","","","","NA"
"-52.75","47.62","ST. JOHN'S INTL A","8403505","2018-10-17 02:30","2018","10","17","02:30","8.0","","3.8","","75","","","","27","","60","","24.1","","98.14","","","","","","Mostly Cloudy"
"-52.75","47.62","ST. JOHN'S INTL A","8403505","2018-10-17 03:30","2018","10","17","03:30","7.5","","3.7","","77","","","","27","","54","","24.1","","98.24","","","","","","NA"
"-52.75","47.62","ST. JOHN'S INTL A","8403505","2018-10-17 04:30","2018","10","17","04:30","7.0","","2.9","","75","","","","27","","44","","24.1","","98.35","","","","","","NA"
"-52.75","47.62","ST. JOHN'S INTL A","8403505","2018-10-17 05:30","2018","10","17","05:30","6.9","","2.7","","75","","","","28","","44","","24.1","","98.45","","","","","","Mainly Clear"
"-52.75","47.62","ST. JOHN'S INTL A","8403505","2018-10-17 06:30","2018","10","17","06:30","6.8","","2.8","","76","","","","28","","43","","24.1","","98.56","","","","","","NA"
"-52.75","47.62","ST. JOHN'S INTL A","8403505","2018-10-17 07:30","2018","10","17","07:30","6.9","","2.7","","74","","","","27","","39","","24.1","","98.65","","","","","","NA"
"-52.75","47.62","ST. JOHN'S INTL A","8403505","2018-10-17 08:30","2018","10","17","08:30","7.8","","2.7","","70","","","","27","","38","","24.1","","98.77","","","","","","Mainly Clear"
"-52.75","47.62","ST. JOHN'S INTL A","8403505","2018-10-17 09:30","2018","10","17","09:30","8.8","","2.7","","65","","","","26","","45","","24.1","","98.83","","","","","","NA"
"-52.75","47.62","ST. JOHN'S INTL A","8403505","2018-10-17 10:30","2018","10","17","10:30","9.0","","1.4","","59","","","","28","","47","","24.1","","98.88","","","","","","NA"
"-52.75","47.62","ST. JOHN'S INTL A","8403505","2018-10-17 11:30","2018","10","17","11:30","8.2","","1.8","","64","","","","28","","31","","24.1","","98.93","","","","","","Mostly Cloudy"
"-52.75","47.62","ST. JOHN'S INTL A","8403505","2018-10-17 12:30","2018","10","17","12:30","9.0","","1.9","","61","","","","28","","28","","24.1","","98.94","","","","","","NA"
"-52.75","47.62","ST. JOHN'S INTL A","8403505","2018-10-17 13:30","2018","10","17","13:30","8.4","","1.8","","63","","","","26","","32","","24.1","","98.97","","","","","","NA"
"-52.75","47.62","ST. JOHN'S INTL A","8403505","2018-10-17 14:30","2018","10","17","14:30","8.2","","1.2","","61","","","","26","","36","","24.1","","98.98","","","","","","Mainly Clear"
"-52.75","47.62","ST. JOHN'S INTL A","8403505","2018-10-17 15:30","2018","10","17","15:30","8.2","","0.7","","59","","","","26","","29","","24.1","","99.04","","","","","","NA"
"-52.75","47.62","ST. JOHN'S INTL A","8403505","2018-10-17 16:30","2018","10","17","16:30","6.7","","0.9","","67","","","","25","","29","","24.1","","99.12","","","","","","NA"
"-52.75","47.62","ST. JOHN'S INTL A","8403505","2018-10-17 17:30","2018","10","17","17:30","6.1","","0.7","","68","","","","26","","19","","24.1","","99.19","","","","","","Mostly Cloudy"
"-52.75","47.62","ST. JOHN'S INTL A","8403505","2018-10-17 18:30","2018","10","17","18:30","5.4","","1.6","","76","","","","25","","22","","24.1","","99.23","","","","","","NA"
"-52.75","47.62","ST. JOHN'S INTL A","8403505","2018-10-17 19:30","2018","10","17","19:30","5.7","","2.0","","77","","","","25","","22","","24.1","","99.21","","","","","","NA"
"-52.75","47.62","ST. JOHN'S INTL A","8403505","2018-10-17 20:30","2018","10","17","20:30","5.5","","2.2","","79","","","","25","","19","","24.1","","99.23","","","","","","Cloudy"
"-52.75","47.62","ST. JOHN'S INTL A","8403505","2018-10-17 21:30","2018","10","17","21:30","5.4","","2.5","","82","","","","24","","16","","24.1","","99.26","","","","","","NA"
"-52.75","47.62","ST. JOHN'S INTL A","8403505","2018-10-17 22:30","2018","10","17","22:30","4.8","","1.8","","81","","","","22","","15","","24.1","","99.18","","","","","","NA"
"-52.75","47.62","ST. JOHN'S INTL A","8403505","2018-10-17 23:30","2018","10","17","23:30","4.4","","1.8","","84","","","","23","","6","","24.1","","99.08","","","","","","Cloudy"
"-52.75","47.62","ST. JOHN'S INTL A","8403505","2018-10-18 00:30","2018","10","18","00:30","3.5","","1.9","","89","","","","19","","5","","24.1","","99.01","","","","","","NA"
"-52.75","47.62","ST. JOHN'S INTL A","8403505","2018-10-18 01:30","2018","10","18","01:30","4.2","","2.4","","88","","","","20","","8","","24.1","","98.89","","","","","","NA"
"-52.75","47.62","ST. JOHN'S INTL A","8403505","2018-10-18 02:30","2018","10","18","02:30","3.2","","2.4","","94","","","","18","","12","","24.1","","98.77","","","","","","Mostly Cloudy"
"-52.75","47.62","ST. JOHN'S INTL A","8403505","2018-10-18 03:30","2018","10","18","03:30","3.8","","2.8","","93","","","","18","","7","","24.1","","98.68","","","","","","NA"
"-52.75","47.62","ST. JOHN'S INTL A","8403505","2018-10-18 04:30","2018","10","18","04:30","4.0","","3.4","","96","","","","36","","1","","24.1","","98.59","","","","","","NA"
"-52.75","47.62","ST. JOHN'S INTL A","8403505","2018-10-18 05:30","2018","10","18","05:30","5.5","","4.7","","95","","","","14","","16","","24.1","","98.44","","","","","","Cloudy"
"-52.75","47.62","ST. JOHN'S INTL A","8403505","2018-10-18 06:30","2018","10","18","06:30","6.5","","5.5","","94","","","","14","","27","","24.1","","98.22","","","","","","NA"
"-52.75","47.62","ST. JOHN'S INTL A","8403505","2018-10-18 07:30","2018","10","18","07:30","7.1","","5.8","","91","","","","15","","28","","24.1","","98.12","","","","","","NA"
"-52.75","47.62","ST. JOHN'S INTL A","8403505","2018-10-18 08:30","2018","10","18","08:30","7.0","","6.3","","95","","","","14","","17","","24.1","","98.02","","","","","","Rain"
"-52.75","47.62","ST. JOHN'S INTL A","8403505","2018-10-18 09:30","2018","10","18","09:30","7.4","","7.3","","99","","","","12","","22","","4.8","","97.79","","","","","","Rain,Fog"
"-52.75","47.62","ST. JOHN'S INTL A","8403505","2018-10-18 10:30","2018","10","18","10:30","7.7","","7.7","","100","","","","12","","28","","0.4","","97.56","","","","","","Rain,Fog"
"-52.75","47.62","ST. JOHN'S INTL A","8403505","2018-10-18 11:30","2018","10","18","11:30","8.6","","8.6","","100","","","","19","","21","","2.4","","97.40","","","","","","Rain,Fog"
"-52.75","47.62","ST. JOHN'S INTL A","8403505","2018-10-18 12:30","2018","10","18","12:30","9.2","","8.2","","93","","","","27","","31","","24.1","","97.35","","","","","","NA"
"-52.75","47.62","ST. JOHN'S INTL A","8403505","2018-10-18 13:30","2018","10","18","13:30","9.7","","7.1","","84","","","","27","","29","","24.1","","97.36","","","","","","NA"
"-52.75","47.62","ST. JOHN'S INTL A","8403505","2018-10-18 14:30","2018","10","18","14:30","10.4","","5.5","","71","","","","26","","39","","24.1","","97.34","","","","","","Mainly Clear"
"-52.75","47.62","ST. JOHN'S INTL A","8403505","2018-10-18 15:30","2018","10","18","15:30","9.0","","5.1","","77","","","","26","","34","","24.1","","97.32","","","","","","NA"
"-52.75","47.62","ST. JOHN'S INTL A","8403505","2018-10-18 16:30","2018","10","18","16:30","7.9","","5.1","","82","","","","25","","32","","24.1","","97.36","","","","","","NA"
"-52.75","47.62","ST. JOHN'S INTL A","8403505","2018-10-18 17:30","2018","10","18","17:30","6.9","","4.5","","85","","","","25","","28","","24.1","","97.38","","","","","","Mainly Clear"
"-52.75","47.62","ST. JOHN'S INTL A","8403505","2018-10-18 18:30","2018","10","18","18:30","6.3","","4.0","","85","","","","24","","27","","24.1","","97.42","","","","","","NA"
"-52.75","47.62","ST. JOHN'S INTL A","8403505","2018-10-18 19:30","2018","10","18","19:30","5.0","","1.9","","80","","","","24","","30","","24.1","","97.40","","","","","","NA"
"-52.75","47.62","ST. JOHN'S INTL A","8403505","2018-10-18 20:30","2018","10","18","20:30","3.8","","1.1","","82","","","","24","","31","","24.1","","97.35","","","","","","Clear"
"-52.75","47.62","ST. JOHN'S INTL A","8403505","2018-10-18 21:30","2018","10","18","21:30","3.6","","1.8","","88","","","","23","","27","","24.1","","97.34","","","","","","NA"
"-52.75","47.62","ST. JOHN'S INTL A","8403505","2018-10-18 22:30","2018","10","18","22:30","3.8","","2.1","","89","","","","24","","36","","24.1","","97.28","","","","","","NA"
"-52.75","47.62","ST. JOHN'S INTL A","8403505","2018-10-18 23:30","2018","10","18","23:30","3.8","","2.0","","89","","","","24","","37","","24.1","","97.20","","","","","","Mostly Cloudy"
"-52.75","47.62","ST. JOHN'S INTL A","8403505","2018-10-19 00:30","2018","10","19","00:30","4.2","","2.8","","91","","","","24","","35","","24.1","","97.15","","","","","","Rain Showers"
"-52.75","47.62","ST. JOHN'S INTL A","8403505","2018-10-19 01:30","2018","10","19","01:30","4.0","","2.9","","93","","","","25","","40","","24.1","","97.14","","","","","","Rain Showers"
"-52.75","47.62","ST. JOHN'S INTL A","8403505","2018-10-19 02:30","2018","10","19","02:30","3.1","","2.2","","94","","","","28","","41","","24.1","","97.18","","","","","","Rain Showers"
"-52.75","47.62","ST. JOHN'S INTL A","8403505","2018-10-19 03:30","2018","10","19","03:30","2.7","","1.8","","94","","","","28","","48","","24.1","","97.27","","","","","","Rain Showers"
"-52.75","47.62","ST. JOHN'S INTL A","8403505","2018-10-19 04:30","2018","10","19","04:30","2.6","","1.9","","95","","","","29","","47","","24.1","","97.39","","","","","","Rain Showers"
"-52.75","47.62","ST. JOHN'S INTL A","8403505","2018-10-19 05:30","2018","10","19","05:30","2.4","","1.4","","93","","","","29","","52","","24.1","","97.54","","","","","","Rain Showers"
"-52.75","47.62","ST. JOHN'S INTL A","8403505","2018-10-19 06:30","2018","10","19","06:30","2.4","","1.5","","94","","","","30","","37","","24.1","","97.72","","","","","","Rain Showers"
"-52.75","47.62","ST. JOHN'S INTL A","8403505","2018-10-19 07:30","2018","10","19","07:30","2.8","","2.0","","95","","","","30","","31","","24.1","","97.95","","","","","","Rain Showers"
"-52.75","47.62","ST. JOHN'S INTL A","8403505","2018-10-19 08:30","2018","10","19","08:30","3.4","","2.3","","92","","","","30","","32","","24.1","","98.14","","","","","","Rain Showers"
"-52.75","47.62","ST. JOHN'S INTL A","8403505","2018-10-19 09:30","2018","10","19","09:30","3.9","","2.8","","93","","","","31","","30","","24.1","","98.30","","","","","","Rain Showers"
"-52.75","47.62","ST. JOHN'S INTL A","8403505","2018-10-19 10:30","2018","10","19","10:30","4.7","","3.2","","90","","","","31","","30","","24.1","","98.45","","","","","","Rain Showers"
"-52.75","47.62","ST. JOHN'S INTL A","8403505","2018-10-19 11:30","2018","10","19","11:30","3.4","","2.8","","96","","","","35","","16","","19.3","","98.60","","","","","","Cloudy"
"-52.75","47.62","ST. JOHN'S INTL A","8403505","2018-10-19 12:30","2018","10","19","12:30","4.2","","2.9","","91","","","","32","","19","","24.1","","98.71","","","","","","Rain Showers"
"-52.75","47.62","ST. JOHN'S INTL A","8403505","2018-10-19 13:30","2018","10","19","13:30","4.1","","2.8","","91","","","","35","","18","","24.1","","98.82","","","","","","Rain Showers"
"-52.75","47.62","ST. JOHN'S INTL A","8403505","2018-10-19 14:30","2018","10","19","14:30","4.1","","2.1","","87","","","","34","","18","","24.1","","98.94","","","","","","Rain Showers"
"-52.75","47.62","ST. JOHN'S INTL A","8403505","2018-10-19 15:30","2018","10","19","15:30","4.0","","1.7","","85","","","","35","","9","","24.1","","99.08","","","","","","NA"
"-52.75","47.62","ST. JOHN'S INTL A","8403505","2018-10-19 16:30","2018","10","19","16:30","3.7","","2.1","","89","","","","1","","9","","24.1","","99.21","","","","","","NA"
"-52.75","47.62","ST. JOHN'S INTL A","8403505","2018-10-19 17:30","2018","10","19","17:30","3.4","","1.6","","88","","","","9","","3","","24.1","","99.37","","","","","","Cloudy"
"-52.75","47.62","ST. JOHN'S INTL A","8403505","2018-10-19 18:30","2018","10","19","18:30","3.2","","1.9","","91","","","","","","0","","24.1","","99.51","","","","","","NA"
"-52.75","47.62","ST. JOHN'S INTL A","8403505","2018-10-19 19:30","2018","10","19","19:30","2.5","","1.9","","96","","","","22","","7","","24.1","","99.61","","","","","","NA"
"-52.75","47.62","ST. JOHN'S INTL A","8403505","2018-10-19 20:30","2018","10","19","20:30","2.4","","2.0","","97","","","","29","","3","","24.1","","99.70","","","","","","Rain Showers"
"-52.75","47.62","ST. JOHN'S INTL A","8403505","2018-10-19 21:30","2018","10","19","21:30","2.9","","2.4","","97","","","","16","","7","","24.1","","99.80","","","","","","NA"
"-52.75","47.62","ST. JOHN'S INTL A","8403505","2018-10-19 22:30","2018","10","19","22:30","3.0","","2.5","","96","","","","18","","9","","24.1","","99.88","","","","","","NA"
"-52.75","47.62","ST. JOHN'S INTL A","8403505","2018-10-19 23:30","2018","10","19","23:30","2.9","","2.4","","97","","","","19","","12","","24.1","","99.94","","","","","","Mainly Clear"
"-52.75","47.62","ST. JOHN'S INTL A","8403505","2018-10-20 00:30","2018","10","20","00:30","2.4","","1.9","","97","","","","22","","14","","24.1","","99.97","","","","","","NA"
"-52.75","47.62","ST. JOHN'S INTL A","8403505","2018-10-20 01:30","2018","10","20","01:30","3.3","","2.6","","95","","","","25","","22","","24.1","","100.04","","","","","","NA"
"-52.75","47.62","ST. JOHN'S INTL A","8403505","2018-10-20 02:30","2018","10","20","02:30","2.8","","1.7","","93","","","","25","","22","","24.1","","100.12","","","","","","Mainly Clear"
"-52.75","47.62","ST. JOHN'S INTL A","8403505","2018-10-20 03:30","2018","10","20","03:30","2.5","","1.6","","93","","","","26","","22","","24.1","","100.20","","","","","","NA"
"-52.75","47.62","ST. JOHN'S INTL A","8403505","2018-10-20 04:30","2018","10","20","04:30","1.7","","0.8","","94","","","","25","","21","","24.1","","100.28","","","","","","NA"
"-52.75","47.62","ST. JOHN'S INTL A","8403505","2018-10-20 05:30","2018","10","20","05:30","1.3","","0.3","","92","","","","22","","14","","24.1","","100.37","","","","","","Mostly Cloudy"
"-52.75","47.62","ST. JOHN'S INTL A","8403505","2018-10-20 06:30","2018","10","20","06:30","2.0","","0.0","","87","","","","22","","15","","24.1","","100.43","","","","","","NA"
"-52.75","47.62","ST. JOHN'S INTL A","8403505","2018-10-20 07:30","2018","10","20","07:30","2.7","","0.2","","84","","","","23","","17","","24.1","","100.51","","","","","","NA"
"-52.75","47.62","ST. JOHN'S INTL A","8403505","2018-10-20 08:30","2018","10","20","08:30","4.6","","0.9","","77","","","","22","","13","","24.1","","100.58","","","","","","Cloudy"
"-52.75","47.62","ST. JOHN'S INTL A","8403505","2018-10-20 09:30","2018","10","20","09:30","5.3","","1.4","","76","","","","21","","20","","24.1","","100.59","","","","","","NA"
"-52.75","47.62","ST. JOHN'S INTL A","8403505","2018-10-20 10:30","2018","10","20","10:30","5.8","","0.6","","69","","","","22","","29","","24.1","","100.63","","","","","","NA"
"-52.75","47.62","ST. JOHN'S INTL A","8403505","2018-10-20 11:30","2018","10","20","11:30","6.6","","0.8","","66","","","","22","","28","","24.1","","100.65","","","","","","Cloudy"
"-52.75","47.62","ST. JOHN'S INTL A","8403505","2018-10-20 12:30","2018","10","20","12:30","8.4","","1.0","","59","","","","22","","34","","24.1","","100.56","","","","","","NA"
"-52.75","47.62","ST. JOHN'S INTL A","8403505","2018-10-20 13:30","2018","10","20","13:30","9.0","","1.7","","60","","","","21","","41","","24.1","","100.53","","","","","","NA"
"-52.75","47.62","ST. JOHN'S INTL A","8403505","2018-10-20 14:30","2018","10","20","14:30","8.9","","2.4","","64","","","","22","","29","","24.1","","100.50","","","","","","Mostly Cloudy"
"-52.75","47.62","ST. JOHN'S INTL A","8403505","2018-10-20 15:30","2018","10","20","15:30","8.1","","2.9","","70","","","","21","","32","","24.1","","100.50","","","","","","NA"
"-52.75","47.62","ST. JOHN'S INTL A","8403505","2018-10-20 16:30","2018","10","20","16:30","7.8","","3.7","","75","","","","19","","27","","24.1","","100.43","","","","","","NA"
"-52.75","47.62","ST. JOHN'S INTL A","8403505","2018-10-20 17:30","2018","10","20","17:30","7.4","","4.9","","84","","","","19","","28","","24.1","","100.43","","","","","","Mostly Cloudy"
"-52.75","47.62","ST. JOHN'S INTL A","8403505","2018-10-20 18:30","2018","10","20","18:30","8.0","","5.7","","85","","","","19","","39","","24.1","","100.42","","","","","","NA"
"-52.75","47.62","ST. JOHN'S INTL A","8403505","2018-10-20 19:30","2018","10","20","19:30","8.6","","6.5","","87","","","","19","","40","","24.1","","100.34","","","","","","NA"
"-52.75","47.62","ST. JOHN'S INTL A","8403505","2018-10-20 20:30","2018","10","20","20:30","9.3","","7.7","","90","","","","19","","55","","24.1","","100.24","","","","","","Cloudy"
"-52.75","47.62","ST. JOHN'S INTL A","8403505","2018-10-20 21:30","2018","10","20","21:30","9.6","","8.3","","91","","","","19","","55","","24.1","","100.22","","","","","","NA"
"-52.75","47.62","ST. JOHN'S INTL A","8403505","2018-10-20 22:30","2018","10","20","22:30","9.6","","8.4","","93","","","","19","","40","","24.1","","100.15","","","","","","NA"
"-52.75","47.62","ST. JOHN'S INTL A","8403505","2018-10-20 23:30","2018","10","20","23:30","10.0","","9.1","","94","","","","19","","52","","24.1","","100.06","","","","","","Cloudy"
"-52.75","47.62","ST. JOHN'S INTL A","8403505","2018-10-21 00:30","2018","10","21","00:30","10.5","","9.0","","90","","","","20","","49","","24.1","","99.98","","","","","","NA"
"-52.75","47.62","ST. JOHN'S INTL A","8403505","2018-10-21 01:30","2018","10","21","01:30","10.7","","9.2","","90","","","","19","","57","","24.1","","99.90","","","","","","NA"
"-52.75","47.62","ST. JOHN'S INTL A","8403505","2018-10-21 02:30","2018","10","21","02:30","10.8","","9.4","","92","","","","19","","48","","24.1","","99.81","","","","","","Cloudy"
"-52.75","47.62","ST. JOHN'S INTL A","8403505","2018-10-21 03:30","2018","10","21","03:30","10.7","","9.5","","92","","","","19","","59","","24.1","","99.75","","","","","","NA"
"-52.75","47.62","ST. JOHN'S INTL A","8403505","2018-10-21 04:30","2018","10","21","04:30","10.8","","9.8","","94","","","","19","","58","","24.1","","99.69","","","","","","NA"
"-52.75","47.62","ST. JOHN'S INTL A","8403505","2018-10-21 05:30","2018","10","21","05:30","10.8","","10.2","","96","","","","19","","59","","19.3","","99.62","","","","","","Drizzle"
"-52.75","47.62","ST. JOHN'S INTL A","8403505","2018-10-21 06:30","2018","10","21","06:30","11.0","","10.9","","99","","","","19","","59","","6.4","","99.57","","","","","","Drizzle,Fog"
"-52.75","47.62","ST. JOHN'S INTL A","8403505","2018-10-21 07:30","2018","10","21","07:30","11.2","","11.0","","99","","","","19","","48","","2.4","","99.56","","","","","","Drizzle,Fog"
"-52.75","47.62","ST. JOHN'S INTL A","8403505","2018-10-21 08:30","2018","10","21","08:30","11.4","","11.3","","99","","","","19","","48","","0.4","","99.49","","","","","","Drizzle,Fog"
"-52.75","47.62","ST. JOHN'S INTL A","8403505","2018-10-21 09:30","2018","10","21","09:30","11.4","","11.3","","100","","","","19","","46","","0.4","","99.44","","","","","","Drizzle,Fog"
"-52.75","47.62","ST. JOHN'S INTL A","8403505","2018-10-21 10:30","2018","10","21","10:30","11.7","","11.6","","100","","","","19","","50","","0.6","","99.33","","","","","","Drizzle,Fog"
"-52.75","47.62","ST. JOHN'S INTL A","8403505","2018-10-21 11:30","2018","10","21","11:30","12.1","","12.1","","100","","","","19","","57","","0.8","","99.32","","","","","","Drizzle,Fog"
"-52.75","47.62","ST. JOHN'S INTL A","8403505","2018-10-21 12:30","2018","10","21","12:30","12.6","","12.6","","100","","","","19","","50","","2.4","","99.16","","","","","","Rain,Fog"
"-52.75","47.62","ST. JOHN'S INTL A","8403505","2018-10-21 13:30","2018","10","21","13:30","13.3","","13.0","","98","","","","19","","52","","9.7","","99.03","","","","","","Drizzle,Fog"
"-52.75","47.62","ST. JOHN'S INTL A","8403505","2018-10-21 14:30","2018","10","21","14:30","13.3","","12.9","","98","","","","20","","48","","9.7","","98.94","","","","","","Fog"
"-52.75","47.62","ST. JOHN'S INTL A","8403505","2018-10-21 15:30","2018","10","21","15:30","13.4","","13.0","","97","","","","20","","48","","16.1","","98.91","","","","","","Rain"
"-52.75","47.62","ST. JOHN'S INTL A","8403505","2018-10-21 16:30","2018","10","21","16:30","13.7","","13.1","","96","","","","19","","41","","19.3","","98.81","","","","","","Rain"
"-52.75","47.62","ST. JOHN'S INTL A","8403505","2018-10-21 17:30","2018","10","21","17:30","13.7","","12.8","","95","","","","19","","52","","19.3","","98.72","","","","","","Cloudy"
"-52.75","47.62","ST. JOHN'S INTL A","8403505","2018-10-21 18:30","2018","10","21","18:30","13.5","","12.4","","93","","","","19","","55","","24.1","","98.70","","","","","","NA"
"-52.75","47.62","ST. JOHN'S INTL A","8403505","2018-10-21 19:30","2018","10","21","19:30","13.4","","12.3","","93","","","","18","","46","","24.1","","98.57","","","","","","NA"
"-52.75","47.62","ST. JOHN'S INTL A","8403505","2018-10-21 20:30","2018","10","21","20:30","13.9","","13.3","","96","","","","19","","45","","9.7","","98.52","","","","","","Fog"
"-52.75","47.62","ST. JOHN'S INTL A","8403505","2018-10-21 21:30","2018","10","21","21:30","13.7","","13.4","","98","","","","19","","43","","6.4","","98.49","","","","","","Fog"
"-52.75","47.62","ST. JOHN'S INTL A","8403505","2018-10-21 22:30","2018","10","21","22:30","13.7","","13.5","","99","","","","19","","47","","19.3","","98.30","","","","","","Rain"
"-52.75","47.62","ST. JOHN'S INTL A","8403505","2018-10-21 23:30","2018","10","21","23:30","14.7","","14.2","","97","","","","19","","56","","19.3","","98.26","","","","","","Rain"
"-52.75","47.62","ST. JOHN'S INTL A","8403505","2018-10-22 00:30","2018","10","22","00:30","14.8","","14.5","","98","","","","19","","55","","19.3","","98.20","","","","","","Rain"
"-52.75","47.62","ST. JOHN'S INTL A","8403505","2018-10-22 01:30","2018","10","22","01:30","15.0","","14.7","","98","","","","19","","50","","9.7","","98.15","","","","","","Moderate Rain,Fog"
"-52.75","47.62","ST. JOHN'S INTL A","8403505","2018-10-22 02:30","2018","10","22","02:30","14.2","","14.0","","98","","","","18","","35","","6.4","","98.16","","","","","","Rain,Fog"
"-52.75","47.62","ST. JOHN'S INTL A","8403505","2018-10-22 03:30","2018","10","22","03:30","14.8","","14.4","","98","","","","18","","45","","24.1","","98.10","","","","","","Rain"
"-52.75","47.62","ST. JOHN'S INTL A","8403505","2018-10-22 04:30","2018","10","22","04:30","15.2","","14.8","","98","","","","19","","34","","24.1","","98.16","","","","","","Rain"
"-52.75","47.62","ST. JOHN'S INTL A","8403505","2018-10-22 05:30","2018","10","22","05:30","14.7","","14.4","","98","","","","17","","38","","24.1","","98.08","","","","","","Rain"
"-52.75","47.62","ST. JOHN'S INTL A","8403505","2018-10-22 06:30","2018","10","22","06:30"
"-52.75","47.62","ST. JOHN'S INTL A","8403505","2018-10-22 07:30","2018","10","22","07:30","14.8","","14.4","","97","","","","21","","18","","24.1","","98.21","","","","","","Rain"
"-52.75","47.62","ST. JOHN'S INTL A","8403505","2018-10-22 08:30","2018","10","22","08:30","14.6","","13.7","","95","","","","20","","24","","24.1","","98.25","","","","","","Cloudy"
"-52.75","47.62","ST. JOHN'S INTL A","8403505","2018-10-22 09:30","2018","10","22","09:30","13.9","","13.0","","95","","","","23","","23","","24.1","","98.40","","","","","","NA"
"-52.75","47.62","ST. JOHN'S INTL A","8403505","2018-10-22 10:30","2018","10","22","10:30","10.8","","10.5","","98","","","","31","","21","","3.2","","98.54","","","","","","Drizzle,Fog"
"-52.75","47.62","ST. JOHN'S INTL A","8403505","2018-10-22 11:30","2018","10","22","11:30","7.1","","7.0","","99","","","","1","","19","","1.2","","98.60","","","","","","Fog"
"-52.75","47.62","ST. JOHN'S INTL A","8403505","2018-10-22 12:30","2018","10","22","12:30","6.8","","6.7","","100","","","","36","","12","","2.4","","98.70","","","","","","Fog"
"-52.75","47.62","ST. JOHN'S INTL A","8403505","2018-10-22 13:30","2018","10","22","13:30","6.9","","6.7","","99","","","","33","","16","","4.8","","98.83","","","","","","Rain,Fog"
"-52.75","47.62","ST. JOHN'S INTL A","8403505","2018-10-22 14:30","2018","10","22","14:30","7.0","","6.5","","97","","","","31","","18","","12.9","","98.95","","","","","","Rain"
"-52.75","47.62","ST. JOHN'S INTL A","8403505","2018-10-22 15:30","2018","10","22","15:30","6.8","","6.4","","97","","","","30","","14","","9.7","","99.10","","","","","","Drizzle,Fog"
"-52.75","47.62","ST. JOHN'S INTL A","8403505","2018-10-22 16:30","2018","10","22","16:30","6.9","","6.6","","97","","","","29","","14","","24.1","","99.20","","","","","","NA"
"-52.75","47.62","ST. JOHN'S INTL A","8403505","2018-10-22 17:30","2018","10","22","17:30","6.1","","5.3","","94","","","","29","","20","","24.1","","99.36","","","","","","Mostly Cloudy"
"-52.75","47.62","ST. JOHN'S INTL A","8403505","2018-10-22 18:30","2018","10","22","18:30","5.3","","4.8","","97","","","","29","","7","","24.1","","99.46","","","","","","NA"
"-52.75","47.62","ST. JOHN'S INTL A","8403505","2018-10-22 19:30","2018","10","22","19:30","5.5","","4.2","","91","","","","25","","29","","24.1","","99.62","","","","","","Rain Showers"
"-52.75","47.62","ST. JOHN'S INTL A","8403505","2018-10-22 20:30","2018","10","22","20:30","4.7","","2.4","","85","","","","26","","22","","24.1","","99.77","","","","","","Cloudy"
"-52.75","47.62","ST. JOHN'S INTL A","8403505","2018-10-22 21:30","2018","10","22","21:30","3.8","","1.4","","84","","","","26","","20","","24.1","","99.86","","","","","","NA"
"-52.75","47.62","ST. JOHN'S INTL A","8403505","2018-10-22 22:30","2018","10","22","22:30","3.2","","1.4","","88","","","","25","","16","","24.1","","99.89","","","","","","NA"
"-52.75","47.62","ST. JOHN'S INTL A","8403505","2018-10-22 23:30","2018","10","22","23:30","3.2","","1.8","","91","","","","23","","13","","24.1","","99.97","","","","","","Cloudy"
"-52.75","47.62","ST. JOHN'S INTL A","8403505","2018-10-23 00:30","2018","10","23","00:30","2.4","","1.2","","92","","","","23","","15","","24.1","","100.03","","","","","","NA"
"-52.75","47.62","ST. JOHN'S INTL A","8403505","2018-10-23 01:30","2018","10","23","01:30","3.0","","1.4","","89","","","","23","","20","","24.1","","100.10","","","","","","NA"
"-52.75","47.62","ST. JOHN'S INTL A","8403505","2018-10-23 02:30","2018","10","23","02:30","3.0","","1.5","","90","","","","25","","18","","24.1","","100.16","","","","","","Mostly Cloudy"
"-52.75","47.62","ST. JOHN'S INTL A","8403505","2018-10-23 03:30","2018","10","23","03:30","3.1","","0.7","","84","","","","25","","16","","24.1","","100.25","","","","","","NA"
"-52.75","47.62","ST. JOHN'S INTL A","8403505","2018-10-23 04:30","2018","10","23","04:30","1.8","","0.4","","91","","","","21","","13","","24.1","","100.33","","","","","","NA"
"-52.75","47.62","ST. JOHN'S INTL A","8403505","2018-10-23 05:30","2018","10","23","05:30","2.2","","-1.0","","79","","","","25","","22","","24.1","","100.37","","","","","","Mainly Clear"
"-52.75","47.62","ST. JOHN'S INTL A","8403505","2018-10-23 06:30","2018","10","23","06:30","2.4","","-0.3","","82","","","","24","","14","","24.1","","100.48","","","","","","NA"
"-52.75","47.62","ST. JOHN'S INTL A","8403505","2018-10-23 07:30","2018","10","23","07:30","2.6","","0.1","","83","","","","23","","15","","24.1","","100.56","","","","","","NA"
"-52.75","47.62","ST. JOHN'S INTL A","8403505","2018-10-23 08:30","2018","10","23","08:30","5.0","","-0.4","","68","","","","25","","22","","24.1","","100.61","","","","","","Mainly Clear"
"-52.75","47.62","ST. JOHN'S INTL A","8403505","2018-10-23 09:30","2018","10","23","09:30","5.2","","0.2","","70","","","","25","","16","","24.1","","100.69","","","","","","NA"
"-52.75","47.62","ST. JOHN'S INTL A","8403505","2018-10-23 10:30","2018","10","23","10:30","6.6","","0.0","","63","","","","24","","24","","22.5","","100.69","","","","","","NA"
"-52.75","47.62","ST. JOHN'S INTL A","8403505","2018-10-23 11:30","2018","10","23","11:30","7.1","","0.5","","63","","","","23","","21","","24.1","","100.72","","","","","","Mostly Cloudy"
"-52.75","47.62","ST. JOHN'S INTL A","8403505","2018-10-23 12:30","2018","10","23","12:30","6.7","","0.0","","63","","","","25","","23","","24.1","","100.73","","","","","","NA"
"-52.75","47.62","ST. JOHN'S INTL A","8403505","2018-10-23 13:30","2018","10","23","13:30","6.9","","0.3","","63","","","","25","","25","","24.1","","100.76","","","","","","NA"
"-52.75","47.62","ST. JOHN'S INTL A","8403505","2018-10-23 14:30","2018","10","23","14:30","7.1","","-1.1","","56","","","","25","","30","","24.1","","100.78","","","","","","Mainly Clear"
"-52.75","47.62","ST. JOHN'S INTL A","8403505","2018-10-23 15:30","2018","10","23","15:30","7.2","","-1.6","","54","","","","25","","24","","24.1","","100.81","","","","","","NA"
"-52.75","47.62","ST. JOHN'S INTL A","8403505","2018-10-23 16:30","2018","10","23","16:30","5.8","","-1.9","","58","","","","24","","23","","24.1","","100.88","","","","","","NA"
"-52.75","47.62","ST. JOHN'S INTL A","8403505","2018-10-23 17:30","2018","10","23","17:30","4.2","","-1.3","","67","","","","24","","19","","24.1","","100.95","","","","","","Mainly Clear"
"-52.75","47.62","ST. JOHN'S INTL A","8403505","2018-10-23 18:30","2018","10","23","18:30","3.1","","-1.0","","75","","","","23","","14","","24.1","","101.01","","","","","","NA"
"-52.75","47.62","ST. JOHN'S INTL A","8403505","2018-10-23 19:30","2018","10","23","19:30","2.7","","-1.0","","76","","","","23","","16","","24.1","","101.05","","","","","","NA"
"-52.75","47.62","ST. JOHN'S INTL A","8403505","2018-10-23 20:30","2018","10","23","20:30","1.9","","-1.0","","81","","","","24","","12","","24.1","","101.09","","","","","","Mainly Clear"
"-52.75","47.62","ST. JOHN'S INTL A","8403505","2018-10-23 21:30","2018","10","23","21:30","1.2","","-1.4","","82","","","","23","","15","","24.1","","101.13","","","","","","NA"
"-52.75","47.62","ST. JOHN'S INTL A","8403505","2018-10-23 22:30","2018","10","23","22:30","0.8","","-1.0","","88","","","","25","","12","","24.1","","101.18","","","","","","NA"
"-52.75","47.62","ST. JOHN'S INTL A","8403505","2018-10-23 23:30","2018","10","23","23:30","1.1","","-0.4","","90","","","","24","","15","","24.1","","101.18","","","","","","Mainly Clear"
"-52.75","47.62","ST. JOHN'S INTL A","8403505","2018-10-24 00:30","2018","10","24","00:30","0.2","","-1.6","","88","","","","17","","9","","24.1","","101.21","","","","","","NA"
"-52.75","47.62","ST. JOHN'S INTL A","8403505","2018-10-24 01:30","2018","10","24","01:30","0.1","","-1.4","","90","","","","25","","10","","24.1","","101.19","","","","","","NA"
"-52.75","47.62","ST. JOHN'S INTL A","8403505","2018-10-24 02:30","2018","10","24","02:30","-0.3","","-1.9","","89","","","","21","","7","","24.1","","101.21","","","","-3","","Mainly Clear"
"-52.75","47.62","ST. JOHN'S INTL A","8403505","2018-10-24 03:30","2018","10","24","03:30","-0.4","","-1.4","","93","","","","25","","6","","24.1","","101.24","","","","-2","","NA"
"-52.75","47.62","ST. JOHN'S INTL A","8403505","2018-10-24 04:30","2018","10","24","04:30","1.1","","-1.1","","85","","","","15","","5","","24.1","","101.22","","","","","","NA"
"-52.75","47.62","ST. JOHN'S INTL A","8403505","2018-10-24 05:30","2018","10","24","05:30","1.6","","-0.9","","83","","","","14","","4","","24.1","","101.24","","","","","","Mostly Cloudy"
"-52.75","47.62","ST. JOHN'S INTL A","8403505","2018-10-24 06:30","2018","10","24","06:30","2.1","","-0.6","","83","","","","14","","4","","24.1","","101.26","","","","","","NA"
"-52.75","47.62","ST. JOHN'S INTL A","8403505","2018-10-24 07:30","2018","10","24","07:30","2.9","","0.4","","84","","","","14","","4","","24.1","","101.32","","","","","","NA"
"-52.75","47.62","ST. JOHN'S INTL A","8403505","2018-10-24 08:30","2018","10","24","08:30","5.4","","1.7","","77","","","","10","","11","","24.1","","101.33","","","","","","Mostly Cloudy"
"-52.75","47.62","ST. JOHN'S INTL A","8403505","2018-10-24 09:30","2018","10","24","09:30","6.2","","1.8","","74","","","","10","","17","","24.1","","101.31","","","","","","NA"
"-52.75","47.62","ST. JOHN'S INTL A","8403505","2018-10-24 10:30","2018","10","24","10:30","7.4","","1.8","","68","","","","12","","19","","24.1","","101.31","","","","","","NA"
"-52.75","47.62","ST. JOHN'S INTL A","8403505","2018-10-24 11:30","2018","10","24","11:30","7.6","","1.6","","66","","","","13","","25","","24.1","","101.21","","","","","","Mainly Clear"
"-52.75","47.62","ST. JOHN'S INTL A","8403505","2018-10-24 12:30","2018","10","24","12:30","7.5","","1.9","","68","","","","12","","25","","24.1","","101.17","","","","","","NA"
"-52.75","47.62","ST. JOHN'S INTL A","8403505","2018-10-24 13:30","2018","10","24","13:30","7.0","","1.8","","69","","","","13","","23","","24.1","","101.10","","","","","","NA"
"-52.75","47.62","ST. JOHN'S INTL A","8403505","2018-10-24 14:30","2018","10","24","14:30","6.5","","1.7","","71","","","","11","","23","","24.1","","101.04","","","","","","Mostly Cloudy"
"-52.75","47.62","ST. JOHN'S INTL A","8403505","2018-10-24 15:30","2018","10","24","15:30","6.2","","1.7","","73","","","","12","","27","","24.1","","100.99","","","","","","NA"
"-52.75","47.62","ST. JOHN'S INTL A","8403505","2018-10-24 16:30","2018","10","24","16:30","5.7","","2.0","","77","","","","11","","27","","24.1","","100.89","","","","","","NA"
"-52.75","47.62","ST. JOHN'S INTL A","8403505","2018-10-24 17:30","2018","10","24","17:30","5.8","","2.7","","80","","","","12","","27","","24.1","","100.86","","","","","","Mostly Cloudy"
"-52.75","47.62","ST. JOHN'S INTL A","8403505","2018-10-24 18:30","2018","10","24","18:30","5.7","","3.3","","84","","","","12","","33","","24.1","","100.74","","","","","","NA"
"-52.75","47.62","ST. JOHN'S INTL A","8403505","2018-10-24 19:30","2018","10","24","19:30","5.9","","4.1","","88","","","","12","","28","","24.1","","100.68","","","","","","NA"
"-52.75","47.62","ST. JOHN'S INTL A","8403505","2018-10-24 20:30","2018","10","24","20:30","6.1","","5.0","","93","","","","12","","36","","24.1","","100.58","","","","","","Cloudy"
"-52.75","47.62","ST. JOHN'S INTL A","8403505","2018-10-24 21:30","2018","10","24","21:30","5.7","","3.2","","84","","","","12","","26","","24.1","","100.52","","","","","","NA"
"-52.75","47.62","ST. JOHN'S INTL A","8403505","2018-10-24 22:30","2018","10","24","22:30","5.8","","3.5","","85","","","","13","","35","","24.1","","100.44","","","","","","NA"
"-52.75","47.62","ST. JOHN'S INTL A","8403505","2018-10-24 23:30","2018","10","24","23:30","5.7","","2.8","","82","","","","12","","37","","24.1","","100.29","","","","","","Cloudy"
"-52.75","47.62","ST. JOHN'S INTL A","8403505","2018-10-25 00:30","2018","10","25","00:30","5.7","","2.5","","80","","","","12","","35","","24.1","","100.15","","","","","","NA"
"-52.75","47.62","ST. JOHN'S INTL A","8403505","2018-10-25 01:30","2018","10","25","01:30","6.0","","2.8","","80","","","","13","","34","","24.1","","100.04","","","","","","NA"
"-52.75","47.62","ST. JOHN'S INTL A","8403505","2018-10-25 02:30","2018","10","25","02:30","5.8","","4.2","","89","","","","11","","25","","19.3","","99.84","","","","","","Rain Showers,Drizzle"
"-52.75","47.62","ST. JOHN'S INTL A","8403505","2018-10-25 03:30","2018","10","25","03:30","6.0","","5.9","","99","","","","11","","31","","1.6","","99.72","","","","","","Rain Showers,Fog"
"-52.75","47.62","ST. JOHN'S INTL A","8403505","2018-10-25 04:30","2018","10","25","04:30","6.5","","6.5","","100","","","","12","","26","","0.6","","99.58","","","","","","Rain Showers,Fog"
"-52.75","47.62","ST. JOHN'S INTL A","8403505","2018-10-25 05:30","2018","10","25","05:30","6.8","","6.8","","100","","","","13","","21","","0.2","","99.50","","","","","","Fog"
"-52.75","47.62","ST. JOHN'S INTL A","8403505","2018-10-25 06:30","2018","10","25","06:30","6.9","","6.9","","100","","","","13","","30","","0.4","","99.36","","","","","","Drizzle,Fog"
"-52.75","47.62","ST. JOHN'S INTL A","8403505","2018-10-25 07:30","2018","10","25","07:30","7.2","","7.2","","100","","","","13","","33","","0.4","","99.25","","","","","","Rain,Fog"
"-52.75","47.62","ST. JOHN'S INTL A","8403505","2018-10-25 08:30","2018","10","25","08:30","7.5","","7.5","","100","","","","14","","35","","0.4","","99.09","","","","","","Rain,Fog"
"-52.75","47.62","ST. JOHN'S INTL A","8403505","2018-10-25 09:30","2018","10","25","09:30","8.1","","8.1","","100","","","","14","","28","","0.4","","98.93","","","","","","Rain,Fog"
"-52.75","47.62","ST. JOHN'S INTL A","8403505","2018-10-25 10:30","2018","10","25","10:30","8.3","","8.3","","100","","","","13","","28","","0.2","","98.77","","","","","","Drizzle,Fog"
"-52.75","47.62","ST. JOHN'S INTL A","8403505","2018-10-25 11:30","2018","10","25","11:30","8.8","","8.8","","100","","","","14","","30","","0.2","","98.67","","","","","","Rain,Fog"
"-52.75","47.62","ST. JOHN'S INTL A","8403505","2018-10-25 12:30","2018","10","25","12:30","10.2","","10.2","","100","","","","16","","25","","0.8","","98.59","","","","","","Rain,Fog"
"-52.75","47.62","ST. JOHN'S INTL A","8403505","2018-10-25 13:30","2018","10","25","13:30","10.5","","10.5","","100","","","","17","","28","","3.2","","98.52","","","","","","Rain,Fog"
"-52.75","47.62","ST. JOHN'S INTL A","8403505","2018-10-25 14:30","2018","10","25","14:30","10.7","","10.7","","100","","","","15","","22","","2.4","","98.44","","","","","","Rain,Fog"
"-52.75","47.62","ST. JOHN'S INTL A","8403505","2018-10-25 15:30","2018","10","25","15:30","10.6","","10.6","","100","","","","17","","23","","2.4","","98.39","","","","","","Rain,Fog"
"-52.75","47.62","ST. JOHN'S INTL A","8403505","2018-10-25 16:30","2018","10","25","16:30","10.5","","10.4","","99","","","","17","","16","","16.1","","98.34","","","","","","Rain"
"-52.75","47.62","ST. JOHN'S INTL A","8403505","2018-10-25 17:30","2018","10","25","17:30","10.8","","10.7","","99","","","","15","","18","","24.1","","98.27","","","","","","Cloudy"
"-52.75","47.62","ST. JOHN'S INTL A","8403505","2018-10-25 18:30","2018","10","25","18:30","10.0","","10.0","","100","","","","20","","11","","0.8","","98.19","","","","","","Fog"
"-52.75","47.62","ST. JOHN'S INTL A","8403505","2018-10-25 19:30","2018","10","25","19:30","10.4","","10.4","","100","","","","25","","14","","24.1","","98.11","","","","","","Rain Showers"
"-52.75","47.62","ST. JOHN'S INTL A","8403505","2018-10-25 20:30","2018","10","25","20:30","10.5","","10.3","","99","","","","26","","21","","24.1","","98.12","","","","","","Rain Showers"
"-52.75","47.62","ST. JOHN'S INTL A","8403505","2018-10-25 21:30","2018","10","25","21:30","9.2","","8.3","","94","","","","26","","27","","24.1","","98.08","","","","","","Rain Showers"
"-52.75","47.62","ST. JOHN'S INTL A","8403505","2018-10-25 22:30","2018","10","25","22:30","7.8","","7.1","","95","","","","27","","43","","19.3","","97.95","","","","","","Rain Showers"
"-52.75","47.62","ST. JOHN'S INTL A","8403505","2018-10-25 23:30","2018","10","25","23:30","7.2","","6.9","","98","","","","26","","23","","19.3","","97.89","","","","","","Rain Showers"
"-52.75","47.62","ST. JOHN'S INTL A","8403505","2018-10-26 00:30","2018","10","26","00:30","7.1","","6.9","","98","","","","31","","5","","19.3","","97.77","","","","","","Rain Showers"
"-52.75","47.62","ST. JOHN'S INTL A","8403505","2018-10-26 01:30","2018","10","26","01:30","6.8","","6.3","","97","","","","23","","14","","24.1","","97.85","","","","","","NA"
"-52.75","47.62","ST. JOHN'S INTL A","8403505","2018-10-26 02:30","2018","10","26","02:30","7.2","","6.4","","95","","","","23","","22","","24.1","","97.88","","","","","","Cloudy"
"-52.75","47.62","ST. JOHN'S INTL A","8403505","2018-10-26 03:30","2018","10","26","03:30","6.8","","5.9","","94","","","","24","","27","","24.1","","97.95","","","","","","NA"
"-52.75","47.62","ST. JOHN'S INTL A","8403505","2018-10-26 04:30","2018","10","26","04:30","6.0","","4.8","","92","","","","24","","28","","24.1","","98.01","","","","","","NA"
"-52.75","47.62","ST. JOHN'S INTL A","8403505","2018-10-26 05:30","2018","10","26","05:30","5.5","","4.2","","91","","","","24","","31","","24.1","","98.14","","","","","","Mainly Clear"
"-52.75","47.62","ST. JOHN'S INTL A","8403505","2018-10-26 06:30","2018","10","26","06:30","5.3","","3.8","","90","","","","23","","34","","24.1","","98.26","","","","","","NA"
"-52.75","47.62","ST. JOHN'S INTL A","8403505","2018-10-26 07:30","2018","10","26","07:30","5.1","","3.0","","86","","","","23","","33","","24.1","","98.42","","","","","","NA"
"-52.75","47.62","ST. JOHN'S INTL A","8403505","2018-10-26 08:30","2018","10","26","08:30","6.0","","3.4","","84","","","","23","","32","","24.1","","98.52","","","","","","Mostly Cloudy"
"-52.75","47.62","ST. JOHN'S INTL A","8403505","2018-10-26 09:30","2018","10","26","09:30","6.6","","3.1","","78","","","","23","","30","","24.1","","98.62","","","","","","NA"
"-52.75","47.62","ST. JOHN'S INTL A","8403505","2018-10-26 10:30","2018","10","26","10:30","7.2","","2.2","","71","","","","23","","39","","24.1","","98.70","","","","","","NA"
"-52.75","47.62","ST. JOHN'S INTL A","8403505","2018-10-26 11:30","2018","10","26","11:30","7.8","","2.5","","69","","","","23","","41","","24.1","","98.74","","","","","","Mainly Clear"
"-52.75","47.62","ST. JOHN'S INTL A","8403505","2018-10-26 12:30","2018","10","26","12:30","8.4","","2.9","","68","","","","24","","38","","24.1","","98.79","","","","","","NA"
"-52.75","47.62","ST. JOHN'S INTL A","8403505","2018-10-26 13:30","2018","10","26","13:30","8.2","","0.0","","56","","","","22","","49","","24.1","","98.88","","","","","","NA"
"-52.75","47.62","ST. JOHN'S INTL A","8403505","2018-10-26 14:30","2018","10","26","14:30","7.5","","0.4","","61","","","","23","","48","","24.1","","98.99","","","","","","Mostly Cloudy"
"-52.75","47.62","ST. JOHN'S INTL A","8403505","2018-10-26 15:30","2018","10","26","15:30","6.9","","1.3","","67","","","","23","","33","","24.1","","99.07","","","","","","NA"
"-52.75","47.62","ST. JOHN'S INTL A","8403505","2018-10-26 16:30","2018","10","26","16:30","6.0","","2.1","","76","","","","22","","28","","24.1","","99.15","","","","","","NA"
"-52.75","47.62","ST. JOHN'S INTL A","8403505","2018-10-26 17:30","2018","10","26","17:30","5.6","","3.2","","85","","","","22","","22","","24.1","","99.27","","","","","","Mostly Cloudy"
"-52.75","47.62","ST. JOHN'S INTL A","8403505","2018-10-26 18:30","2018","10","26","18:30","4.4","","3.0","","90","","","","23","","22","","24.1","","99.37","","","","","","NA"
"-52.75","47.62","ST. JOHN'S INTL A","8403505","2018-10-26 19:30","2018","10","26","19:30","3.8","","2.5","","91","","","","23","","17","","24.1","","99.46","","","","","","NA"
"-52.75","47.62","ST. JOHN'S INTL A","8403505","2018-10-26 20:30","2018","10","26","20:30","3.7","","2.5","","92","","","","24","","27","","24.1","","99.61","","","","","","Rain Showers"
"-52.75","47.62","ST. JOHN'S INTL A","8403505","2018-10-26 21:30","2018","10","26","21:30","3.0","","1.7","","91","","","","24","","23","","24.1","","99.72","","","","","","NA"
"-52.75","47.62","ST. JOHN'S INTL A","8403505","2018-10-26 22:30","2018","10","26","22:30","2.8","","1.6","","92","","","","25","","25","","24.1","","99.86","","","","","","Rain Showers"
"-52.75","47.62","ST. JOHN'S INTL A","8403505","2018-10-26 23:30","2018","10","26","23:30","2.0","","1.1","","94","","","","23","","21","","24.1","","99.97","","","","","","Mostly Cloudy"
"-52.75","47.62","ST. JOHN'S INTL A","8403505","2018-10-27 00:30","2018","10","27","00:30","2.0","","0.4","","89","","","","24","","21","","24.1","","100.07","","","","","","NA"
"-52.75","47.62","ST. JOHN'S INTL A","8403505","2018-10-27 01:30","2018","10","27","01:30","1.8","","0.4","","90","","","","25","","19","","24.1","","100.18","","","","","","NA"
"-52.75","47.62","ST. JOHN'S INTL A","8403505","2018-10-27 02:30","2018","10","27","02:30","1.9","","-0.7","","83","","","","26","","30","","24.1","","100.26","","","","","","Clear"
"-52.75","47.62","ST. JOHN'S INTL A","8403505","2018-10-27 03:30","2018","10","27","03:30","1.6","","-0.8","","84","","","","27","","34","","24.1","","100.29","","","","","","NA"
"-52.75","47.62","ST. JOHN'S INTL A","8403505","2018-10-27 04:30","2018","10","27","04:30","1.9","","-0.6","","83","","","","25","","18","","24.1","","100.49","","","","","","NA"
"-52.75","47.62","ST. JOHN'S INTL A","8403505","2018-10-27 05:30","2018","10","27","05:30","2.0","","-0.5","","83","","","","26","","20","","24.1","","100.58","","","","","","Mainly Clear"
"-52.75","47.62","ST. JOHN'S INTL A","8403505","2018-10-27 06:30","2018","10","27","06:30","2.5","","-0.2","","83","","","","27","","35","","24.1","","100.63","","","","","","NA"
"-52.75","47.62","ST. JOHN'S INTL A","8403505","2018-10-27 07:30","2018","10","27","07:30","3.1","","0.0","","80","","","","28","","49","","24.1","","100.71","","","","","","NA"
"-52.75","47.62","ST. JOHN'S INTL A","8403505","2018-10-27 08:30","2018","10","27","08:30","4.4","","-0.1","","73","","","","28","","40","","24.1","","100.89","","","","","","Mainly Clear"
"-52.75","47.62","ST. JOHN'S INTL A","8403505","2018-10-27 09:30","2018","10","27","09:30","5.5","","-0.2","","67","","","","28","","29","","24.1","","100.99","","","","","","NA"
"-52.75","47.62","ST. JOHN'S INTL A","8403505","2018-10-27 10:30","2018","10","27","10:30","6.2","","-1.8","","57","","","","26","","34","","24.1","","101.08","","","","","","NA"
"-52.75","47.62","ST. JOHN'S INTL A","8403505","2018-10-27 11:30","2018","10","27","11:30","6.9","","-3.6","","47","","","","25","","38","","24.1","","101.11","","","","","","Mainly Clear"
"-52.75","47.62","ST. JOHN'S INTL A","8403505","2018-10-27 12:30","2018","10","27","12:30","7.2","","-3.0","","48","","","","25","","26","","24.1","","101.11","","","","","","NA"
"-52.75","47.62","ST. JOHN'S INTL A","8403505","2018-10-27 13:30","2018","10","27","13:30","7.3","","-3.0","","48","","","","25","","32","","24.1","","101.18","","","","","","NA"
"-52.75","47.62","ST. JOHN'S INTL A","8403505","2018-10-27 14:30","2018","10","27","14:30","6.9","","-2.4","","51","","","","27","","36","","24.1","","101.23","","","","","","Mostly Cloudy"
"-52.75","47.62","ST. JOHN'S INTL A","8403505","2018-10-27 15:30","2018","10","27","15:30","5.7","","-2.8","","55","","","","26","","27","","24.1","","101.30","","","","","","NA"
"-52.75","47.62","ST. JOHN'S INTL A","8403505","2018-10-27 16:30","2018","10","27","16:30","4.7","","-2.0","","62","","","","26","","25","","24.1","","101.41","","","","","","NA"
"-52.75","47.62","ST. JOHN'S INTL A","8403505","2018-10-27 17:30","2018","10","27","17:30","4.2","","-1.7","","65","","","","25","","24","","24.1","","101.48","","","","","","Mostly Cloudy"
"-52.75","47.62","ST. JOHN'S INTL A","8403505","2018-10-27 18:30","2018","10","27","18:30","3.9","","-1.3","","68","","","","26","","20","","24.1","","101.54","","","","","","NA"
"-52.75","47.62","ST. JOHN'S INTL A","8403505","2018-10-27 19:30","2018","10","27","19:30","3.8","","-0.9","","71","","","","27","","19","","24.1","","101.60","","","","","","NA"
"-52.75","47.62","ST. JOHN'S INTL A","8403505","2018-10-27 20:30","2018","10","27","20:30","3.4","","-1.1","","72","","","","27","","11","","24.1","","101.66","","","","","","Cloudy"
"-52.75","47.62","ST. JOHN'S INTL A","8403505","2018-10-27 21:30","2018","10","27","21:30","2.0","","-1.0","","81","","","","22","","9","","24.1","","101.72","","","","","","NA"
"-52.75","47.62","ST. JOHN'S INTL A","8403505","2018-10-27 22:30","2018","10","27","22:30","1.6","","-0.7","","85","","","","23","","12","","24.1","","101.79","","","","","","NA"
"-52.75","47.62","ST. JOHN'S INTL A","8403505","2018-10-27 23:30","2018","10","27","23:30","1.8","","-0.2","","87","","","","26","","4","","24.1","","101.80","","","","","","Mostly Cloudy"
"-52.75","47.62","ST. JOHN'S INTL A","8403505","2018-10-28 00:30","2018","10","28","00:30","1.7","","0.0","","88","","","","27","","8","","24.1","","101.83","","","","","","NA"
"-52.75","47.62","ST. JOHN'S INTL A","8403505","2018-10-28 01:30","2018","10","28","01:30","2.2","","-0.2","","84","","","","36","","1","","24.1","","101.79","","","","","","NA"
"-52.75","47.62","ST. JOHN'S INTL A","8403505","2018-10-28 02:30","2018","10","28","02:30","1.2","","-0.5","","89","","","","34","","4","","24.1","","101.83","","","","","","Mostly Cloudy"
"-52.75","47.62","ST. JOHN'S INTL A","8403505","2018-10-28 03:30","2018","10","28","03:30","0.4","","-1.7","","86","","","","14","","4","","24.1","","101.80","","","","","","NA"
"-52.75","47.62","ST. JOHN'S INTL A","8403505","2018-10-28 04:30","2018","10","28","04:30","0.3","","-1.5","","88","","","","35","","5","","24.1","","101.84","","","","","","NA"
"-52.75","47.62","ST. JOHN'S INTL A","8403505","2018-10-28 05:30","2018","10","28","05:30","2.0","","-1.8","","76","","","","36","","2","","24.1","","101.85","","","","","","Cloudy"
"-52.75","47.62","ST. JOHN'S INTL A","8403505","2018-10-28 06:30","2018","10","28","06:30","2.3","","-1.4","","77","","","","4","","3","","24.1","","101.85","","","","","","NA"
"-52.75","47.62","ST. JOHN'S INTL A","8403505","2018-10-28 07:30","2018","10","28","07:30","3.4","","0.2","","80","","","","10","","7","","24.1","","101.88","","","","","","NA"
"-52.75","47.62","ST. JOHN'S INTL A","8403505","2018-10-28 08:30","2018","10","28","08:30","4.5","","-0.1","","72","","","","10","","15","","24.1","","101.88","","","","","","Cloudy"
"-52.75","47.62","ST. JOHN'S INTL A","8403505","2018-10-28 09:30","2018","10","28","09:30","4.7","","0.4","","74","","","","12","","18","","24.1","","101.82","","","","","","NA"
"-52.75","47.62","ST. JOHN'S INTL A","8403505","2018-10-28 10:30","2018","10","28","10:30","4.8","","0.8","","75","","","","11","","16","","24.1","","101.83","","","","","","NA"
"-52.75","47.62","ST. JOHN'S INTL A","8403505","2018-10-28 11:30","2018","10","28","11:30","4.9","","2.0","","82","","","","11","","10","","24.1","","101.84","","","","","","Rain"
"-52.75","47.62","ST. JOHN'S INTL A","8403505","2018-10-28 12:30","2018","10","28","12:30","4.5","","2.9","","90","","","","10","","17","","24.1","","101.74","","","","","","Rain"
"-52.75","47.62","ST. JOHN'S INTL A","8403505","2018-10-28 13:30","2018","10","28","13:30","4.4","","3.6","","95","","","","10","","18","","19.3","","101.63","","","","","","Rain"
"-52.75","47.62","ST. JOHN'S INTL A","8403505","2018-10-28 14:30","2018","10","28","14:30","4.7","","4.1","","96","","","","12","","20","","24.1","","101.60","","","","","","Rain"
"-52.75","47.62","ST. JOHN'S INTL A","8403505","2018-10-28 15:30","2018","10","28","15:30","5.1","","4.3","","95","","","","12","","29","","24.1","","101.48","","","","","","NA"
"-52.75","47.62","ST. JOHN'S INTL A","8403505","2018-10-28 16:30","2018","10","28","16:30","5.3","","4.5","","95","","","","13","","26","","24.1","","101.42","","","","","","Rain"
"-52.75","47.62","ST. JOHN'S INTL A","8403505","2018-10-28 17:30","2018","10","28","17:30","5.5","","5.1","","97","","","","13","","31","","19.3","","101.35","","","","","","Rain"
"-52.75","47.62","ST. JOHN'S INTL A","8403505","2018-10-28 18:30","2018","10","28","18:30","5.8","","5.7","","99","","","","14","","35","","6.4","","101.26","","","","","","Rain,Fog"
"-52.75","47.62","ST. JOHN'S INTL A","8403505","2018-10-28 19:30","2018","10","28","19:30","6.4","","6.4","","100","","","","14","","41","","1.6","","101.18","","","","","","Rain,Fog"
"-52.75","47.62","ST. JOHN'S INTL A","8403505","2018-10-28 20:30","2018","10","28","20:30","6.6","","6.6","","100","","","","15","","44","","2.0","","101.07","","","","","","Rain,Fog"
"-52.75","47.62","ST. JOHN'S INTL A","8403505","2018-10-28 21:30","2018","10","28","21:30","6.8","","6.8","","100","","","","15","","44","","16.1","","101.00","","","","","","Rain"
"-52.75","47.62","ST. JOHN'S INTL A","8403505","2018-10-28 22:30","2018","10","28","22:30","6.8","","6.6","","99","","","","15","","42","","19.3","","100.87","","","","","","Rain"
"-52.75","47.62","ST. JOHN'S INTL A","8403505","2018-10-28 23:30","2018","10","28","23:30","6.8","","6.6","","99","","","","15","","44","","4.0","","100.79","","","","","","Rain,Fog"
"-52.75","47.62","ST. JOHN'S INTL A","8403505","2018-10-29 00:30","2018","10","29","00:30","6.8","","6.7","","99","","","","15","","35","","3.2","","100.69","","","","","","Moderate Rain,Fog"
"-52.75","47.62","ST. JOHN'S INTL A","8403505","2018-10-29 01:30","2018","10","29","01:30","7.1","","7.1","","100","","","","15","","31","","9.7","","100.61","","","","","","Rain,Fog"
"-52.75","47.62","ST. JOHN'S INTL A","8403505","2018-10-29 02:30","2018","10","29","02:30","7.8","","7.8","","100","","","","16","","30","","6.4","","100.47","","","","","","Rain,Fog"
"-52.75","47.62","ST. JOHN'S INTL A","8403505","2018-10-29 03:30","2018","10","29","03:30","8.2","","8.2","","100","","","","16","","26","","3.2","","100.33","","","","","","Rain,Fog"
"-52.75","47.62","ST. JOHN'S INTL A","8403505","2018-10-29 04:30","2018","10","29","04:30","8.6","","8.6","","100","","","","15","","28","","0.4","","100.18","","","","","","Rain,Fog"
"-52.75","47.62","ST. JOHN'S INTL A","8403505","2018-10-29 05:30","2018","10","29","05:30","9.5","","9.5","","100","","","","17","","27","","6.4","","100.07","","","","","","Fog"
"-52.75","47.62","ST. JOHN'S INTL A","8403505","2018-10-29 06:30","2018","10","29","06:30","9.9","","9.9","","100","","","","17","","29","","0.8","","99.91","","","","","","Drizzle,Fog"
"-52.75","47.62","ST. JOHN'S INTL A","8403505","2018-10-29 07:30","2018","10","29","07:30","12.9","","12.9","","100","","","","19","","35","","16.1","","99.84","","","","","","Drizzle"
"-52.75","47.62","ST. JOHN'S INTL A","8403505","2018-10-29 08:30","2018","10","29","08:30","15.4","","15.2","","99","","","","20","","32","","12.9","","99.79","","","","","","Cloudy"
"-52.75","47.62","ST. JOHN'S INTL A","8403505","2018-10-29 09:30","2018","10","29","09:30","15.6","","15.1","","97","","","","21","","26","","19.3","","99.71","","","","","","NA"
"-52.75","47.62","ST. JOHN'S INTL A","8403505","2018-10-29 10:30","2018","10","29","10:30","18.4","","17.4","","94","","","","21","","30","","24.1","","99.57","","","","","","NA"
"-52.75","47.62","ST. JOHN'S INTL A","8403505","2018-10-29 11:30","2018","10","29","11:30","18.5","","17.5","","94","","","","22","","31","","19.3","","99.53","","","","","","Rain"
"-52.75","47.62","ST. JOHN'S INTL A","8403505","2018-10-29 12:30","2018","10","29","12:30","19.1","","18.1","","94","","","","23","","29","","24.1","","99.45","","","","","","NA"
"-52.75","47.62","ST. JOHN'S INTL A","8403505","2018-10-29 13:30","2018","10","29","13:30","18.3","","17.7","","96","","","","23","","32","","19.3","","99.42","","","","","","Rain"
"-52.75","47.62","ST. JOHN'S INTL A","8403505","2018-10-29 14:30","2018","10","29","14:30","16.6","","16.1","","97","","","","25","","41","","19.3","","99.44","","","","","","Drizzle"
"-52.75","47.62","ST. JOHN'S INTL A","8403505","2018-10-29 15:30","2018","10","29","15:30","16.0","","15.5","","97","","","","25","","36","","19.3","","99.43","","","","","","NA"
"-52.75","47.62","ST. JOHN'S INTL A","8403505","2018-10-29 16:30","2018","10","29","16:30","15.4","","14.9","","97","","","","25","","35","","19.3","","99.47","","","","","","NA"
"-52.75","47.62","ST. JOHN'S INTL A","8403505","2018-10-29 17:30","2018","10","29","17:30","15.0","","14.9","","99","","","","27","","20","","1.6","","99.58","","","","","","Fog"
"-52.75","47.62","ST. JOHN'S INTL A","8403505","2018-10-29 18:30","2018","10","29","18:30","13.9","","13.8","","99","","","","26","","20","","0.6","","99.65","","","","","","Drizzle,Fog"
"-52.75","47.62","ST. JOHN'S INTL A","8403505","2018-10-29 19:30","2018","10","29","19:30","13.5","","13.4","","100","","","","26","","21","","0.8","","99.63","","","","","","Drizzle,Fog"
"-52.75","47.62","ST. JOHN'S INTL A","8403505","2018-10-29 20:30","2018","10","29","20:30","12.8","","12.8","","100","","","","24","","15","","2.4","","99.62","","","","","","Fog"
"-52.75","47.62","ST. JOHN'S INTL A","8403505","2018-10-29 21:30","2018","10","29","21:30","12.6","","12.6","","100","","","","18","","9","","3.2","","99.59","","","","","","Fog"
"-52.75","47.62","ST. JOHN'S INTL A","8403505","2018-10-29 22:30","2018","10","29","22:30","11.4","","11.4","","100","","","","27","","7","","12.9","","99.53","","","","","","NA"
"-52.75","47.62","ST. JOHN'S INTL A","8403505","2018-10-29 23:30","2018","10","29","23:30","12.7","","12.7","","100","","","","27","","3","","24.1","","99.54","","","","","","Cloudy"
"-52.75","47.62","ST. JOHN'S INTL A","8403505","2018-10-30 00:30","2018","10","30","00:30","13.7","","13.4","","98","","","","24","","17","","24.1","","99.48","","","","","","Rain Showers"
"-52.75","47.62","ST. JOHN'S INTL A","8403505","2018-10-30 01:30","2018","10","30","01:30","13.7","","13.4","","98","","","","22","","11","","24.1","","99.44","","","","","","Rain Showers"
"-52.75","47.62","ST. JOHN'S INTL A","8403505","2018-10-30 02:30","2018","10","30","02:30","13.0","","12.9","","99","","","","26","","8","","24.1","","99.39","","","","","","Rain"
"-52.75","47.62","ST. JOHN'S INTL A","8403505","2018-10-30 03:30","2018","10","30","03:30","13.3","","13.3","","100","","","","29","","5","","9.7","","99.35","","","","","","Rain,Fog"
"-52.75","47.62","ST. JOHN'S INTL A","8403505","2018-10-30 04:30","2018","10","30","04:30","12.9","","12.9","","100","","","","31","","3","","16.1","","99.27","","","","","","NA"
"-52.75","47.62","ST. JOHN'S INTL A","8403505","2018-10-30 05:30","2018","10","30","05:30","13.0","","13.0","","100","","","","13","","12","","0.6","","99.20","","","","","","Rain Showers,Fog"
"-52.75","47.62","ST. JOHN'S INTL A","8403505","2018-10-30 06:30","2018","10","30","06:30","12.7","","12.7","","100","","","","17","","7","","1.0","","99.17","","","","","","Rain Showers,Fog"
"-52.75","47.62","ST. JOHN'S INTL A","8403505","2018-10-30 07:30","2018","10","30","07:30","13.1","","13.1","","100","","","","17","","8","","0.6","","99.14","","","","","","Rain,Rain Showers,Fog"
"-52.75","47.62","ST. JOHN'S INTL A","8403505","2018-10-30 08:30","2018","10","30","08:30","13.3","","13.3","","100","","","","18","","8","","0.2","","99.06","","","","","","Drizzle,Fog"
"-52.75","47.62","ST. JOHN'S INTL A","8403505","2018-10-30 09:30","2018","10","30","09:30","14.4","","14.4","","100","","","","25","","14","","11.3","","98.96","","","","","","NA"
"-52.75","47.62","ST. JOHN'S INTL A","8403505","2018-10-30 10:30","2018","10","30","10:30","14.6","","14.4","","99","","","","24","","19","","11.3","","98.91","","","","","","Drizzle"
"-52.75","47.62","ST. JOHN'S INTL A","8403505","2018-10-30 11:30","2018","10","30","11:30","14.4","","14.3","","99","","","","25","","11","","0.8","","98.87","","","","","","Drizzle,Fog"
"-52.75","47.62","ST. JOHN'S INTL A","8403505","2018-10-30 12:30","2018","10","30","12:30","14.6","","14.6","","100","","","","25","","11","","8.1","","98.82","","","","","","Fog"
"-52.75","47.62","ST. JOHN'S INTL A","8403505","2018-10-30 13:30","2018","10","30","13:30","15.3","","14.9","","97","","","","24","","17","","11.3","","98.79","","","","","","NA"
"-52.75","47.62","ST. JOHN'S INTL A","8403505","2018-10-30 14:30","2018","10","30","14:30","15.2","","14.9","","98","","","","24","","15","","19.3","","98.76","","","","","","Cloudy"
"-52.75","47.62","ST. JOHN'S INTL A","8403505","2018-10-30 15:30","2018","10","30","15:30","15.6","","15.2","","98","","","","20","","15","","24.1","","98.68","","","","","","NA"
"-52.75","47.62","ST. JOHN'S INTL A","8403505","2018-10-30 16:30","2018","10","30","16:30","15.0","","14.5","","97","","","","22","","18","","16.1","","98.66","","","","","","Drizzle"
"-52.75","47.62","ST. JOHN'S INTL A","8403505","2018-10-30 17:30","2018","10","30","17:30","14.5","","13.6","","94","","","","25","","25","","24.1","","98.57","","","","","","Cloudy"
"-52.75","47.62","ST. JOHN'S INTL A","8403505","2018-10-30 18:30","2018","10","30","18:30","14.6","","14.1","","96","","","","23","","37","","4.0","","98.56","","","","","","Moderate Rain Showers,Fog"
"-52.75","47.62","ST. JOHN'S INTL A","8403505","2018-10-30 19:30","2018","10","30","19:30","13.8","","13.4","","97","","","","27","","25","","19.3","","98.50","","","","","","Rain Showers"
"-52.75","47.62","ST. JOHN'S INTL A","8403505","2018-10-30 20:30","2018","10","30","20:30","13.1","","12.8","","98","","","","25","","19","","24.1","","98.49","","","","","","Rain Showers"
"-52.75","47.62","ST. JOHN'S INTL A","8403505","2018-10-30 21:30","2018","10","30","21:30","13.0","","12.5","","97","","","","25","","17","","24.1","","98.50","","","","","","NA"
"-52.75","47.62","ST. JOHN'S INTL A","8403505","2018-10-30 22:30","2018","10","30","22:30","12.6","","11.6","","94","","","","23","","18","","24.1","","98.49","","","","","","NA"
"-52.75","47.62","ST. JOHN'S INTL A","8403505","2018-10-30 23:30","2018","10","30","23:30","11.9","","11.4","","97","","","","26","","20","","24.1","","98.42","","","","","","Cloudy"
"-52.75","47.62","ST. JOHN'S INTL A","8403505","2018-10-31 00:30","2018","10","31","00:30","10.9","","10.7","","98","","","","26","","30","","4.0","","98.44","","","","","","Drizzle,Fog"
"-52.75","47.62","ST. JOHN'S INTL A","8403505","2018-10-31 01:30","2018","10","31","01:30","10.2","","10.1","","100","","","","27","","27","","0.6","","98.49","","","","","","Fog"
"-52.75","47.62","ST. JOHN'S INTL A","8403505","2018-10-31 02:30","2018","10","31","02:30","9.6","","9.6","","100","","","","27","","18","","0.6","","98.53","","","","","","Fog"
"-52.75","47.62","ST. JOHN'S INTL A","8403505","2018-10-31 03:30","2018","10","31","03:30","9.4","","9.4","","100","","","","28","","20","","0.8","","98.52","","","","","","Fog"
"-52.75","47.62","ST. JOHN'S INTL A","8403505","2018-10-31 04:30","2018","10","31","04:30","9.5","","9.5","","100","","","","28","","18","","0.6","","98.59","","","","","","Fog"
"-52.75","47.62","ST. JOHN'S INTL A","8403505","2018-10-31 05:30","2018","10","31","05:30","9.3","","9.3","","100","","","","33","","12","","2.8","","98.65","","","","","","Drizzle,Fog"
"-52.75","47.62","ST. JOHN'S INTL A","8403505","2018-10-31 06:30","2018","10","31","06:30","8.7","","8.7","","100","","","","34","","23","","3.2","","98.63","","","","","","Drizzle,Fog"
"-52.75","47.62","ST. JOHN'S INTL A","8403505","2018-10-31 07:30","2018","10","31","07:30","7.2","","7.2","","100","","","","33","","28","","19.3","","98.70","","","","","","NA"
"-52.75","47.62","ST. JOHN'S INTL A","8403505","2018-10-31 08:30","2018","10","31","08:30","6.9","","6.8","","99","","","","35","","18","","24.1","","98.73","","","","","","Cloudy"
"-52.75","47.62","ST. JOHN'S INTL A","8403505","2018-10-31 09:30","2018","10","31","09:30","6.5","","6.2","","98","","","","35","","26","","24.1","","98.77","","","","","","NA"
"-52.75","47.62","ST. JOHN'S INTL A","8403505","2018-10-31 10:30","2018","10","31","10:30","7.0","","6.6","","98","","","","36","","20","","24.1","","98.80","","","","","","NA"
"-52.75","47.62","ST. JOHN'S INTL A","8403505","2018-10-31 11:30","2018","10","31","11:30","7.2","","6.6","","96","","","","1","","28","","24.1","","98.78","","","","","","Cloudy"
"-52.75","47.62","ST. JOHN'S INTL A","8403505","2018-10-31 12:30","2018","10","31","12:30","7.2","","6.8","","97","","","","35","","17","","24.1","","98.76","","","","","","NA"
"-52.75","47.62","ST. JOHN'S INTL A","8403505","2018-10-31 13:30","2018","10","31","13:30","6.6","","6.2","","97","","","","36","","22","","4.8","","98.78","","","","","","Fog"
"-52.75","47.62","ST. JOHN'S INTL A","8403505","2018-10-31 14:30","2018","10","31","14:30","5.7","","5.5","","99","","","","36","","28","","1.2","","98.76","","","","","","Fog"
"-52.75","47.62","ST. JOHN'S INTL A","8403505","2018-10-31 15:30","2018","10","31","15:30","5.2","","5.2","","100","","","","1","","25","","0.4","","98.76","","","","","","Drizzle,Fog"
"-52.75","47.62","ST. JOHN'S INTL A","8403505","2018-10-31 16:30","2018","10","31","16:30","5.0","","5.0","","100","","","","2","","20","","1.2","","98.78","","","","","","Drizzle,Fog"
"-52.75","47.62","ST. JOHN'S INTL A","8403505","2018-10-31 17:30","2018","10","31","17:30","4.9","","4.9","","100","","","","1","","27","","1.0","","98.81","","","","","","Drizzle,Fog"
"-52.75","47.62","ST. JOHN'S INTL A","8403505","2018-10-31 18:30","2018","10","31","18:30","4.7","","4.7","","100","","","","1","","31","","2.4","","98.87","","","","","","Drizzle,Fog"
"-52.75","47.62","ST. JOHN'S INTL A","8403505","2018-10-31 19:30","2018","10","31","19:30","4.6","","4.6","","100","","","","36","","29","","2.8","","98.84","","","","","","Drizzle,Fog"
"-52.75","47.62","ST. JOHN'S INTL A","8403505","2018-10-31 20:30","2018","10","31","20:30","4.5","","4.5","","100","","","","2","","27","","2.8","","98.87","","","","","","Drizzle,Fog"
"-52.75","47.62","ST. JOHN'S INTL A","8403505","2018-10-31 21:30","2018","10","31","21:30","4.1","","4.1","","100","","","","1","","35","","3.2","","98.86","","","","","","Fog"
"-52.75","47.62","ST. JOHN'S INTL A","8403505","2018-10-31 22:30","2018","10","31","22:30","3.8","","3.8","","100","","","","1","","32","","3.2","","98.75","","","","","","Fog"
"-52.75","47.62","ST. JOHN'S INTL A","8403505","2018-10-31 23:30","2018","10","31","23:30","3.8","","3.8","","100","","","","2","","29","","8.1","","98.69","","","","","","Fog"
