"Longitude (x)","Latitude (y)","Station Name","Climate ID","Date/Time (LST)","Year","Month","Day","Time (LST)","Temp (°C)","Temp Flag","Dew Point Temp (°C)","Dew Point Temp Flag","Rel Hum (%)","Rel Hum Flag","Precip. Amount (mm)","Precip. Amount Flag","Wind Dir (10s deg)","Wind Dir Flag","Wind Spd (km/h)","Wind Spd Flag","Visibility (km)","Visibility Flag","Stn Press (kPa)","Stn Press Flag","Hmdx","Hmdx Flag","Wind Chill","Wind Chill Flag","Weather"
"-52.75","47.62","ST. JOHN'S INTL A","8403505","2019-01-01 00:30","2019","01","01","00:30","-10.7","","-13.3","","81","","","","30","","34","","24.1","","100.13","","","","-21","","NA"
"-52.75","47.62","ST. JOHN'S INTL A","8403505","2019-01-01 01:30","2019","01","01","01:30","-10.9","","-13.5","","81","","","","30","","30","","24.1","","100.12","","","","-21","","NA"
"-52.75","47.62","ST. JOHN'S INTL A","8403505","2019-01-01 02:30","2019","01","01","02:30","-10.4","","-12.9","","82","","","","30","","35","","24.1","","100.17","","","","-21","","Mostly Cloudy"
"-52.75","47.62","ST. JOHN'S INTL A","8403505","2019-01-01 03:30","2019","01","01","03:30","-10.3","","-13.2","","79","","","","31","","30","","24.1","","100.22","","","","-20","","NA"
"-52.75","47.62","ST. JOHN'S INTL A","8403505","2019-01-01 04:30","2019","01","01","04:30","-10.8","","-14.3","","76","","","","31","","27","","24.1","","100.18","","","","-20","","NA"
"-52.75","47.62","ST. JOHN'S INTL A","8403505","2019-01-01 05:30","2019","01","01","05:30","-10.1","","-13.1","","79","","","","30","","33","","24.1","","100.17","","","","-20","","Mainly Clear"
"-52.75","47.62","ST. JOHN'S INTL A","8403505","2019-01-01 06:30","2019","01","01","06:30","-10.1","","-13.3","","78","","","","30","","33","","24.1","","100.18","","","","-20","","NA"
"-52.75","47.62","ST. JOHN'S INTL A","8403505","2019-01-01 07:30","2019","01","01","07:30","-10.6","","-13.1","","82","","","","31","","17","","24.1","","100.20","","","","-18","","NA"
"-52.75","47.62","ST. JOHN'S INTL A","8403505","2019-01-01 08:30","2019","01","01","08:30","-10.2","","-12.8","","81","","","","36","","2","","24.1","","100.28","","","","-11","","Mostly Cloudy"
"-52.75","47.62","ST. JOHN'S INTL A","8403505","2019-01-01 09:30","2019","01","01","09:30","-9.7","","-13.1","","76","","","","30","","24","","24.1","","100.24","","","","-18","","NA"
"-52.75","47.62","ST. JOHN'S INTL A","8403505","2019-01-01 10:30","2019","01","01","10:30","-9.0","","-12.7","","75","","","","29","","17","","24.1","","100.20","","","","-16","","NA"
"-52.75","47.62","ST. JOHN'S INTL A","8403505","2019-01-01 11:30","2019","01","01","11:30","-8.8","","-12.5","","75","","","","29","","13","","24.1","","100.15","","","","-15","","Mostly Cloudy"
"-52.75","47.62","ST. JOHN'S INTL A","8403505","2019-01-01 12:30","2019","01","01","12:30","-7.5","","-11.9","","71","","","","24","","8","","24.1","","100.09","","","","-12","","NA"
"-52.75","47.62","ST. JOHN'S INTL A","8403505","2019-01-01 13:30","2019","01","01","13:30","-7.5","","-12.0","","71","","","","25","","8","","24.1","","99.95","","","","-12","","NA"
"-52.75","47.62","ST. JOHN'S INTL A","8403505","2019-01-01 14:30","2019","01","01","14:30","-7.6","","-12.2","","70","","","","17","","11","","24.1","","99.83","","","","-13","","Mostly Cloudy"
"-52.75","47.62","ST. JOHN'S INTL A","8403505","2019-01-01 15:30","2019","01","01","15:30","-7.5","","-11.6","","72","","","","17","","13","","24.1","","99.78","","","","-13","","NA"
"-52.75","47.62","ST. JOHN'S INTL A","8403505","2019-01-01 16:30","2019","01","01","16:30","-7.5","","-10.2","","81","","","","17","","14","","24.1","","99.71","","","","-13","","NA"
"-52.75","47.62","ST. JOHN'S INTL A","8403505","2019-01-01 17:30","2019","01","01","17:30","-6.9","","-9.3","","83","","","","16","","14","","24.1","","99.67","","","","-13","","Mostly Cloudy"
"-52.75","47.62","ST. JOHN'S INTL A","8403505","2019-01-01 18:30","2019","01","01","18:30","-5.8","","-7.8","","86","","","","15","","17","","24.1","","99.50","","","","-12","","NA"
"-52.75","47.62","ST. JOHN'S INTL A","8403505","2019-01-01 19:30","2019","01","01","19:30","-4.7","","-6.5","","87","","","","15","","26","","24.1","","99.33","","","","-12","","NA"
"-52.75","47.62","ST. JOHN'S INTL A","8403505","2019-01-01 20:30","2019","01","01","20:30","-4.2","","-5.0","","95","","","","15","","27","","2.0","","99.10","","","","-12","","Snow"
"-52.75","47.62","ST. JOHN'S INTL A","8403505","2019-01-01 21:30","2019","01","01","21:30","-3.7","","-4.3","","96","","","","15","","47","","0.8","","98.85","","","","-13","","Snow,Blowing Snow"
"-52.75","47.62","ST. JOHN'S INTL A","8403505","2019-01-01 22:30","2019","01","01","22:30","-4.0","","-4.7","","95","","","","15","","50","","0.8","","98.61","","","","-14","","Snow,Blowing Snow"
"-52.75","47.62","ST. JOHN'S INTL A","8403505","2019-01-01 23:30","2019","01","01","23:30","-4.1","","-4.5","","96","","","","15","","56","","0.4","","98.31","","","","-14","","Moderate Snow,Blowing Snow"
"-52.75","47.62","ST. JOHN'S INTL A","8403505","2019-01-02 00:30","2019","01","02","00:30","-3.9","","-4.4","","96","","","","14","","54","","0.8","","98.11","","","","-14","","Snow,Blowing Snow"
"-52.75","47.62","ST. JOHN'S INTL A","8403505","2019-01-02 01:30","2019","01","02","01:30","-3.5","","-3.9","","97","","","","13","","52","","0.4","","97.84","","","","-13","","Moderate Snow,Blowing Snow"
"-52.75","47.62","ST. JOHN'S INTL A","8403505","2019-01-02 02:30","2019","01","02","02:30","-3.3","","-3.7","","97","","","","13","","50","","0.4","","97.52","","","","-13","","Moderate Snow,Blowing Snow"
"-52.75","47.62","ST. JOHN'S INTL A","8403505","2019-01-02 03:30","2019","01","02","03:30","-3.3","","-3.7","","97","","","","14","","67","","0.4","","97.27","","","","-14","","Moderate Snow,Blowing Snow"
"-52.75","47.62","ST. JOHN'S INTL A","8403505","2019-01-02 04:30","2019","01","02","04:30","-2.7","","-3.0","","98","","","","14","","54","","0.4","","96.95","","","","-12","","Moderate Snow,Blowing Snow"
"-52.75","47.62","ST. JOHN'S INTL A","8403505","2019-01-02 05:30","2019","01","02","05:30","-1.7","","-1.9","","99","","","","15","","59","","0.4","","96.55","","","","-11","","Moderate Snow,Blowing Snow"
"-52.75","47.62","ST. JOHN'S INTL A","8403505","2019-01-02 06:30","2019","01","02","06:30","0.0","","-0.1","","100","","","","16","","52","","4.8","","96.30","","","","-8","","Rain"
"-52.75","47.62","ST. JOHN'S INTL A","8403505","2019-01-02 07:30","2019","01","02","07:30","0.1","","0.0","","99","","","","18","","27","","3.2","","96.20","","","","","","Rain,Fog"
"-52.75","47.62","ST. JOHN'S INTL A","8403505","2019-01-02 08:30","2019","01","02","08:30","0.0","","0.0","","100","","","","19","","20","","2.4","","96.05","","","","-5","","Drizzle,Fog"
"-52.75","47.62","ST. JOHN'S INTL A","8403505","2019-01-02 09:30","2019","01","02","09:30","-0.2","","-0.6","","97","","","","24","","31","","3.2","","95.94","","","","-7","","Snow,Fog"
"-52.75","47.62","ST. JOHN'S INTL A","8403505","2019-01-02 10:30","2019","01","02","10:30","-0.6","","-1.0","","97","","","","26","","51","","16.1","","95.88","","","","-9","","Snow"
"-52.75","47.62","ST. JOHN'S INTL A","8403505","2019-01-02 11:30","2019","01","02","11:30","-1.9","","-2.7","","94","","","","27","","50","","4.8","","95.88","","","","-11","","Snow,Blowing Snow"
"-52.75","47.62","ST. JOHN'S INTL A","8403505","2019-01-02 12:30","2019","01","02","12:30","-2.6","","-3.2","","96","","","","29","","66","","0.6","","95.81","","","","-13","","Moderate Snow,Blowing Snow"
"-52.75","47.62","ST. JOHN'S INTL A","8403505","2019-01-02 13:30","2019","01","02","13:30","-2.8","","-3.5","","95","","","","30","","68","","0.4","","95.98","","","","-13","","Heavy Snow,Blowing Snow"
"-52.75","47.62","ST. JOHN'S INTL A","8403505","2019-01-02 14:30","2019","01","02","14:30","-2.8","","-3.7","","94","","","","29","","75","","0.4","","96.18","","","","-14","","Moderate Snow,Blowing Snow"
"-52.75","47.62","ST. JOHN'S INTL A","8403505","2019-01-02 15:30","2019","01","02","15:30","-3.0","","-3.6","","95","","","","30","","67","","0.4","","96.38","","","","-13","","Moderate Snow,Blowing Snow"
"-52.75","47.62","ST. JOHN'S INTL A","8403505","2019-01-02 16:30","2019","01","02","16:30","-2.9","","-3.5","","96","","","","30","","65","","0.2","","96.55","","","","-13","","Moderate Snow,Blowing Snow"
"-52.75","47.62","ST. JOHN'S INTL A","8403505","2019-01-02 17:30","2019","01","02","17:30","-2.6","","-3.4","","95","","","","30","","63","","0.4","","96.71","","","","-13","","Moderate Snow,Blowing Snow"
"-52.75","47.62","ST. JOHN'S INTL A","8403505","2019-01-02 18:30","2019","01","02","18:30","-2.8","","-3.6","","94","","","","31","","61","","0.4","","96.97","","","","-13","","Moderate Snow,Blowing Snow"
"-52.75","47.62","ST. JOHN'S INTL A","8403505","2019-01-02 19:30","2019","01","02","19:30","-4.0","","-5.0","","93","","","","31","","62","","0.4","","97.21","","","","-14","","Moderate Snow,Blowing Snow"
"-52.75","47.62","ST. JOHN'S INTL A","8403505","2019-01-02 20:30","2019","01","02","20:30","-4.6","","-5.9","","91","","","","31","","63","","0.6","","97.45","","","","-15","","Moderate Snow,Blowing Snow"
"-52.75","47.62","ST. JOHN'S INTL A","8403505","2019-01-02 21:30","2019","01","02","21:30","-5.5","","-6.9","","90","","","","31","","65","","0.4","","97.61","","","","-17","","Snow,Blowing Snow"
"-52.75","47.62","ST. JOHN'S INTL A","8403505","2019-01-02 22:30","2019","01","02","22:30","-5.9","","-7.4","","89","","","","31","","63","","0.8","","97.76","","","","-17","","Snow,Blowing Snow"
"-52.75","47.62","ST. JOHN'S INTL A","8403505","2019-01-02 23:30","2019","01","02","23:30","-6.2","","-8.3","","85","","","","31","","53","","9.7","","97.89","","","","-17","","Blowing Snow"
"-52.75","47.62","ST. JOHN'S INTL A","8403505","2019-01-03 00:30","2019","01","03","00:30","-6.9","","-9.4","","83","","","","31","","71","","9.7","","98.00","","","","-19","","Blowing Snow"
"-52.75","47.62","ST. JOHN'S INTL A","8403505","2019-01-03 01:30","2019","01","03","01:30","-7.2","","-9.6","","83","","","","31","","52","","9.7","","98.24","","","","-18","","Blowing Snow"
"-52.75","47.62","ST. JOHN'S INTL A","8403505","2019-01-03 02:30","2019","01","03","02:30","-7.5","","-10.0","","83","","","","31","","49","","9.7","","98.43","","","","-18","","Blowing Snow"
"-52.75","47.62","ST. JOHN'S INTL A","8403505","2019-01-03 03:30","2019","01","03","03:30","-8.4","","-10.8","","83","","","","30","","62","","9.7","","98.53","","","","-21","","Blowing Snow"
"-52.75","47.62","ST. JOHN'S INTL A","8403505","2019-01-03 04:30","2019","01","03","04:30","-9.7","","-11.8","","85","","","","30","","45","","19.3","","98.72","","","","-21","","Snow Showers,Blowing Snow"
"-52.75","47.62","ST. JOHN'S INTL A","8403505","2019-01-03 05:30","2019","01","03","05:30","-10.6","","-12.7","","84","","","","31","","43","","24.1","","98.81","","","","-22","","Cloudy"
"-52.75","47.62","ST. JOHN'S INTL A","8403505","2019-01-03 06:30","2019","01","03","06:30","-11.0","","-13.8","","80","","","","30","","46","","24.1","","98.99","","","","-23","","NA"
"-52.75","47.62","ST. JOHN'S INTL A","8403505","2019-01-03 07:30","2019","01","03","07:30","-11.8","","-14.7","","79","","","","30","","31","","24.1","","99.11","","","","-22","","NA"
"-52.75","47.62","ST. JOHN'S INTL A","8403505","2019-01-03 08:30","2019","01","03","08:30","-11.8","","-15.1","","77","","","","32","","35","","24.1","","99.19","","","","-23","","Mainly Clear"
"-52.75","47.62","ST. JOHN'S INTL A","8403505","2019-01-03 09:30","2019","01","03","09:30","-11.3","","-14.8","","76","","","","30","","34","","24.1","","99.27","","","","-22","","NA"
"-52.75","47.62","ST. JOHN'S INTL A","8403505","2019-01-03 10:30","2019","01","03","10:30","-10.8","","-14.4","","75","","","","29","","46","","24.1","","99.29","","","","-22","","Blowing Snow"
"-52.75","47.62","ST. JOHN'S INTL A","8403505","2019-01-03 11:30","2019","01","03","11:30","-10.9","","-14.7","","74","","","","29","","42","","24.1","","99.30","","","","-22","","Blowing Snow"
"-52.75","47.62","ST. JOHN'S INTL A","8403505","2019-01-03 12:30","2019","01","03","12:30","-10.6","","-15.3","","68","","","","28","","45","","24.1","","99.33","","","","-22","","Blowing Snow"
"-52.75","47.62","ST. JOHN'S INTL A","8403505","2019-01-03 13:30","2019","01","03","13:30","-10.0","","-15.6","","64","","","","30","","39","","24.1","","99.37","","","","-21","","Blowing Snow"
"-52.75","47.62","ST. JOHN'S INTL A","8403505","2019-01-03 14:30","2019","01","03","14:30","-10.3","","-15.9","","64","","","","28","","38","","24.1","","99.40","","","","-21","","Blowing Snow"
"-52.75","47.62","ST. JOHN'S INTL A","8403505","2019-01-03 15:30","2019","01","03","15:30","-10.7","","-15.3","","69","","","","28","","35","","24.1","","99.46","","","","-21","","NA"
"-52.75","47.62","ST. JOHN'S INTL A","8403505","2019-01-03 16:30","2019","01","03","16:30","-11.2","","-15.4","","71","","","","29","","37","","24.1","","99.51","","","","-22","","NA"
"-52.75","47.62","ST. JOHN'S INTL A","8403505","2019-01-03 17:30","2019","01","03","17:30","-11.4","","-14.7","","77","","","","29","","23","","24.1","","99.60","","","","-20","","Mainly Clear"
"-52.75","47.62","ST. JOHN'S INTL A","8403505","2019-01-03 18:30","2019","01","03","18:30","-11.8","","-14.8","","79","","","","27","","11","","24.1","","99.64","","","","-18","","NA"
"-52.75","47.62","ST. JOHN'S INTL A","8403505","2019-01-03 19:30","2019","01","03","19:30","-12.4","","-15.2","","80","","","","28","","24","","24.1","","99.64","","","","-22","","NA"
"-52.75","47.62","ST. JOHN'S INTL A","8403505","2019-01-03 20:30","2019","01","03","20:30","-12.0","","-14.3","","83","","","","26","","13","","24.1","","99.68","","","","-19","","Mostly Cloudy"
"-52.75","47.62","ST. JOHN'S INTL A","8403505","2019-01-03 21:30","2019","01","03","21:30","-13.0","","-15.0","","85","","","","28","","18","","24.1","","99.63","","","","-21","","NA"
"-52.75","47.62","ST. JOHN'S INTL A","8403505","2019-01-03 22:30","2019","01","03","22:30","-12.9","","-15.3","","82","","","","15","","8","","24.1","","99.60","","","","-18","","NA"
"-52.75","47.62","ST. JOHN'S INTL A","8403505","2019-01-03 23:30","2019","01","03","23:30","-13.3","","-15.2","","86","","","","20","","4","","24.1","","99.55","","","","-16","","Mainly Clear"
"-52.75","47.62","ST. JOHN'S INTL A","8403505","2019-01-04 00:30","2019","01","04","00:30","-14.6","","-16.4","","87","","","","21","","8","","24.1","","99.57","","","","-20","","NA"
"-52.75","47.62","ST. JOHN'S INTL A","8403505","2019-01-04 01:30","2019","01","04","01:30","-13.8","","-15.8","","85","","","","23","","9","","24.1","","99.56","","","","-19","","NA"
"-52.75","47.62","ST. JOHN'S INTL A","8403505","2019-01-04 02:30","2019","01","04","02:30","-14.9","","-16.4","","88","","","","22","","13","","24.1","","99.65","","","","-22","","Clear"
"-52.75","47.62","ST. JOHN'S INTL A","8403505","2019-01-04 03:30","2019","01","04","03:30","-16.2","","-18.1","","86","","","","23","","10","","24.1","","99.67","","","","-23","","NA"
"-52.75","47.62","ST. JOHN'S INTL A","8403505","2019-01-04 04:30","2019","01","04","04:30","-15.1","","-16.9","","86","","","","24","","13","","24.1","","99.65","","","","-22","","NA"
"-52.75","47.62","ST. JOHN'S INTL A","8403505","2019-01-04 05:30","2019","01","04","05:30","-13.1","","-15.0","","86","","","","23","","10","","24.1","","99.66","","","","-19","","Mostly Cloudy"
"-52.75","47.62","ST. JOHN'S INTL A","8403505","2019-01-04 06:30","2019","01","04","06:30","-11.9","","-13.7","","86","","","","24","","7","","24.1","","99.69","","","","-16","","NA"
"-52.75","47.62","ST. JOHN'S INTL A","8403505","2019-01-04 07:30","2019","01","04","07:30","-11.4","","-13.5","","85","","","","22","","7","","24.1","","99.77","","","","-16","","NA"
"-52.75","47.62","ST. JOHN'S INTL A","8403505","2019-01-04 08:30","2019","01","04","08:30","-11.0","","-13.0","","85","","","","24","","10","","24.1","","99.82","","","","-16","","Mostly Cloudy"
"-52.75","47.62","ST. JOHN'S INTL A","8403505","2019-01-04 09:30","2019","01","04","09:30","-9.8","","-11.4","","88","","","","28","","3","","24.1","","99.84","","","","-12","","NA"
"-52.75","47.62","ST. JOHN'S INTL A","8403505","2019-01-04 10:30","2019","01","04","10:30","-8.8","","-10.5","","87","","","","28","","10","","24.1","","99.85","","","","-14","","Snow"
"-52.75","47.62","ST. JOHN'S INTL A","8403505","2019-01-04 11:30","2019","01","04","11:30","-8.2","","-9.9","","87","","","","29","","13","","24.1","","99.84","","","","-14","","Snow"
"-52.75","47.62","ST. JOHN'S INTL A","8403505","2019-01-04 12:30","2019","01","04","12:30","-8.0","","-9.9","","86","","","","28","","7","","24.1","","99.82","","","","-12","","Snow"
"-52.75","47.62","ST. JOHN'S INTL A","8403505","2019-01-04 13:30","2019","01","04","13:30","-7.3","","-10.2","","80","","","","28","","4","","24.1","","99.81","","","","-9","","NA"
"-52.75","47.62","ST. JOHN'S INTL A","8403505","2019-01-04 14:30","2019","01","04","14:30","-6.9","","-9.6","","81","","","","33","","3","","24.1","","99.81","","","","-8","","Snow"
"-52.75","47.62","ST. JOHN'S INTL A","8403505","2019-01-04 15:30","2019","01","04","15:30","-7.1","","-9.7","","82","","","","15","","3","","24.1","","99.89","","","","-9","","Snow"
"-52.75","47.62","ST. JOHN'S INTL A","8403505","2019-01-04 16:30","2019","01","04","16:30","-6.8","","-9.0","","84","","","","19","","4","","24.1","","99.94","","","","-9","","Snow"
"-52.75","47.62","ST. JOHN'S INTL A","8403505","2019-01-04 17:30","2019","01","04","17:30","-6.9","","-8.7","","87","","","","18","","9","","24.1","","99.96","","","","-11","","Snow"
"-52.75","47.62","ST. JOHN'S INTL A","8403505","2019-01-04 18:30","2019","01","04","18:30","-6.5","","-8.3","","88","","","","16","","11","","24.1","","99.97","","","","-11","","Snow"
"-52.75","47.62","ST. JOHN'S INTL A","8403505","2019-01-04 19:30","2019","01","04","19:30","-5.8","","-8.1","","84","","","","18","","9","","24.1","","99.98","","","","-10","","NA"
"-52.75","47.62","ST. JOHN'S INTL A","8403505","2019-01-04 20:30","2019","01","04","20:30","-5.5","","-7.6","","85","","","","15","","13","","24.1","","100.00","","","","-11","","Cloudy"
"-52.75","47.62","ST. JOHN'S INTL A","8403505","2019-01-04 21:30","2019","01","04","21:30","-5.8","","-7.7","","86","","","","16","","11","","24.1","","99.98","","","","-11","","NA"
"-52.75","47.62","ST. JOHN'S INTL A","8403505","2019-01-04 22:30","2019","01","04","22:30","-5.7","","-7.7","","86","","","","17","","9","","24.1","","99.96","","","","-10","","NA"
"-52.75","47.62","ST. JOHN'S INTL A","8403505","2019-01-04 23:30","2019","01","04","23:30","-5.3","","-7.4","","85","","","","20","","8","","24.1","","99.99","","","","-9","","Mostly Cloudy"
"-52.75","47.62","ST. JOHN'S INTL A","8403505","2019-01-05 00:30","2019","01","05","00:30","-4.5","","-7.0","","83","","","","20","","15","","24.1","","99.96","","","","-10","","NA"
"-52.75","47.62","ST. JOHN'S INTL A","8403505","2019-01-05 01:30","2019","01","05","01:30","-4.8","","-6.6","","87","","","","18","","15","","24.1","","99.89","","","","-10","","NA"
"-52.75","47.62","ST. JOHN'S INTL A","8403505","2019-01-05 02:30","2019","01","05","02:30","-4.9","","-6.4","","89","","","","17","","19","","24.1","","99.88","","","","-11","","Mainly Clear"
"-52.75","47.62","ST. JOHN'S INTL A","8403505","2019-01-05 03:30","2019","01","05","03:30","-3.9","","-5.3","","90","","","","17","","25","","24.1","","99.81","","","","-11","","NA"
"-52.75","47.62","ST. JOHN'S INTL A","8403505","2019-01-05 04:30","2019","01","05","04:30","-3.5","","-4.6","","92","","","","18","","16","","24.1","","99.79","","","","-9","","NA"
"-52.75","47.62","ST. JOHN'S INTL A","8403505","2019-01-05 05:30","2019","01","05","05:30","-2.8","","-4.3","","89","","","","20","","18","","24.1","","99.82","","","","-8","","Cloudy"
"-52.75","47.62","ST. JOHN'S INTL A","8403505","2019-01-05 06:30","2019","01","05","06:30","-2.8","","-3.8","","93","","","","18","","19","","24.1","","99.79","","","","-9","","Snow"
"-52.75","47.62","ST. JOHN'S INTL A","8403505","2019-01-05 07:30","2019","01","05","07:30","-2.6","","-3.8","","92","","","","19","","22","","24.1","","99.85","","","","-9","","NA"
"-52.75","47.62","ST. JOHN'S INTL A","8403505","2019-01-05 08:30","2019","01","05","08:30","-2.4","","-3.6","","92","","","","18","","22","","12.9","","99.87","","","","-9","","Snow"
"-52.75","47.62","ST. JOHN'S INTL A","8403505","2019-01-05 09:30","2019","01","05","09:30","-2.2","","-3.6","","90","","","","18","","27","","19.3","","99.86","","","","-9","","Snow"
"-52.75","47.62","ST. JOHN'S INTL A","8403505","2019-01-05 10:30","2019","01","05","10:30","-1.6","","-2.9","","91","","","","18","","33","","24.1","","99.75","","","","-9","","Snow"
"-52.75","47.62","ST. JOHN'S INTL A","8403505","2019-01-05 11:30","2019","01","05","11:30","-1.0","","-2.2","","91","","","","19","","27","","24.1","","99.67","","","","-7","","Snow"
"-52.75","47.62","ST. JOHN'S INTL A","8403505","2019-01-05 12:30","2019","01","05","12:30","-0.7","","-1.9","","92","","","","20","","35","","24.1","","99.54","","","","-8","","Snow"
"-52.75","47.62","ST. JOHN'S INTL A","8403505","2019-01-05 13:30","2019","01","05","13:30","-0.5","","-1.5","","93","","","","19","","32","","24.1","","99.51","","","","-7","","Snow"
"-52.75","47.62","ST. JOHN'S INTL A","8403505","2019-01-05 14:30","2019","01","05","14:30","-0.3","","-1.1","","94","","","","19","","25","","24.1","","99.54","","","","-6","","Snow"
"-52.75","47.62","ST. JOHN'S INTL A","8403505","2019-01-05 15:30","2019","01","05","15:30","-0.1","","-0.6","","96","","","","19","","18","","24.1","","99.59","","","","-5","","NA"
"-52.75","47.62","ST. JOHN'S INTL A","8403505","2019-01-05 16:30","2019","01","05","16:30","-0.2","","-0.4","","98","","","","19","","17","","24.1","","99.61","","","","-5","","NA"
"-52.75","47.62","ST. JOHN'S INTL A","8403505","2019-01-05 17:30","2019","01","05","17:30","0.0","","-0.2","","99","","","","19","","21","","24.1","","99.56","","","","-5","","Cloudy"
"-52.75","47.62","ST. JOHN'S INTL A","8403505","2019-01-05 18:30","2019","01","05","18:30","0.3","","0.0","","98","","","","19","","18","","24.1","","99.59","","","","","","NA"
"-52.75","47.62","ST. JOHN'S INTL A","8403505","2019-01-05 19:30","2019","01","05","19:30","0.0","","-0.2","","99","","","","18","","17","","24.1","","99.54","","","","-5","","NA"
"-52.75","47.62","ST. JOHN'S INTL A","8403505","2019-01-05 20:30","2019","01","05","20:30","0.0","","-0.2","","99","","","","17","","18","","24.1","","99.51","","","","-5","","Cloudy"
"-52.75","47.62","ST. JOHN'S INTL A","8403505","2019-01-05 21:30","2019","01","05","21:30","-0.1","","-0.2","","99","","","","17","","14","","24.1","","99.45","","","","-4","","NA"
"-52.75","47.62","ST. JOHN'S INTL A","8403505","2019-01-05 22:30","2019","01","05","22:30","0.1","","0.1","","100","","","","16","","9","","19.3","","99.39","","","","","","Rain"
"-52.75","47.62","ST. JOHN'S INTL A","8403505","2019-01-05 23:30","2019","01","05","23:30","0.0","","0.0","","100","","","","17","","14","","16.1","","99.33","","","","-4","","Rain"
"-52.75","47.62","ST. JOHN'S INTL A","8403505","2019-01-06 00:30","2019","01","06","00:30","0.4","","0.4","","100","","","","16","","18","","24.1","","99.20","","","","","","Rain"
"-52.75","47.62","ST. JOHN'S INTL A","8403505","2019-01-06 01:30","2019","01","06","01:30","0.1","","0.1","","100","","","","15","","23","","0.4","","99.10","","","","","","Rain,Fog"
"-52.75","47.62","ST. JOHN'S INTL A","8403505","2019-01-06 02:30","2019","01","06","02:30","0.3","","0.3","","100","","","","16","","26","","0.6","","99.04","","","","","","Rain,Fog"
"-52.75","47.62","ST. JOHN'S INTL A","8403505","2019-01-06 03:30","2019","01","06","03:30","-0.1","","-0.1","","100","","","","15","","33","","19.3","","98.89","","","","-7","","Freezing Rain"
"-52.75","47.62","ST. JOHN'S INTL A","8403505","2019-01-06 04:30","2019","01","06","04:30","-0.1","","-0.1","","100","","","","15","","40","","2.0","","98.69","","","","-8","","Freezing Rain,Fog"
"-52.75","47.62","ST. JOHN'S INTL A","8403505","2019-01-06 05:30","2019","01","06","05:30","0.0","","0.0","","100","","","","15","","37","","0.6","","98.52","","","","-7","","Rain,Fog"
"-52.75","47.62","ST. JOHN'S INTL A","8403505","2019-01-06 06:30","2019","01","06","06:30","0.1","","0.1","","100","","","","14","","27","","0.6","","98.38","","","","","","Rain,Fog"
"-52.75","47.62","ST. JOHN'S INTL A","8403505","2019-01-06 07:30","2019","01","06","07:30","0.4","","0.4","","100","","","","14","","43","","0.4","","98.17","","","","","","Rain,Fog"
"-52.75","47.62","ST. JOHN'S INTL A","8403505","2019-01-06 08:30","2019","01","06","08:30","0.8","","0.8","","100","","","","13","","39","","0.4","","97.99","","","","","","Moderate Rain,Fog"
"-52.75","47.62","ST. JOHN'S INTL A","8403505","2019-01-06 09:30","2019","01","06","09:30","1.3","","1.3","","100","","","","13","","52","","0.6","","97.67","","","","","","Moderate Rain,Fog"
"-52.75","47.62","ST. JOHN'S INTL A","8403505","2019-01-06 10:30","2019","01","06","10:30","1.4","","1.4","","100","","","","12","","43","","1.2","","97.37","","","","","","Heavy Rain,Fog"
"-52.75","47.62","ST. JOHN'S INTL A","8403505","2019-01-06 11:30","2019","01","06","11:30","1.5","","1.5","","100","","","","13","","39","","3.2","","97.02","","","","","","Heavy Rain,Fog"
"-52.75","47.62","ST. JOHN'S INTL A","8403505","2019-01-06 12:30","2019","01","06","12:30","1.9","","1.9","","100","","","","14","","36","","0.4","","96.57","","","","","","Rain,Fog"
"-52.75","47.62","ST. JOHN'S INTL A","8403505","2019-01-06 13:30","2019","01","06","13:30","2.1","","2.1","","100","","","","15","","52","","1.2","","96.26","","","","","","Rain,Fog"
"-52.75","47.62","ST. JOHN'S INTL A","8403505","2019-01-06 14:30","2019","01","06","14:30","3.0","","3.0","","100","","","","17","","35","","0.4","","96.13","","","","","","Drizzle,Fog"
"-52.75","47.62","ST. JOHN'S INTL A","8403505","2019-01-06 15:30","2019","01","06","15:30","4.1","","4.1","","100","","","","19","","32","","3.2","","96.04","","","","","","Fog"
"-52.75","47.62","ST. JOHN'S INTL A","8403505","2019-01-06 16:30","2019","01","06","16:30","4.7","","4.7","","100","","","","19","","28","","1.6","","96.02","","","","","","Fog"
"-52.75","47.62","ST. JOHN'S INTL A","8403505","2019-01-06 17:30","2019","01","06","17:30","4.2","","4.2","","100","","","","19","","31","","2.4","","95.97","","","","","","Fog"
"-52.75","47.62","ST. JOHN'S INTL A","8403505","2019-01-06 18:30","2019","01","06","18:30","4.2","","4.2","","100","","","","20","","24","","12.9","","95.91","","","","","","NA"
"-52.75","47.62","ST. JOHN'S INTL A","8403505","2019-01-06 19:30","2019","01","06","19:30","2.2","","2.2","","100","","","","23","","42","","12.9","","95.98","","","","","","NA"
"-52.75","47.62","ST. JOHN'S INTL A","8403505","2019-01-06 20:30","2019","01","06","20:30","1.9","","1.8","","100","","","","25","","59","","12.9","","96.08","","","","","","Cloudy"
"-52.75","47.62","ST. JOHN'S INTL A","8403505","2019-01-06 21:30","2019","01","06","21:30","1.2","","0.8","","97","","","","25","","56","","19.3","","96.30","","","","","","NA"
"-52.75","47.62","ST. JOHN'S INTL A","8403505","2019-01-06 22:30","2019","01","06","22:30","1.1","","0.5","","96","","","","25","","46","","24.1","","96.44","","","","","","NA"
"-52.75","47.62","ST. JOHN'S INTL A","8403505","2019-01-06 23:30","2019","01","06","23:30","0.4","","-0.1","","96","","","","24","","52","","24.1","","96.52","","","","","","Drizzle"
"-52.75","47.62","ST. JOHN'S INTL A","8403505","2019-01-07 00:30","2019","01","07","00:30","0.1","","-1.0","","92","","","","24","","51","","8.1","","96.64","","","","","","Snow Showers"
"-52.75","47.62","ST. JOHN'S INTL A","8403505","2019-01-07 01:30","2019","01","07","01:30","-0.3","","-2.4","","86","","","","25","","66","","24.1","","96.73","","","","-10","","Snow Showers"
"-52.75","47.62","ST. JOHN'S INTL A","8403505","2019-01-07 02:30","2019","01","07","02:30","-0.7","","-2.5","","88","","","","24","","53","","24.1","","96.89","","","","-9","","Cloudy"
"-52.75","47.62","ST. JOHN'S INTL A","8403505","2019-01-07 03:30","2019","01","07","03:30","-0.8","","-3.0","","85","","","","24","","57","","24.1","","96.94","","","","-10","","NA"
"-52.75","47.62","ST. JOHN'S INTL A","8403505","2019-01-07 04:30","2019","01","07","04:30","-0.7","","-3.3","","83","","","","25","","54","","24.1","","97.02","","","","-9","","NA"
"-52.75","47.62","ST. JOHN'S INTL A","8403505","2019-01-07 05:30","2019","01","07","05:30","-0.8","","-3.6","","81","","","","24","","52","","24.1","","97.10","","","","-9","","Cloudy"
"-52.75","47.62","ST. JOHN'S INTL A","8403505","2019-01-07 06:30","2019","01","07","06:30","-0.9","","-3.8","","81","","","","24","","46","","24.1","","97.20","","","","-9","","NA"
"-52.75","47.62","ST. JOHN'S INTL A","8403505","2019-01-07 07:30","2019","01","07","07:30","-0.9","","-4.5","","77","","","","23","","47","","24.1","","97.35","","","","-9","","NA"
"-52.75","47.62","ST. JOHN'S INTL A","8403505","2019-01-07 08:30","2019","01","07","08:30","-0.8","","-4.3","","77","","","","24","","49","","24.1","","97.41","","","","-9","","Cloudy"
"-52.75","47.62","ST. JOHN'S INTL A","8403505","2019-01-07 09:30","2019","01","07","09:30","-0.6","","-4.1","","77","","","","24","","42","","24.1","","97.47","","","","-8","","NA"
"-52.75","47.62","ST. JOHN'S INTL A","8403505","2019-01-07 10:30","2019","01","07","10:30","-0.4","","-4.2","","76","","","","24","","41","","24.1","","97.55","","","","-8","","NA"
"-52.75","47.62","ST. JOHN'S INTL A","8403505","2019-01-07 11:30","2019","01","07","11:30","-0.4","","-4.1","","76","","","","23","","32","","24.1","","97.62","","","","-7","","Cloudy"
"-52.75","47.62","ST. JOHN'S INTL A","8403505","2019-01-07 12:30","2019","01","07","12:30","-0.7","","-3.5","","81","","","","26","","32","","24.1","","97.51","","","","-8","","NA"
"-52.75","47.62","ST. JOHN'S INTL A","8403505","2019-01-07 13:30","2019","01","07","13:30","-1.0","","-4.9","","74","","","","26","","38","","24.1","","97.56","","","","-9","","NA"
"-52.75","47.62","ST. JOHN'S INTL A","8403505","2019-01-07 14:30","2019","01","07","14:30","-1.0","","-5.5","","72","","","","26","","24","","24.1","","97.73","","","","-7","","Mostly Cloudy"
"-52.75","47.62","ST. JOHN'S INTL A","8403505","2019-01-07 15:30","2019","01","07","15:30","-1.2","","-5.3","","74","","","","29","","29","","24.1","","97.75","","","","-8","","NA"
"-52.75","47.62","ST. JOHN'S INTL A","8403505","2019-01-07 16:30","2019","01","07","16:30","-2.5","","-6.7","","73","","","","30","","27","","24.1","","97.90","","","","-9","","NA"
"-52.75","47.62","ST. JOHN'S INTL A","8403505","2019-01-07 17:30","2019","01","07","17:30","-2.4","","-6.4","","74","","","","32","","24","","24.1","","98.03","","","","-9","","Mainly Clear"
"-52.75","47.62","ST. JOHN'S INTL A","8403505","2019-01-07 18:30","2019","01","07","18:30","-2.5","","-6.2","","76","","","","34","","21","","24.1","","98.12","","","","-9","","NA"
"-52.75","47.62","ST. JOHN'S INTL A","8403505","2019-01-07 19:30","2019","01","07","19:30","-3.1","","-6.8","","76","","","","35","","25","","24.1","","98.32","","","","-10","","NA"
"-52.75","47.62","ST. JOHN'S INTL A","8403505","2019-01-07 20:30","2019","01","07","20:30","-4.0","","-7.0","","80","","","","35","","32","","24.1","","98.44","","","","-12","","Cloudy"
"-52.75","47.62","ST. JOHN'S INTL A","8403505","2019-01-07 21:30","2019","01","07","21:30","-4.5","","-7.6","","79","","","","35","","33","","24.1","","98.47","","","","-13","","NA"
"-52.75","47.62","ST. JOHN'S INTL A","8403505","2019-01-07 22:30","2019","01","07","22:30","-4.8","","-8.3","","77","","","","35","","39","","24.1","","98.51","","","","-14","","NA"
"-52.75","47.62","ST. JOHN'S INTL A","8403505","2019-01-07 23:30","2019","01","07","23:30","-5.2","","-8.6","","77","","","","35","","37","","24.1","","98.59","","","","-14","","Cloudy"
"-52.75","47.62","ST. JOHN'S INTL A","8403505","2019-01-08 00:30","2019","01","08","00:30","-5.3","","-8.4","","79","","","","34","","35","","24.1","","98.73","","","","-14","","NA"
"-52.75","47.62","ST. JOHN'S INTL A","8403505","2019-01-08 01:30","2019","01","08","01:30","-5.6","","-7.7","","85","","","","34","","31","","24.1","","98.83","","","","-14","","Snow Showers"
"-52.75","47.62","ST. JOHN'S INTL A","8403505","2019-01-08 02:30","2019","01","08","02:30","-5.5","","-8.2","","82","","","","35","","35","","24.1","","98.86","","","","-14","","Snow Showers"
"-52.75","47.62","ST. JOHN'S INTL A","8403505","2019-01-08 03:30","2019","01","08","03:30","-5.4","","-8.1","","82","","","","35","","33","","24.1","","98.91","","","","-14","","NA"
"-52.75","47.62","ST. JOHN'S INTL A","8403505","2019-01-08 04:30","2019","01","08","04:30","-5.6","","-8.3","","82","","","","33","","41","","24.1","","99.04","","","","-15","","NA"
"-52.75","47.62","ST. JOHN'S INTL A","8403505","2019-01-08 05:30","2019","01","08","05:30","-5.9","","-8.8","","80","","","","34","","44","","24.1","","99.12","","","","-16","","Cloudy"
"-52.75","47.62","ST. JOHN'S INTL A","8403505","2019-01-08 06:30","2019","01","08","06:30","-6.2","","-8.9","","81","","","","34","","47","","24.1","","99.21","","","","-16","","NA"
"-52.75","47.62","ST. JOHN'S INTL A","8403505","2019-01-08 07:30","2019","01","08","07:30","-6.5","","-8.6","","85","","","","33","","46","","24.1","","99.30","","","","-17","","Blowing Snow"
"-52.75","47.62","ST. JOHN'S INTL A","8403505","2019-01-08 08:30","2019","01","08","08:30","-6.5","","-8.5","","86","","","","33","","39","","24.1","","99.41","","","","-16","","Snow Showers,Blowing Snow"
"-52.75","47.62","ST. JOHN'S INTL A","8403505","2019-01-08 09:30","2019","01","08","09:30","-6.4","","-8.5","","85","","","","33","","35","","24.1","","99.50","","","","-15","","NA"
"-52.75","47.62","ST. JOHN'S INTL A","8403505","2019-01-08 10:30","2019","01","08","10:30","-6.3","","-8.9","","82","","","","33","","42","","24.1","","99.52","","","","-16","","Snow Showers,Blowing Snow"
"-52.75","47.62","ST. JOHN'S INTL A","8403505","2019-01-08 11:30","2019","01","08","11:30","-6.2","","-8.8","","82","","","","33","","36","","24.1","","99.57","","","","-15","","Cloudy"
"-52.75","47.62","ST. JOHN'S INTL A","8403505","2019-01-08 12:30","2019","01","08","12:30","-6.6","","-9.4","","81","","","","33","","40","","24.1","","99.62","","","","-16","","Snow Showers"
"-52.75","47.62","ST. JOHN'S INTL A","8403505","2019-01-08 13:30","2019","01","08","13:30","-6.7","","-9.4","","81","","","","33","","27","","24.1","","99.69","","","","-15","","Snow Showers,Blowing Snow"
"-52.75","47.62","ST. JOHN'S INTL A","8403505","2019-01-08 14:30","2019","01","08","14:30","-6.7","","-9.8","","79","","","","34","","26","","24.1","","99.72","","","","-15","","Snow Showers,Blowing Snow"
"-52.75","47.62","ST. JOHN'S INTL A","8403505","2019-01-08 15:30","2019","01","08","15:30","-6.8","","-10.1","","78","","","","34","","35","","24.1","","99.79","","","","-16","","Snow Showers"
"-52.75","47.62","ST. JOHN'S INTL A","8403505","2019-01-08 16:30","2019","01","08","16:30","-6.8","","-9.9","","79","","","","35","","39","","24.1","","99.86","","","","-16","","NA"
"-52.75","47.62","ST. JOHN'S INTL A","8403505","2019-01-08 17:30","2019","01","08","17:30","-6.6","","-9.9","","77","","","","35","","37","","24.1","","99.92","","","","-16","","Snow Showers"
"-52.75","47.62","ST. JOHN'S INTL A","8403505","2019-01-08 18:30","2019","01","08","18:30","-6.4","","-9.3","","80","","","","34","","40","","24.1","","99.96","","","","-16","","Snow Showers,Blowing Snow"
"-52.75","47.62","ST. JOHN'S INTL A","8403505","2019-01-08 19:30","2019","01","08","19:30","-6.7","","-9.2","","83","","","","35","","36","","24.1","","100.03","","","","-16","","Snow Showers"
"-52.75","47.62","ST. JOHN'S INTL A","8403505","2019-01-08 20:30","2019","01","08","20:30","-6.8","","-8.9","","85","","","","34","","35","","24.1","","100.05","","","","-16","","Cloudy"
"-52.75","47.62","ST. JOHN'S INTL A","8403505","2019-01-08 21:30","2019","01","08","21:30","-6.4","","-8.2","","87","","","","34","","27","","24.1","","100.08","","","","-14","","NA"
"-52.75","47.62","ST. JOHN'S INTL A","8403505","2019-01-08 22:30","2019","01","08","22:30","-6.1","","-7.9","","87","","","","34","","30","","24.1","","100.08","","","","-14","","NA"
"-52.75","47.62","ST. JOHN'S INTL A","8403505","2019-01-08 23:30","2019","01","08","23:30","-6.3","","-7.5","","91","","","","33","","28","","24.1","","100.08","","","","-14","","Snow Showers"
"-52.75","47.62","ST. JOHN'S INTL A","8403505","2019-01-09 00:30","2019","01","09","00:30","-5.5","","-7.0","","89","","","","34","","29","","24.1","","100.08","","","","-14","","NA"
"-52.75","47.62","ST. JOHN'S INTL A","8403505","2019-01-09 01:30","2019","01","09","01:30","-4.9","","-6.7","","87","","","","34","","31","","24.1","","100.07","","","","-13","","NA"
"-52.75","47.62","ST. JOHN'S INTL A","8403505","2019-01-09 02:30","2019","01","09","02:30","-4.1","","-8.0","","74","","","","35","","31","","24.1","","100.14","","","","-12","","Cloudy"
"-52.75","47.62","ST. JOHN'S INTL A","8403505","2019-01-09 03:30","2019","01","09","03:30","-4.1","","-9.4","","67","","","","36","","22","","24.1","","100.16","","","","-11","","NA"
"-52.75","47.62","ST. JOHN'S INTL A","8403505","2019-01-09 04:30","2019","01","09","04:30","-4.1","","-8.4","","72","","","","36","","32","","24.1","","100.13","","","","-12","","NA"
"-52.75","47.62","ST. JOHN'S INTL A","8403505","2019-01-09 05:30","2019","01","09","05:30","-4.2","","-8.4","","73","","","","36","","26","","24.1","","100.14","","","","-11","","Cloudy"
"-52.75","47.62","ST. JOHN'S INTL A","8403505","2019-01-09 06:30","2019","01","09","06:30","-4.3","","-8.5","","73","","","","36","","28","","24.1","","100.09","","","","-12","","NA"
"-52.75","47.62","ST. JOHN'S INTL A","8403505","2019-01-09 07:30","2019","01","09","07:30","-4.4","","-7.9","","77","","","","36","","28","","24.1","","100.10","","","","-12","","NA"
"-52.75","47.62","ST. JOHN'S INTL A","8403505","2019-01-09 08:30","2019","01","09","08:30","-4.3","","-8.1","","75","","","","35","","23","","24.1","","100.20","","","","-11","","Cloudy"
"-52.75","47.62","ST. JOHN'S INTL A","8403505","2019-01-09 09:30","2019","01","09","09:30","-4.2","","-7.8","","77","","","","35","","21","","24.1","","100.23","","","","-11","","NA"
"-52.75","47.62","ST. JOHN'S INTL A","8403505","2019-01-09 10:30","2019","01","09","10:30","-4.1","","-7.9","","75","","","","36","","22","","24.1","","100.12","","","","-11","","NA"
"-52.75","47.62","ST. JOHN'S INTL A","8403505","2019-01-09 11:30","2019","01","09","11:30","-3.9","","-7.5","","76","","","","35","","19","","24.1","","100.05","","","","-10","","Cloudy"
"-52.75","47.62","ST. JOHN'S INTL A","8403505","2019-01-09 12:30","2019","01","09","12:30","-4.0","","-7.5","","76","","","","36","","21","","24.1","","100.00","","","","-10","","NA"
"-52.75","47.62","ST. JOHN'S INTL A","8403505","2019-01-09 13:30","2019","01","09","13:30","-4.0","","-7.5","","77","","","","35","","22","","24.1","","99.93","","","","-11","","NA"
"-52.75","47.62","ST. JOHN'S INTL A","8403505","2019-01-09 14:30","2019","01","09","14:30","-4.1","","-7.4","","78","","","","34","","23","","24.1","","99.92","","","","-11","","Cloudy"
"-52.75","47.62","ST. JOHN'S INTL A","8403505","2019-01-09 15:30","2019","01","09","15:30","-4.1","","-7.2","","79","","","","34","","22","","24.1","","99.88","","","","-11","","NA"
"-52.75","47.62","ST. JOHN'S INTL A","8403505","2019-01-09 16:30","2019","01","09","16:30","-4.2","","-7.1","","80","","","","32","","17","","24.1","","99.92","","","","-10","","NA"
"-52.75","47.62","ST. JOHN'S INTL A","8403505","2019-01-09 17:30","2019","01","09","17:30","-4.3","","-6.9","","82","","","","34","","15","","24.1","","99.91","","","","-10","","Cloudy"
"-52.75","47.62","ST. JOHN'S INTL A","8403505","2019-01-09 18:30","2019","01","09","18:30","-4.4","","-6.8","","83","","","","32","","10","","24.1","","99.85","","","","-9","","NA"
"-52.75","47.62","ST. JOHN'S INTL A","8403505","2019-01-09 19:30","2019","01","09","19:30","-4.5","","-6.9","","83","","","","33","","7","","24.1","","99.81","","","","-8","","NA"
"-52.75","47.62","ST. JOHN'S INTL A","8403505","2019-01-09 20:30","2019","01","09","20:30","-4.5","","-6.9","","83","","","","33","","5","","24.1","","99.79","","","","-7","","Cloudy"
"-52.75","47.62","ST. JOHN'S INTL A","8403505","2019-01-09 21:30","2019","01","09","21:30","-4.6","","-7.0","","83","","","","33","","10","","24.1","","99.72","","","","-9","","NA"
"-52.75","47.62","ST. JOHN'S INTL A","8403505","2019-01-09 22:30","2019","01","09","22:30","-4.7","","-6.8","","85","","","","21","","4","","24.1","","99.64","","","","-6","","NA"
"-52.75","47.62","ST. JOHN'S INTL A","8403505","2019-01-09 23:30","2019","01","09","23:30","-4.6","","-6.7","","86","","","","12","","7","","24.1","","99.57","","","","-8","","Cloudy"
"-52.75","47.62","ST. JOHN'S INTL A","8403505","2019-01-10 00:30","2019","01","10","00:30","-4.4","","-6.5","","86","","","","11","","11","","24.1","","99.48","","","","-9","","NA"
"-52.75","47.62","ST. JOHN'S INTL A","8403505","2019-01-10 01:30","2019","01","10","01:30","-4.2","","-5.9","","88","","","","12","","17","","24.1","","99.35","","","","-10","","NA"
"-52.75","47.62","ST. JOHN'S INTL A","8403505","2019-01-10 02:30","2019","01","10","02:30","-3.9","","-5.6","","88","","","","13","","26","","24.1","","99.31","","","","-11","","Cloudy"
"-52.75","47.62","ST. JOHN'S INTL A","8403505","2019-01-10 03:30","2019","01","10","03:30","-3.8","","-4.5","","94","","","","13","","28","","12.9","","99.17","","","","-11","","Ice Pellets"
"-52.75","47.62","ST. JOHN'S INTL A","8403505","2019-01-10 04:30","2019","01","10","04:30","-3.5","","-4.1","","96","","","","13","","27","","16.1","","99.01","","","","-11","","NA"
"-52.75","47.62","ST. JOHN'S INTL A","8403505","2019-01-10 05:30","2019","01","10","05:30","-2.8","","-3.1","","98","","","","13","","40","","8.1","","98.81","","","","-11","","Freezing Rain,Ice Pellets,Fog"
"-52.75","47.62","ST. JOHN'S INTL A","8403505","2019-01-10 06:30","2019","01","10","06:30","-2.5","","-2.7","","98","","","","13","","46","","6.4","","98.68","","","","-11","","Freezing Rain,Fog"
"-52.75","47.62","ST. JOHN'S INTL A","8403505","2019-01-10 07:30","2019","01","10","07:30","-1.9","","-2.0","","99","","","","14","","40","","3.2","","98.54","","","","-10","","Freezing Rain,Fog"
"-52.75","47.62","ST. JOHN'S INTL A","8403505","2019-01-10 08:30","2019","01","10","08:30","-1.2","","-1.2","","100","","","","14","","47","","0.8","","98.45","","","","-10","","Freezing Rain,Freezing Fog"
"-52.75","47.62","ST. JOHN'S INTL A","8403505","2019-01-10 09:30","2019","01","10","09:30","-0.6","","-0.6","","100","","","","15","","45","","0.4","","98.30","","","","-9","","Freezing Rain,Freezing Fog"
"-52.75","47.62","ST. JOHN'S INTL A","8403505","2019-01-10 10:30","2019","01","10","10:30","-0.1","","-0.1","","100","","","","15","","36","","0.4","","98.16","","","","-7","","Freezing Rain,Freezing Fog"
"-52.75","47.62","ST. JOHN'S INTL A","8403505","2019-01-10 11:30","2019","01","10","11:30","0.5","","0.5","","100","","","","15","","28","","0.2","","97.94","","","","","","Rain Showers,Fog"
"-52.75","47.62","ST. JOHN'S INTL A","8403505","2019-01-10 12:30","2019","01","10","12:30","1.9","","1.9","","100","","","","18","","37","","0.4","","97.84","","","","","","Drizzle,Fog"
"-52.75","47.62","ST. JOHN'S INTL A","8403505","2019-01-10 13:30","2019","01","10","13:30","4.0","","4.0","","100","","","","19","","32","","24.1","","97.79","","","","","","NA"
"-52.75","47.62","ST. JOHN'S INTL A","8403505","2019-01-10 14:30","2019","01","10","14:30","4.5","","4.5","","100","","","","23","","18","","19.3","","97.81","","","","","","Cloudy"
"-52.75","47.62","ST. JOHN'S INTL A","8403505","2019-01-10 15:30","2019","01","10","15:30","4.5","","4.4","","99","","","","27","","13","","24.1","","97.83","","","","","","NA"
"-52.75","47.62","ST. JOHN'S INTL A","8403505","2019-01-10 16:30","2019","01","10","16:30","5.4","","5.0","","97","","","","26","","24","","24.1","","97.97","","","","","","NA"
"-52.75","47.62","ST. JOHN'S INTL A","8403505","2019-01-10 17:30","2019","01","10","17:30","4.2","","3.9","","98","","","","25","","11","","24.1","","97.99","","","","","","Mostly Cloudy"
"-52.75","47.62","ST. JOHN'S INTL A","8403505","2019-01-10 18:30","2019","01","10","18:30","3.9","","3.7","","98","","","","25","","12","","24.1","","98.07","","","","","","NA"
"-52.75","47.62","ST. JOHN'S INTL A","8403505","2019-01-10 19:30","2019","01","10","19:30","3.0","","2.6","","98","","","","25","","11","","24.1","","98.12","","","","","","NA"
"-52.75","47.62","ST. JOHN'S INTL A","8403505","2019-01-10 20:30","2019","01","10","20:30","3.0","","2.0","","94","","","","26","","15","","24.1","","98.17","","","","","","Cloudy"
"-52.75","47.62","ST. JOHN'S INTL A","8403505","2019-01-10 21:30","2019","01","10","21:30","3.0","","2.0","","93","","","","27","","17","","24.1","","98.14","","","","","","NA"
"-52.75","47.62","ST. JOHN'S INTL A","8403505","2019-01-10 22:30","2019","01","10","22:30","2.7","","2.1","","96","","","","22","","7","","24.1","","98.19","","","","","","NA"
"-52.75","47.62","ST. JOHN'S INTL A","8403505","2019-01-10 23:30","2019","01","10","23:30","2.2","","1.6","","96","","","","14","","4","","24.1","","98.17","","","","","","Rain"
"-52.75","47.62","ST. JOHN'S INTL A","8403505","2019-01-11 00:30","2019","01","11","00:30","1.4","","1.3","","99","","","","2","","4","","24.1","","98.05","","","","","","Rain"
"-52.75","47.62","ST. JOHN'S INTL A","8403505","2019-01-11 01:30","2019","01","11","01:30","1.6","","1.6","","100","","","","1","","9","","19.3","","97.92","","","","","","NA"
"-52.75","47.62","ST. JOHN'S INTL A","8403505","2019-01-11 02:30","2019","01","11","02:30","2.1","","2.1","","100","","","","35","","10","","19.3","","97.99","","","","","","Rain"
"-52.75","47.62","ST. JOHN'S INTL A","8403505","2019-01-11 03:30","2019","01","11","03:30","1.5","","1.5","","100","","","","32","","13","","24.1","","98.06","","","","","","Rain"
"-52.75","47.62","ST. JOHN'S INTL A","8403505","2019-01-11 04:30","2019","01","11","04:30","0.8","","0.8","","100","","","","35","","13","","19.3","","98.02","","","","","","Rain"
"-52.75","47.62","ST. JOHN'S INTL A","8403505","2019-01-11 05:30","2019","01","11","05:30","0.7","","0.7","","100","","","","35","","15","","24.1","","98.07","","","","","","Rain"
"-52.75","47.62","ST. JOHN'S INTL A","8403505","2019-01-11 06:30","2019","01","11","06:30","0.2","","0.2","","100","","","","36","","9","","24.1","","98.08","","","","","","NA"
"-52.75","47.62","ST. JOHN'S INTL A","8403505","2019-01-11 07:30","2019","01","11","07:30","0.0","","0.0","","100","","","","3","","10","","19.3","","98.08","","","","-3","","NA"
"-52.75","47.62","ST. JOHN'S INTL A","8403505","2019-01-11 08:30","2019","01","11","08:30","0.2","","0.2","","100","","","","36","","3","","24.1","","98.28","","","","","","Cloudy"
"-52.75","47.62","ST. JOHN'S INTL A","8403505","2019-01-11 09:30","2019","01","11","09:30","0.4","","0.4","","100","","","","4","","13","","19.3","","98.29","","","","","","NA"
"-52.75","47.62","ST. JOHN'S INTL A","8403505","2019-01-11 10:30","2019","01","11","10:30","0.3","","0.3","","100","","","","26","","9","","12.9","","98.51","","","","","","Snow Showers"
"-52.75","47.62","ST. JOHN'S INTL A","8403505","2019-01-11 11:30","2019","01","11","11:30","0.7","","0.7","","100","","","","24","","4","","4.8","","98.51","","","","","","Snow Showers"
"-52.75","47.62","ST. JOHN'S INTL A","8403505","2019-01-11 12:30","2019","01","11","12:30","1.4","","1.3","","99","","","","36","","2","","16.1","","98.50","","","","","","Rain Showers"
"-52.75","47.62","ST. JOHN'S INTL A","8403505","2019-01-11 13:30","2019","01","11","13:30","1.8","","1.6","","98","","","","36","","3","","24.1","","98.54","","","","","","Drizzle"
"-52.75","47.62","ST. JOHN'S INTL A","8403505","2019-01-11 14:30","2019","01","11","14:30","2.3","","1.9","","98","","","","21","","10","","16.1","","98.65","","","","","","Drizzle"
"-52.75","47.62","ST. JOHN'S INTL A","8403505","2019-01-11 15:30","2019","01","11","15:30","2.3","","1.8","","96","","","","22","","10","","24.1","","98.75","","","","","","Drizzle"
"-52.75","47.62","ST. JOHN'S INTL A","8403505","2019-01-11 16:30","2019","01","11","16:30","2.1","","1.8","","97","","","","20","","12","","24.1","","98.85","","","","","","NA"
"-52.75","47.62","ST. JOHN'S INTL A","8403505","2019-01-11 17:30","2019","01","11","17:30","2.1","","1.5","","96","","","","23","","23","","24.1","","98.92","","","","","","Cloudy"
"-52.75","47.62","ST. JOHN'S INTL A","8403505","2019-01-11 18:30","2019","01","11","18:30","0.3","","-0.6","","94","","","","25","","28","","24.1","","99.11","","","","","","NA"
"-52.75","47.62","ST. JOHN'S INTL A","8403505","2019-01-11 19:30","2019","01","11","19:30","0.1","","-1.5","","89","","","","24","","31","","24.1","","99.23","","","","","","NA"
"-52.75","47.62","ST. JOHN'S INTL A","8403505","2019-01-11 20:30","2019","01","11","20:30","-0.4","","-2.3","","87","","","","25","","30","","24.1","","99.35","","","","-7","","Cloudy"
"-52.75","47.62","ST. JOHN'S INTL A","8403505","2019-01-11 21:30","2019","01","11","21:30","-0.4","","-2.3","","87","","","","23","","26","","24.1","","99.45","","","","-7","","NA"
"-52.75","47.62","ST. JOHN'S INTL A","8403505","2019-01-11 22:30","2019","01","11","22:30","-0.2","","-2.4","","85","","","","23","","28","","24.1","","99.51","","","","-7","","NA"
"-52.75","47.62","ST. JOHN'S INTL A","8403505","2019-01-11 23:30","2019","01","11","23:30","-0.4","","-2.8","","84","","","","23","","23","","24.1","","99.53","","","","-6","","Cloudy"
"-52.75","47.62","ST. JOHN'S INTL A","8403505","2019-01-12 00:30","2019","01","12","00:30","-0.5","","-2.5","","87","","","","22","","22","","24.1","","99.56","","","","-6","","NA"
"-52.75","47.62","ST. JOHN'S INTL A","8403505","2019-01-12 01:30","2019","01","12","01:30","-0.6","","-1.6","","93","","","","21","","28","","24.1","","99.60","","","","-7","","Snow Showers"
"-52.75","47.62","ST. JOHN'S INTL A","8403505","2019-01-12 02:30","2019","01","12","02:30","-0.4","","-3.4","","80","","","","23","","26","","24.1","","99.68","","","","-7","","Mostly Cloudy"
"-52.75","47.62","ST. JOHN'S INTL A","8403505","2019-01-12 03:30","2019","01","12","03:30","-0.4","","-3.3","","80","","","","23","","29","","24.1","","99.74","","","","-7","","NA"
"-52.75","47.62","ST. JOHN'S INTL A","8403505","2019-01-12 04:30","2019","01","12","04:30","-0.3","","-3.3","","80","","","","22","","28","","24.1","","99.81","","","","-7","","NA"
"-52.75","47.62","ST. JOHN'S INTL A","8403505","2019-01-12 05:30","2019","01","12","05:30","-0.6","","-3.5","","81","","","","22","","19","","24.1","","99.84","","","","-6","","Mostly Cloudy"
"-52.75","47.62","ST. JOHN'S INTL A","8403505","2019-01-12 06:30","2019","01","12","06:30","-1.4","","-4.0","","82","","","","20","","27","","24.1","","99.90","","","","-8","","NA"
"-52.75","47.62","ST. JOHN'S INTL A","8403505","2019-01-12 07:30","2019","01","12","07:30","-1.8","","-4.2","","83","","","","21","","23","","24.1","","99.92","","","","-8","","NA"
"-52.75","47.62","ST. JOHN'S INTL A","8403505","2019-01-12 08:30","2019","01","12","08:30","-1.6","","-4.4","","81","","","","20","","18","","24.1","","100.01","","","","-7","","Mainly Clear"
"-52.75","47.62","ST. JOHN'S INTL A","8403505","2019-01-12 09:30","2019","01","12","09:30","-0.5","","-3.5","","80","","","","21","","24","","24.1","","100.05","","","","-6","","NA"
"-52.75","47.62","ST. JOHN'S INTL A","8403505","2019-01-12 10:30","2019","01","12","10:30","0.4","","-3.2","","77","","","","22","","34","","24.1","","100.03","","","","","","NA"
"-52.75","47.62","ST. JOHN'S INTL A","8403505","2019-01-12 11:30","2019","01","12","11:30","1.2","","-3.1","","73","","","","24","","25","","24.1","","100.00","","","","","","Mostly Cloudy"
"-52.75","47.62","ST. JOHN'S INTL A","8403505","2019-01-12 12:30","2019","01","12","12:30","0.3","","-2.6","","81","","","","24","","25","","24.1","","99.97","","","","","","NA"
"-52.75","47.62","ST. JOHN'S INTL A","8403505","2019-01-12 13:30","2019","01","12","13:30","0.3","","-3.5","","76","","","","23","","34","","24.1","","99.97","","","","","","NA"
"-52.75","47.62","ST. JOHN'S INTL A","8403505","2019-01-12 14:30","2019","01","12","14:30","0.3","","-3.7","","75","","","","23","","21","","24.1","","99.98","","","","","","Mostly Cloudy"
"-52.75","47.62","ST. JOHN'S INTL A","8403505","2019-01-12 15:30","2019","01","12","15:30","-0.1","","-5.2","","68","","","","22","","33","","24.1","","99.98","","","","-7","","NA"
"-52.75","47.62","ST. JOHN'S INTL A","8403505","2019-01-12 16:30","2019","01","12","16:30","-0.4","","-6.0","","66","","","","23","","25","","24.1","","100.00","","","","-6","","NA"
"-52.75","47.62","ST. JOHN'S INTL A","8403505","2019-01-12 17:30","2019","01","12","17:30","-0.9","","-4.2","","78","","","","23","","27","","24.1","","100.01","","","","-7","","Cloudy"
"-52.75","47.62","ST. JOHN'S INTL A","8403505","2019-01-12 18:30","2019","01","12","18:30","-1.4","","-5.1","","76","","","","23","","16","","24.1","","99.98","","","","-6","","NA"
"-52.75","47.62","ST. JOHN'S INTL A","8403505","2019-01-12 19:30","2019","01","12","19:30","-1.2","","-5.0","","75","","","","22","","25","","24.1","","99.94","","","","-7","","NA"
"-52.75","47.62","ST. JOHN'S INTL A","8403505","2019-01-12 20:30","2019","01","12","20:30","-1.2","","-5.0","","75","","","","19","","17","","24.1","","99.92","","","","-6","","Cloudy"
"-52.75","47.62","ST. JOHN'S INTL A","8403505","2019-01-12 21:30","2019","01","12","21:30","-1.2","","-4.9","","76","","","","19","","16","","24.1","","99.89","","","","-6","","NA"
"-52.75","47.62","ST. JOHN'S INTL A","8403505","2019-01-12 22:30","2019","01","12","22:30","-1.3","","-4.4","","80","","","","22","","26","","24.1","","99.85","","","","-8","","Snow"
"-52.75","47.62","ST. JOHN'S INTL A","8403505","2019-01-12 23:30","2019","01","12","23:30","-2.7","","-3.8","","92","","","","27","","21","","19.3","","99.84","","","","-9","","Snow"
"-52.75","47.62","ST. JOHN'S INTL A","8403505","2019-01-13 00:30","2019","01","13","00:30","-3.8","","-5.3","","89","","","","27","","19","","24.1","","99.76","","","","-10","","Snow"
"-52.75","47.62","ST. JOHN'S INTL A","8403505","2019-01-13 01:30","2019","01","13","01:30","-4.7","","-7.0","","84","","","","26","","19","","24.1","","99.77","","","","-11","","NA"
"-52.75","47.62","ST. JOHN'S INTL A","8403505","2019-01-13 02:30","2019","01","13","02:30","-5.1","","-8.1","","80","","","","27","","31","","24.1","","99.79","","","","-13","","Snow"
"-52.75","47.62","ST. JOHN'S INTL A","8403505","2019-01-13 03:30","2019","01","13","03:30","-5.4","","-9.0","","76","","","","27","","30","","24.1","","99.78","","","","-14","","Snow"
"-52.75","47.62","ST. JOHN'S INTL A","8403505","2019-01-13 04:30","2019","01","13","04:30","-5.5","","-10.1","","70","","","","26","","30","","24.1","","99.76","","","","-14","","Snow"
"-52.75","47.62","ST. JOHN'S INTL A","8403505","2019-01-13 05:30","2019","01","13","05:30","-5.7","","-10.4","","70","","","","28","","39","","24.1","","99.73","","","","-15","","Snow"
"-52.75","47.62","ST. JOHN'S INTL A","8403505","2019-01-13 06:30","2019","01","13","06:30","-5.8","","-9.0","","79","","","","29","","36","","24.1","","99.76","","","","-15","","Snow"
"-52.75","47.62","ST. JOHN'S INTL A","8403505","2019-01-13 07:30","2019","01","13","07:30","-6.4","","-9.8","","77","","","","27","","27","","24.1","","99.78","","","","-14","","NA"
"-52.75","47.62","ST. JOHN'S INTL A","8403505","2019-01-13 08:30","2019","01","13","08:30","-5.6","","-8.7","","79","","","","26","","32","","24.1","","99.82","","","","-14","","Mainly Clear"
"-52.75","47.62","ST. JOHN'S INTL A","8403505","2019-01-13 09:30","2019","01","13","09:30","-4.9","","-8.2","","77","","","","25","","36","","24.1","","99.85","","","","-14","","NA"
"-52.75","47.62","ST. JOHN'S INTL A","8403505","2019-01-13 10:30","2019","01","13","10:30","-3.9","","-7.8","","75","","","","26","","36","","24.1","","99.86","","","","-12","","NA"
"-52.75","47.62","ST. JOHN'S INTL A","8403505","2019-01-13 11:30","2019","01","13","11:30","-3.4","","-7.3","","74","","","","25","","41","","24.1","","99.81","","","","-12","","Mostly Cloudy"
"-52.75","47.62","ST. JOHN'S INTL A","8403505","2019-01-13 12:30","2019","01","13","12:30","-2.6","","-7.3","","71","","","","26","","47","","24.1","","99.74","","","","-11","","NA"
"-52.75","47.62","ST. JOHN'S INTL A","8403505","2019-01-13 13:30","2019","01","13","13:30","-2.4","","-7.1","","70","","","","26","","44","","24.1","","99.72","","","","-11","","NA"
"-52.75","47.62","ST. JOHN'S INTL A","8403505","2019-01-13 14:30","2019","01","13","14:30","-2.9","","-7.7","","70","","","","25","","46","","24.1","","99.76","","","","-12","","Mostly Cloudy"
"-52.75","47.62","ST. JOHN'S INTL A","8403505","2019-01-13 15:30","2019","01","13","15:30","-3.2","","-8.1","","69","","","","24","","41","","24.1","","99.78","","","","-12","","NA"
"-52.75","47.62","ST. JOHN'S INTL A","8403505","2019-01-13 16:30","2019","01","13","16:30","-3.5","","-7.4","","74","","","","25","","30","","24.1","","99.82","","","","-11","","NA"
"-52.75","47.62","ST. JOHN'S INTL A","8403505","2019-01-13 17:30","2019","01","13","17:30","-3.4","","-7.0","","76","","","","24","","32","","16.1","","99.86","","","","-11","","Snow Showers,Blowing Snow"
"-52.75","47.62","ST. JOHN'S INTL A","8403505","2019-01-13 18:30","2019","01","13","18:30","-3.7","","-5.3","","89","","","","25","","24","","8.1","","99.92","","","","-11","","Snow Showers,Blowing Snow"
"-52.75","47.62","ST. JOHN'S INTL A","8403505","2019-01-13 19:30","2019","01","13","19:30","-4.1","","-6.3","","84","","","","26","","28","","24.1","","99.97","","","","-12","","NA"
"-52.75","47.62","ST. JOHN'S INTL A","8403505","2019-01-13 20:30","2019","01","13","20:30","-3.8","","-7.8","","74","","","","27","","30","","24.1","","99.99","","","","-11","","Cloudy"
"-52.75","47.62","ST. JOHN'S INTL A","8403505","2019-01-13 21:30","2019","01","13","21:30","-3.9","","-8.7","","69","","","","27","","34","","24.1","","100.06","","","","-12","","NA"
"-52.75","47.62","ST. JOHN'S INTL A","8403505","2019-01-13 22:30","2019","01","13","22:30","-4.3","","-8.2","","74","","","","27","","35","","24.1","","100.03","","","","-13","","NA"
"-52.75","47.62","ST. JOHN'S INTL A","8403505","2019-01-13 23:30","2019","01","13","23:30","-4.4","","-8.2","","75","","","","27","","26","","24.1","","100.06","","","","-12","","Cloudy"
"-52.75","47.62","ST. JOHN'S INTL A","8403505","2019-01-14 00:30","2019","01","14","00:30","-5.0","","-8.0","","79","","","","30","","24","","24.1","","100.06","","","","-12","","NA"
"-52.75","47.62","ST. JOHN'S INTL A","8403505","2019-01-14 01:30","2019","01","14","01:30","-5.0","","-8.5","","77","","","","28","","34","","24.1","","100.04","","","","-13","","NA"
"-52.75","47.62","ST. JOHN'S INTL A","8403505","2019-01-14 02:30","2019","01","14","02:30","-5.2","","-8.7","","76","","","","27","","36","","24.1","","100.05","","","","-14","","Mostly Cloudy"
"-52.75","47.62","ST. JOHN'S INTL A","8403505","2019-01-14 03:30","2019","01","14","03:30","-5.3","","-8.3","","79","","","","28","","41","","24.1","","100.07","","","","-15","","NA"
"-52.75","47.62","ST. JOHN'S INTL A","8403505","2019-01-14 04:30","2019","01","14","04:30","-5.7","","-8.5","","81","","","","29","","32","","24.1","","100.12","","","","-14","","NA"
"-52.75","47.62","ST. JOHN'S INTL A","8403505","2019-01-14 05:30","2019","01","14","05:30","-6.2","","-9.2","","80","","","","27","","26","","24.1","","100.11","","","","-14","","Mostly Cloudy"
"-52.75","47.62","ST. JOHN'S INTL A","8403505","2019-01-14 06:30","2019","01","14","06:30","-7.0","","-9.4","","84","","","","28","","47","","24.1","","100.08","","","","-17","","NA"
"-52.75","47.62","ST. JOHN'S INTL A","8403505","2019-01-14 07:30","2019","01","14","07:30","-7.1","","-9.6","","82","","","","28","","40","","24.1","","100.16","","","","-17","","NA"
"-52.75","47.62","ST. JOHN'S INTL A","8403505","2019-01-14 08:30","2019","01","14","08:30","-6.9","","-9.6","","81","","","","28","","42","","24.1","","100.24","","","","-17","","Mainly Clear"
"-52.75","47.62","ST. JOHN'S INTL A","8403505","2019-01-14 09:30","2019","01","14","09:30","-6.2","","-9.0","","81","","","","28","","36","","24.1","","100.34","","","","-15","","NA"
"-52.75","47.62","ST. JOHN'S INTL A","8403505","2019-01-14 10:30","2019","01","14","10:30","-5.8","","-8.6","","81","","","","28","","36","","24.1","","100.34","","","","-15","","NA"
"-52.75","47.62","ST. JOHN'S INTL A","8403505","2019-01-14 11:30","2019","01","14","11:30","-5.2","","-8.3","","79","","","","27","","39","","24.1","","100.27","","","","-14","","Mainly Clear"
"-52.75","47.62","ST. JOHN'S INTL A","8403505","2019-01-14 12:30","2019","01","14","12:30","-4.2","","-8.3","","74","","","","28","","36","","24.1","","100.20","","","","-13","","NA"
"-52.75","47.62","ST. JOHN'S INTL A","8403505","2019-01-14 13:30","2019","01","14","13:30","-3.9","","-8.6","","70","","","","29","","46","","24.1","","100.20","","","","-13","","NA"
"-52.75","47.62","ST. JOHN'S INTL A","8403505","2019-01-14 14:30","2019","01","14","14:30","-3.8","","-9.4","","65","","","","28","","31","","24.1","","100.26","","","","-12","","Mainly Clear"
"-52.75","47.62","ST. JOHN'S INTL A","8403505","2019-01-14 15:30","2019","01","14","15:30","-3.7","","-9.2","","66","","","","27","","27","","24.1","","100.32","","","","-11","","NA"
"-52.75","47.62","ST. JOHN'S INTL A","8403505","2019-01-14 16:30","2019","01","14","16:30","-4.7","","-9.1","","71","","","","27","","23","","24.1","","100.33","","","","-12","","NA"
"-52.75","47.62","ST. JOHN'S INTL A","8403505","2019-01-14 17:30","2019","01","14","17:30","-5.2","","-8.4","","78","","","","26","","22","","24.1","","100.38","","","","-12","","Mainly Clear"
"-52.75","47.62","ST. JOHN'S INTL A","8403505","2019-01-14 18:30","2019","01","14","18:30","-5.3","","-8.2","","81","","","","25","","17","","24.1","","100.40","","","","-11","","NA"
"-52.75","47.62","ST. JOHN'S INTL A","8403505","2019-01-14 19:30","2019","01","14","19:30","-5.3","","-8.3","","79","","","","26","","22","","24.1","","100.44","","","","-12","","NA"
"-52.75","47.62","ST. JOHN'S INTL A","8403505","2019-01-14 20:30","2019","01","14","20:30","-4.9","","-7.7","","81","","","","26","","22","","24.1","","100.42","","","","-12","","Cloudy"
"-52.75","47.62","ST. JOHN'S INTL A","8403505","2019-01-14 21:30","2019","01","14","21:30","-4.7","","-7.3","","82","","","","25","","14","","24.1","","100.44","","","","-10","","NA"
"-52.75","47.62","ST. JOHN'S INTL A","8403505","2019-01-14 22:30","2019","01","14","22:30","-4.3","","-7.3","","80","","","","24","","14","","24.1","","100.41","","","","-9","","NA"
"-52.75","47.62","ST. JOHN'S INTL A","8403505","2019-01-14 23:30","2019","01","14","23:30","-4.4","","-7.3","","80","","","","24","","13","","24.1","","100.38","","","","-9","","Cloudy"
"-52.75","47.62","ST. JOHN'S INTL A","8403505","2019-01-15 00:30","2019","01","15","00:30","-4.5","","-7.6","","79","","","","23","","12","","24.1","","100.32","","","","-9","","NA"
"-52.75","47.62","ST. JOHN'S INTL A","8403505","2019-01-15 01:30","2019","01","15","01:30","-4.5","","-7.5","","80","","","","22","","11","","24.1","","100.27","","","","-9","","NA"
"-52.75","47.62","ST. JOHN'S INTL A","8403505","2019-01-15 02:30","2019","01","15","02:30","-4.5","","-7.3","","81","","","","19","","12","","24.1","","100.24","","","","-9","","Cloudy"
"-52.75","47.62","ST. JOHN'S INTL A","8403505","2019-01-15 03:30","2019","01","15","03:30","-4.6","","-6.9","","84","","","","18","","9","","24.1","","100.16","","","","-8","","NA"
"-52.75","47.62","ST. JOHN'S INTL A","8403505","2019-01-15 04:30","2019","01","15","04:30","-4.6","","-7.0","","83","","","","14","","10","","24.1","","100.04","","","","-9","","NA"
"-52.75","47.62","ST. JOHN'S INTL A","8403505","2019-01-15 05:30","2019","01","15","05:30","-3.6","","-6.2","","83","","","","14","","22","","24.1","","99.90","","","","-10","","Cloudy"
"-52.75","47.62","ST. JOHN'S INTL A","8403505","2019-01-15 06:30","2019","01","15","06:30","-3.6","","-5.6","","86","","","","14","","20","","24.1","","99.82","","","","-10","","NA"
"-52.75","47.62","ST. JOHN'S INTL A","8403505","2019-01-15 07:30","2019","01","15","07:30","-3.4","","-5.3","","87","","","","13","","28","","24.1","","99.74","","","","-11","","NA"
"-52.75","47.62","ST. JOHN'S INTL A","8403505","2019-01-15 08:30","2019","01","15","08:30","-3.1","","-4.7","","89","","","","13","","29","","24.1","","99.64","","","","-10","","Cloudy"
"-52.75","47.62","ST. JOHN'S INTL A","8403505","2019-01-15 09:30","2019","01","15","09:30","-3.1","","-3.8","","95","","","","13","","39","","0.8","","99.47","","","","-11","","Moderate Snow,Blowing Snow"
"-52.75","47.62","ST. JOHN'S INTL A","8403505","2019-01-15 10:30","2019","01","15","10:30","-2.8","","-3.1","","98","","","","12","","37","","0.6","","99.28","","","","-11","","Moderate Snow,Blowing Snow"
"-52.75","47.62","ST. JOHN'S INTL A","8403505","2019-01-15 11:30","2019","01","15","11:30","-2.6","","-3.0","","97","","","","10","","46","","0.4","","98.82","","","","-11","","Moderate Snow,Blowing Snow"
"-52.75","47.62","ST. JOHN'S INTL A","8403505","2019-01-15 12:30","2019","01","15","12:30","-1.7","","-1.9","","99","","","","10","","38","","1.6","","98.40","","","","-9","","Ice Pellets,Blowing Snow"
"-52.75","47.62","ST. JOHN'S INTL A","8403505","2019-01-15 13:30","2019","01","15","13:30","-0.3","","-0.5","","99","","","","12","","34","","1.2","","98.11","","","","-7","","Freezing Rain,Fog"
"-52.75","47.62","ST. JOHN'S INTL A","8403505","2019-01-15 14:30","2019","01","15","14:30","0.4","","0.3","","100","","","","12","","32","","2.4","","97.74","","","","","","Heavy Rain"
"-52.75","47.62","ST. JOHN'S INTL A","8403505","2019-01-15 15:30","2019","01","15","15:30","1.3","","1.3","","100","","","","15","","23","","1.6","","97.49","","","","","","Heavy Rain,Fog"
"-52.75","47.62","ST. JOHN'S INTL A","8403505","2019-01-15 16:30","2019","01","15","16:30","2.1","","2.1","","100","","","","15","","26","","2.4","","97.28","","","","","","Moderate Rain,Fog"
"-52.75","47.62","ST. JOHN'S INTL A","8403505","2019-01-15 17:30","2019","01","15","17:30","2.3","","2.3","","100","","","","16","","28","","2.4","","97.01","","","","","","Drizzle,Fog"
"-52.75","47.62","ST. JOHN'S INTL A","8403505","2019-01-15 18:30","2019","01","15","18:30","1.9","","1.9","","100","","","","35","","9","","0.2","","96.91","","","","","","Drizzle,Fog"
"-52.75","47.62","ST. JOHN'S INTL A","8403505","2019-01-15 19:30","2019","01","15","19:30","0.6","","0.6","","100","","","","1","","18","","2.4","","96.83","","","","","","Rain,Fog"
"-52.75","47.62","ST. JOHN'S INTL A","8403505","2019-01-15 20:30","2019","01","15","20:30","0.1","","0.1","","100","","","","34","","25","","3.2","","96.81","","","","","","Rain,Fog"
"-52.75","47.62","ST. JOHN'S INTL A","8403505","2019-01-15 21:30","2019","01","15","21:30","-0.6","","-0.6","","100","","","","34","","33","","3.2","","96.91","","","","-8","","Freezing Rain,Fog"
"-52.75","47.62","ST. JOHN'S INTL A","8403505","2019-01-15 22:30","2019","01","15","22:30","-1.1","","-1.2","","100","","","","33","","43","","4.0","","97.03","","","","-9","","Snow,Fog"
"-52.75","47.62","ST. JOHN'S INTL A","8403505","2019-01-15 23:30","2019","01","15","23:30","-1.5","","-1.9","","97","","","","34","","64","","1.2","","97.26","","","","-11","","Snow Showers,Blowing Snow"
"-52.75","47.62","ST. JOHN'S INTL A","8403505","2019-01-16 00:30","2019","01","16","00:30","-1.8","","-2.8","","93","","","","32","","61","","4.0","","97.54","","","","-11","","Snow Showers,Blowing Snow"
"-52.75","47.62","ST. JOHN'S INTL A","8403505","2019-01-16 01:30","2019","01","16","01:30","-2.3","","-3.2","","94","","","","32","","56","","12.9","","97.86","","","","-12","","Snow Showers,Blowing Snow"
"-52.75","47.62","ST. JOHN'S INTL A","8403505","2019-01-16 02:30","2019","01","16","02:30","-2.7","","-4.2","","90","","","","32","","54","","24.1","","98.19","","","","-12","","Cloudy"
"-52.75","47.62","ST. JOHN'S INTL A","8403505","2019-01-16 03:30","2019","01","16","03:30","-3.0","","-4.5","","90","","","","32","","44","","24.1","","98.47","","","","-12","","NA"
"-52.75","47.62","ST. JOHN'S INTL A","8403505","2019-01-16 04:30","2019","01","16","04:30","-3.6","","-5.3","","88","","","","31","","45","","24.1","","98.69","","","","-13","","NA"
"-52.75","47.62","ST. JOHN'S INTL A","8403505","2019-01-16 05:30","2019","01","16","05:30","-4.2","","-5.8","","89","","","","32","","41","","24.1","","98.91","","","","-13","","Cloudy"
"-52.75","47.62","ST. JOHN'S INTL A","8403505","2019-01-16 06:30","2019","01","16","06:30","-4.6","","-5.9","","91","","","","31","","33","","24.1","","99.16","","","","-13","","NA"
"-52.75","47.62","ST. JOHN'S INTL A","8403505","2019-01-16 07:30","2019","01","16","07:30","-5.2","","-7.0","","87","","","","32","","34","","24.1","","99.33","","","","-14","","NA"
"-52.75","47.62","ST. JOHN'S INTL A","8403505","2019-01-16 08:30","2019","01","16","08:30","-5.5","","-6.9","","90","","","","29","","35","","24.1","","99.51","","","","-14","","Cloudy"
"-52.75","47.62","ST. JOHN'S INTL A","8403505","2019-01-16 09:30","2019","01","16","09:30","-5.7","","-7.9","","85","","","","33","","23","","24.1","","99.71","","","","-13","","NA"
"-52.75","47.62","ST. JOHN'S INTL A","8403505","2019-01-16 10:30","2019","01","16","10:30","-5.6","","-7.5","","87","","","","32","","18","","24.1","","99.82","","","","-12","","NA"
"-52.75","47.62","ST. JOHN'S INTL A","8403505","2019-01-16 11:30","2019","01","16","11:30","-5.9","","-7.7","","87","","","","28","","15","","24.1","","99.87","","","","-12","","Cloudy"
"-52.75","47.62","ST. JOHN'S INTL A","8403505","2019-01-16 12:30","2019","01","16","12:30","-6.4","","-8.7","","84","","","","26","","14","","24.1","","99.92","","","","-12","","NA"
"-52.75","47.62","ST. JOHN'S INTL A","8403505","2019-01-16 13:30","2019","01","16","13:30","-6.2","","-8.5","","84","","","","25","","12","","24.1","","99.91","","","","-11","","NA"
"-52.75","47.62","ST. JOHN'S INTL A","8403505","2019-01-16 14:30","2019","01","16","14:30","-5.8","","-7.9","","85","","","","26","","11","","24.1","","99.97","","","","-11","","Snow Showers"
"-52.75","47.62","ST. JOHN'S INTL A","8403505","2019-01-16 15:30","2019","01","16","15:30","-5.6","","-7.9","","84","","","","24","","17","","16.1","","100.05","","","","-12","","Snow Showers"
"-52.75","47.62","ST. JOHN'S INTL A","8403505","2019-01-16 16:30","2019","01","16","16:30","-5.8","","-7.6","","87","","","","23","","10","","24.1","","100.10","","","","-10","","Snow Showers"
"-52.75","47.62","ST. JOHN'S INTL A","8403505","2019-01-16 17:30","2019","01","16","17:30","-5.6","","-7.8","","84","","","","20","","8","","24.1","","100.08","","","","-9","","Snow Showers"
"-52.75","47.62","ST. JOHN'S INTL A","8403505","2019-01-16 18:30","2019","01","16","18:30","-5.5","","-7.7","","84","","","","0","","1","","24.1","","100.06","","","","-6","","NA"
"-52.75","47.62","ST. JOHN'S INTL A","8403505","2019-01-16 19:30","2019","01","16","19:30","-5.0","","-7.4","","83","","","","20","","9","","24.1","","100.08","","","","-9","","NA"
"-52.75","47.62","ST. JOHN'S INTL A","8403505","2019-01-16 20:30","2019","01","16","20:30","-5.0","","-6.9","","87","","","","18","","12","","24.1","","100.08","","","","-10","","Cloudy"
"-52.75","47.62","ST. JOHN'S INTL A","8403505","2019-01-16 21:30","2019","01","16","21:30","-4.6","","-6.6","","86","","","","20","","12","","24.1","","100.09","","","","-9","","NA"
"-52.75","47.62","ST. JOHN'S INTL A","8403505","2019-01-16 22:30","2019","01","16","22:30","-4.2","","-6.2","","86","","","","20","","14","","24.1","","100.08","","","","-9","","NA"
"-52.75","47.62","ST. JOHN'S INTL A","8403505","2019-01-16 23:30","2019","01","16","23:30","-4.2","","-6.0","","87","","","","19","","13","","24.1","","100.03","","","","-9","","Cloudy"
"-52.75","47.62","ST. JOHN'S INTL A","8403505","2019-01-17 00:30","2019","01","17","00:30","-3.8","","-5.9","","85","","","","20","","12","","24.1","","99.95","","","","-8","","NA"
"-52.75","47.62","ST. JOHN'S INTL A","8403505","2019-01-17 01:30","2019","01","17","01:30","-3.5","","-6.0","","83","","","","23","","17","","24.1","","99.95","","","","-9","","NA"
"-52.75","47.62","ST. JOHN'S INTL A","8403505","2019-01-17 02:30","2019","01","17","02:30","-3.4","","-5.5","","85","","","","20","","17","","24.1","","99.92","","","","-9","","Cloudy"
"-52.75","47.62","ST. JOHN'S INTL A","8403505","2019-01-17 03:30","2019","01","17","03:30","-3.3","","-4.9","","89","","","","20","","15","","24.1","","99.85","","","","-8","","NA"
"-52.75","47.62","ST. JOHN'S INTL A","8403505","2019-01-17 04:30","2019","01","17","04:30","-3.1","","-4.3","","91","","","","19","","18","","19.3","","99.80","","","","-9","","Snow Showers"
"-52.75","47.62","ST. JOHN'S INTL A","8403505","2019-01-17 05:30","2019","01","17","05:30","-2.9","","-4.0","","92","","","","20","","18","","24.1","","99.74","","","","-9","","Cloudy"
"-52.75","47.62","ST. JOHN'S INTL A","8403505","2019-01-17 06:30","2019","01","17","06:30","-2.4","","-4.0","","89","","","","19","","16","","24.1","","99.68","","","","-8","","NA"
"-52.75","47.62","ST. JOHN'S INTL A","8403505","2019-01-17 07:30","2019","01","17","07:30","-2.9","","-3.9","","93","","","","19","","21","","24.1","","99.56","","","","-9","","NA"
"-52.75","47.62","ST. JOHN'S INTL A","8403505","2019-01-17 08:30","2019","01","17","08:30","-1.7","","-3.0","","91","","","","17","","20","","24.1","","99.37","","","","-7","","Cloudy"
"-52.75","47.62","ST. JOHN'S INTL A","8403505","2019-01-17 09:30","2019","01","17","09:30","-0.5","","-2.0","","90","","","","18","","38","","24.1","","99.38","","","","-8","","NA"
"-52.75","47.62","ST. JOHN'S INTL A","8403505","2019-01-17 10:30","2019","01","17","10:30","0.2","","-0.8","","93","","","","19","","41","","24.1","","99.35","","","","","","NA"
"-52.75","47.62","ST. JOHN'S INTL A","8403505","2019-01-17 11:30","2019","01","17","11:30","0.8","","-0.7","","90","","","","19","","44","","24.1","","99.20","","","","","","Cloudy"
"-52.75","47.62","ST. JOHN'S INTL A","8403505","2019-01-17 12:30","2019","01","17","12:30","0.9","","-0.3","","92","","","","19","","37","","12.9","","99.04","","","","","","Snow"
"-52.75","47.62","ST. JOHN'S INTL A","8403505","2019-01-17 13:30","2019","01","17","13:30","1.2","","0.4","","94","","","","22","","32","","12.9","","99.00","","","","","","Drizzle"
"-52.75","47.62","ST. JOHN'S INTL A","8403505","2019-01-17 14:30","2019","01","17","14:30","-0.1","","-2.1","","86","","","","25","","36","","24.1","","99.10","","","","-7","","Mostly Cloudy"
"-52.75","47.62","ST. JOHN'S INTL A","8403505","2019-01-17 15:30","2019","01","17","15:30","-1.2","","-4.7","","78","","","","27","","46","","24.1","","99.21","","","","-9","","NA"
"-52.75","47.62","ST. JOHN'S INTL A","8403505","2019-01-17 16:30","2019","01","17","16:30","-3.1","","-7.5","","72","","","","26","","48","","24.1","","99.30","","","","-12","","NA"
"-52.75","47.62","ST. JOHN'S INTL A","8403505","2019-01-17 17:30","2019","01","17","17:30","-4.5","","-8.8","","72","","","","26","","40","","24.1","","99.42","","","","-13","","Mostly Cloudy"
"-52.75","47.62","ST. JOHN'S INTL A","8403505","2019-01-17 18:30","2019","01","17","18:30","-5.5","","-9.7","","72","","","","26","","36","","24.1","","99.51","","","","-14","","NA"
"-52.75","47.62","ST. JOHN'S INTL A","8403505","2019-01-17 19:30","2019","01","17","19:30","-5.7","","-10.1","","72","","","","27","","41","","24.1","","99.58","","","","-15","","NA"
"-52.75","47.62","ST. JOHN'S INTL A","8403505","2019-01-17 20:30","2019","01","17","20:30","-5.9","","-10.0","","73","","","","27","","32","","24.1","","99.67","","","","-14","","Cloudy"
"-52.75","47.62","ST. JOHN'S INTL A","8403505","2019-01-17 21:30","2019","01","17","21:30","-7.0","","-10.8","","74","","","","28","","35","","24.1","","99.81","","","","-16","","NA"
"-52.75","47.62","ST. JOHN'S INTL A","8403505","2019-01-17 22:30","2019","01","17","22:30","-8.0","","-12.4","","71","","","","28","","40","","24.1","","99.92","","","","-18","","NA"
"-52.75","47.62","ST. JOHN'S INTL A","8403505","2019-01-17 23:30","2019","01","17","23:30","-8.8","","-15.0","","61","","","","27","","38","","24.1","","100.05","","","","-19","","Mainly Clear"
"-52.75","47.62","ST. JOHN'S INTL A","8403505","2019-01-18 00:30","2019","01","18","00:30","-9.1","","-15.3","","61","","","","28","","29","","24.1","","100.08","","","","-18","","NA"
"-52.75","47.62","ST. JOHN'S INTL A","8403505","2019-01-18 01:30","2019","01","18","01:30","-9.3","","-15.0","","63","","","","29","","50","","24.1","","100.15","","","","-21","","NA"
"-52.75","47.62","ST. JOHN'S INTL A","8403505","2019-01-18 02:30","2019","01","18","02:30","-9.8","","-15.0","","66","","","","28","","34","","24.1","","100.33","","","","-20","","Mainly Clear"
"-52.75","47.62","ST. JOHN'S INTL A","8403505","2019-01-18 03:30","2019","01","18","03:30","-10.1","","-15.3","","66","","","","28","","21","","24.1","","100.45","","","","-18","","NA"
"-52.75","47.62","ST. JOHN'S INTL A","8403505","2019-01-18 04:30","2019","01","18","04:30","-10.4","","-15.6","","66","","","","29","","28","","24.1","","100.54","","","","-20","","NA"
"-52.75","47.62","ST. JOHN'S INTL A","8403505","2019-01-18 05:30","2019","01","18","05:30","-10.7","","-15.8","","66","","","","30","","24","","24.1","","100.61","","","","-19","","Clear"
"-52.75","47.62","ST. JOHN'S INTL A","8403505","2019-01-18 06:30","2019","01","18","06:30","-10.7","","-16.6","","62","","","","31","","29","","24.1","","100.71","","","","-20","","NA"
"-52.75","47.62","ST. JOHN'S INTL A","8403505","2019-01-18 07:30","2019","01","18","07:30","-10.9","","-16.2","","65","","","","29","","22","","24.1","","100.81","","","","-19","","NA"
"-52.75","47.62","ST. JOHN'S INTL A","8403505","2019-01-18 08:30","2019","01","18","08:30","-10.5","","-15.8","","66","","","","30","","32","","24.1","","100.90","","","","-20","","Mainly Clear"
"-52.75","47.62","ST. JOHN'S INTL A","8403505","2019-01-18 09:30","2019","01","18","09:30","-9.8","","-15.1","","66","","","","30","","29","","24.1","","101.05","","","","-19","","NA"
"-52.75","47.62","ST. JOHN'S INTL A","8403505","2019-01-18 10:30","2019","01","18","10:30","-9.4","","-14.8","","65","","","","28","","32","","24.1","","101.10","","","","-19","","NA"
"-52.75","47.62","ST. JOHN'S INTL A","8403505","2019-01-18 11:30","2019","01","18","11:30","-8.8","","-15.1","","61","","","","29","","31","","24.1","","101.13","","","","-18","","Mainly Clear"
"-52.75","47.62","ST. JOHN'S INTL A","8403505","2019-01-18 12:30","2019","01","18","12:30","-8.2","","-14.2","","62","","","","30","","30","","24.1","","101.07","","","","-17","","NA"
"-52.75","47.62","ST. JOHN'S INTL A","8403505","2019-01-18 13:30","2019","01","18","13:30","-8.1","","-13.4","","66","","","","30","","21","","24.1","","101.07","","","","-16","","NA"
"-52.75","47.62","ST. JOHN'S INTL A","8403505","2019-01-18 14:30","2019","01","18","14:30","-7.7","","-13.4","","64","","","","27","","18","","24.1","","101.07","","","","-15","","Mostly Cloudy"
"-52.75","47.62","ST. JOHN'S INTL A","8403505","2019-01-18 15:30","2019","01","18","15:30","-7.5","","-13.0","","65","","","","25","","14","","24.1","","101.11","","","","-13","","NA"
"-52.75","47.62","ST. JOHN'S INTL A","8403505","2019-01-18 16:30","2019","01","18","16:30","-7.7","","-12.8","","67","","","","21","","5","","24.1","","101.14","","","","-10","","NA"
"-52.75","47.62","ST. JOHN'S INTL A","8403505","2019-01-18 17:30","2019","01","18","17:30","-7.6","","-12.5","","68","","","","19","","12","","24.1","","101.18","","","","-13","","Mostly Cloudy"
"-52.75","47.62","ST. JOHN'S INTL A","8403505","2019-01-18 18:30","2019","01","18","18:30","-7.3","","-12.0","","70","","","","18","","13","","24.1","","101.16","","","","-13","","NA"
"-52.75","47.62","ST. JOHN'S INTL A","8403505","2019-01-18 19:30","2019","01","18","19:30","-6.9","","-11.4","","71","","","","19","","16","","24.1","","101.17","","","","-13","","NA"
"-52.75","47.62","ST. JOHN'S INTL A","8403505","2019-01-18 20:30","2019","01","18","20:30","-6.5","","-11.0","","71","","","","19","","16","","24.1","","101.14","","","","-13","","Cloudy"
"-52.75","47.62","ST. JOHN'S INTL A","8403505","2019-01-18 21:30","2019","01","18","21:30","-6.3","","-10.6","","72","","","","20","","11","","24.1","","101.12","","","","-11","","NA"
"-52.75","47.62","ST. JOHN'S INTL A","8403505","2019-01-18 22:30","2019","01","18","22:30","-6.3","","-10.1","","74","","","","20","","8","","24.1","","101.05","","","","-10","","NA"
"-52.75","47.62","ST. JOHN'S INTL A","8403505","2019-01-18 23:30","2019","01","18","23:30","-5.5","","-9.2","","76","","","","18","","19","","24.1","","100.95","","","","-12","","Cloudy"
"-52.75","47.62","ST. JOHN'S INTL A","8403505","2019-01-19 00:30","2019","01","19","00:30","-5.6","","-9.3","","75","","","","18","","22","","24.1","","100.86","","","","-13","","NA"
"-52.75","47.62","ST. JOHN'S INTL A","8403505","2019-01-19 01:30","2019","01","19","01:30","-5.5","","-8.9","","77","","","","17","","17","","24.1","","100.73","","","","-12","","NA"
"-52.75","47.62","ST. JOHN'S INTL A","8403505","2019-01-19 02:30","2019","01","19","02:30","-4.7","","-8.4","","76","","","","17","","30","","24.1","","100.66","","","","-13","","Cloudy"
"-52.75","47.62","ST. JOHN'S INTL A","8403505","2019-01-19 03:30","2019","01","19","03:30","-4.4","","-7.3","","80","","","","17","","37","","24.1","","100.55","","","","-13","","NA"
"-52.75","47.62","ST. JOHN'S INTL A","8403505","2019-01-19 04:30","2019","01","19","04:30","-4.3","","-6.7","","84","","","","16","","33","","24.1","","100.38","","","","-12","","Snow"
"-52.75","47.62","ST. JOHN'S INTL A","8403505","2019-01-19 05:30","2019","01","19","05:30","-4.3","","-5.0","","95","","","","16","","27","","2.0","","100.27","","","","-12","","Snow"
"-52.75","47.62","ST. JOHN'S INTL A","8403505","2019-01-19 06:30","2019","01","19","06:30","-4.0","","-4.5","","96","","","","16","","28","","1.2","","100.11","","","","-11","","Snow"
"-52.75","47.62","ST. JOHN'S INTL A","8403505","2019-01-19 07:30","2019","01","19","07:30","-3.6","","-4.1","","96","","","","15","","36","","0.4","","99.90","","","","-12","","Heavy Snow"
"-52.75","47.62","ST. JOHN'S INTL A","8403505","2019-01-19 08:30","2019","01","19","08:30","-2.8","","-3.2","","97","","","","15","","35","","0.8","","99.72","","","","-11","","Moderate Snow"
"-52.75","47.62","ST. JOHN'S INTL A","8403505","2019-01-19 09:30","2019","01","19","09:30","-2.4","","-2.8","","98","","","","16","","39","","0.4","","99.64","","","","-11","","Heavy Snow"
"-52.75","47.62","ST. JOHN'S INTL A","8403505","2019-01-19 10:30","2019","01","19","10:30","-1.6","","-2.1","","96","","","","17","","39","","0.8","","99.51","","","","-9","","Moderate Snow"
"-52.75","47.62","ST. JOHN'S INTL A","8403505","2019-01-19 11:30","2019","01","19","11:30","-1.1","","-1.5","","97","","","","16","","20","","4.0","","99.34","","","","-7","","Snow"
"-52.75","47.62","ST. JOHN'S INTL A","8403505","2019-01-19 12:30","2019","01","19","12:30","-0.9","","-1.1","","98","","","","15","","17","","0.4","","99.14","","","","-6","","Freezing Drizzle,Freezing Fog"
"-52.75","47.62","ST. JOHN'S INTL A","8403505","2019-01-19 13:30","2019","01","19","13:30","-0.7","","-0.8","","99","","","","21","","6","","0.4","","99.09","","","","-3","","Freezing Fog"
"-52.75","47.62","ST. JOHN'S INTL A","8403505","2019-01-19 14:30","2019","01","19","14:30","0.5","","-0.6","","93","","","","28","","30","","24.1","","99.14","","","","","","Cloudy"
"-52.75","47.62","ST. JOHN'S INTL A","8403505","2019-01-19 15:30","2019","01","19","15:30","0.2","","-0.7","","94","","","","29","","27","","24.1","","99.24","","","","","","NA"
"-52.75","47.62","ST. JOHN'S INTL A","8403505","2019-01-19 16:30","2019","01","19","16:30","-0.3","","-0.9","","96","","","","29","","31","","24.1","","99.40","","","","-7","","Snow"
"-52.75","47.62","ST. JOHN'S INTL A","8403505","2019-01-19 17:30","2019","01","19","17:30","-1.8","","-4.4","","83","","","","29","","32","","24.1","","99.61","","","","-9","","Mostly Cloudy"
"-52.75","47.62","ST. JOHN'S INTL A","8403505","2019-01-19 18:30","2019","01","19","18:30","-3.7","","-7.0","","78","","","","30","","22","","24.1","","99.78","","","","-10","","NA"
"-52.75","47.62","ST. JOHN'S INTL A","8403505","2019-01-19 19:30","2019","01","19","19:30","-5.1","","-9.0","","74","","","","30","","17","","24.1","","99.98","","","","-11","","NA"
"-52.75","47.62","ST. JOHN'S INTL A","8403505","2019-01-19 20:30","2019","01","19","20:30","-6.9","","-11.5","","70","","","","31","","21","","24.1","","100.09","","","","-14","","Mainly Clear"
"-52.75","47.62","ST. JOHN'S INTL A","8403505","2019-01-19 21:30","2019","01","19","21:30","-8.0","","-11.7","","75","","","","30","","23","","24.1","","100.26","","","","-16","","NA"
"-52.75","47.62","ST. JOHN'S INTL A","8403505","2019-01-19 22:30","2019","01","19","22:30","-9.0","","-13.0","","73","","","","31","","26","","24.1","","100.40","","","","-18","","NA"
"-52.75","47.62","ST. JOHN'S INTL A","8403505","2019-01-19 23:30","2019","01","19","23:30","-9.7","","-13.3","","75","","","","30","","27","","24.1","","100.52","","","","-19","","Mainly Clear"
"-52.75","47.62","ST. JOHN'S INTL A","8403505","2019-01-20 00:30","2019","01","20","00:30","-10.1","","-13.9","","74","","","","30","","24","","24.1","","100.64","","","","-19","","NA"
"-52.75","47.62","ST. JOHN'S INTL A","8403505","2019-01-20 01:30","2019","01","20","01:30","-10.4","","-13.6","","77","","","","30","","19","","24.1","","100.71","","","","-18","","NA"
"-52.75","47.62","ST. JOHN'S INTL A","8403505","2019-01-20 02:30","2019","01","20","02:30","-10.1","","-13.5","","77","","","","30","","32","","24.1","","100.81","","","","-20","","Mostly Cloudy"
"-52.75","47.62","ST. JOHN'S INTL A","8403505","2019-01-20 03:30","2019","01","20","03:30","-10.3","","-14.1","","74","","","","31","","25","","24.1","","100.93","","","","-19","","NA"
"-52.75","47.62","ST. JOHN'S INTL A","8403505","2019-01-20 04:30","2019","01","20","04:30","-10.4","","-13.8","","76","","","","32","","18","","24.1","","101.02","","","","-18","","NA"
"-52.75","47.62","ST. JOHN'S INTL A","8403505","2019-01-20 05:30","2019","01","20","05:30","-10.8","","-14.0","","77","","","","32","","21","","24.1","","101.03","","","","-19","","Mostly Cloudy"
"-52.75","47.62","ST. JOHN'S INTL A","8403505","2019-01-20 06:30","2019","01","20","06:30","-10.5","","-13.6","","78","","","","31","","27","","24.1","","101.11","","","","-20","","NA"
"-52.75","47.62","ST. JOHN'S INTL A","8403505","2019-01-20 07:30","2019","01","20","07:30","-10.4","","-13.7","","77","","","","31","","19","","24.1","","101.25","","","","-18","","NA"
"-52.75","47.62","ST. JOHN'S INTL A","8403505","2019-01-20 08:30","2019","01","20","08:30","-10.4","","-14.0","","76","","","","2","","9","","24.1","","101.35","","","","-15","","Cloudy"
"-52.75","47.62","ST. JOHN'S INTL A","8403505","2019-01-20 09:30","2019","01","20","09:30","-10.3","","-14.9","","69","","","","34","","16","","24.1","","101.42","","","","-17","","NA"
"-52.75","47.62","ST. JOHN'S INTL A","8403505","2019-01-20 10:30","2019","01","20","10:30","-10.0","","-15.2","","66","","","","34","","12","","24.1","","101.48","","","","-16","","NA"
"-52.75","47.62","ST. JOHN'S INTL A","8403505","2019-01-20 11:30","2019","01","20","11:30","-9.3","","-15.3","","62","","","","2","","4","","24.1","","101.48","","","","-12","","Cloudy"
"-52.75","47.62","ST. JOHN'S INTL A","8403505","2019-01-20 12:30","2019","01","20","12:30","-8.9","","-14.3","","65","","","","1","","8","","24.1","","101.45","","","","-13","","NA"
"-52.75","47.62","ST. JOHN'S INTL A","8403505","2019-01-20 13:30","2019","01","20","13:30","-8.9","","-15.1","","61","","","","8","","4","","24.1","","101.49","","","","-11","","NA"
"-52.75","47.62","ST. JOHN'S INTL A","8403505","2019-01-20 14:30","2019","01","20","14:30","-8.8","","-14.4","","64","","","","13","","7","","24.1","","101.51","","","","-13","","Mostly Cloudy"
"-52.75","47.62","ST. JOHN'S INTL A","8403505","2019-01-20 15:30","2019","01","20","15:30","-8.9","","-13.3","","70","","","","11","","14","","24.1","","101.37","","","","-15","","NA"
"-52.75","47.62","ST. JOHN'S INTL A","8403505","2019-01-20 16:30","2019","01","20","16:30","-8.3","","-12.4","","72","","","","12","","12","","24.1","","101.43","","","","-14","","NA"
"-52.75","47.62","ST. JOHN'S INTL A","8403505","2019-01-20 17:30","2019","01","20","17:30","-7.3","","-10.8","","76","","","","13","","16","","24.1","","101.43","","","","-14","","Cloudy"
"-52.75","47.62","ST. JOHN'S INTL A","8403505","2019-01-20 18:30","2019","01","20","18:30","-6.5","","-10.1","","76","","","","13","","23","","24.1","","101.33","","","","-14","","NA"
"-52.75","47.62","ST. JOHN'S INTL A","8403505","2019-01-20 19:30","2019","01","20","19:30","-5.6","","-9.2","","76","","","","14","","24","","24.1","","101.29","","","","-13","","NA"
"-52.75","47.62","ST. JOHN'S INTL A","8403505","2019-01-20 20:30","2019","01","20","20:30","-4.8","","-8.0","","79","","","","14","","26","","24.1","","101.11","","","","-12","","Cloudy"
"-52.75","47.62","ST. JOHN'S INTL A","8403505","2019-01-20 21:30","2019","01","20","21:30","-3.9","","-6.1","","84","","","","15","","52","","24.1","","100.87","","","","-14","","NA"
"-52.75","47.62","ST. JOHN'S INTL A","8403505","2019-01-20 22:30","2019","01","20","22:30","-3.0","","-5.0","","87","","","","15","","52","","24.1","","100.73","","","","-12","","NA"
"-52.75","47.62","ST. JOHN'S INTL A","8403505","2019-01-20 23:30","2019","01","20","23:30","-2.5","","-3.7","","91","","","","16","","54","","24.1","","100.60","","","","-12","","Cloudy"
"-52.75","47.62","ST. JOHN'S INTL A","8403505","2019-01-21 00:30","2019","01","21","00:30","-2.0","","-2.8","","94","","","","16","","52","","24.1","","100.48","","","","-11","","NA"
"-52.75","47.62","ST. JOHN'S INTL A","8403505","2019-01-21 01:30","2019","01","21","01:30","-1.5","","-2.1","","96","","","","17","","50","","24.1","","100.36","","","","-10","","NA"
"-52.75","47.62","ST. JOHN'S INTL A","8403505","2019-01-21 02:30","2019","01","21","02:30","-1.2","","-1.6","","97","","","","17","","48","","16.1","","100.21","","","","-10","","Cloudy"
"-52.75","47.62","ST. JOHN'S INTL A","8403505","2019-01-21 03:30","2019","01","21","03:30","-0.9","","-1.2","","98","","","","17","","51","","3.2","","100.02","","","","-9","","Freezing Drizzle,Fog"
"-52.75","47.62","ST. JOHN'S INTL A","8403505","2019-01-21 04:30","2019","01","21","04:30","-0.2","","-0.4","","99","","","","17","","49","","2.8","","99.84","","","","-8","","Freezing Drizzle,Fog"
"-52.75","47.62","ST. JOHN'S INTL A","8403505","2019-01-21 05:30","2019","01","21","05:30","0.7","","0.6","","99","","","","17","","50","","3.2","","99.64","","","","","","Drizzle,Fog"
"-52.75","47.62","ST. JOHN'S INTL A","8403505","2019-01-21 06:30","2019","01","21","06:30","1.9","","1.8","","99","","","","19","","50","","3.2","","99.43","","","","","","Drizzle,Fog"
"-52.75","47.62","ST. JOHN'S INTL A","8403505","2019-01-21 07:30","2019","01","21","07:30","2.7","","2.6","","100","","","","19","","47","","1.0","","99.32","","","","","","Drizzle,Fog"
"-52.75","47.62","ST. JOHN'S INTL A","8403505","2019-01-21 08:30","2019","01","21","08:30","4.2","","4.2","","100","","","","19","","46","","0.4","","99.22","","","","","","Drizzle,Fog"
"-52.75","47.62","ST. JOHN'S INTL A","8403505","2019-01-21 09:30","2019","01","21","09:30","5.4","","5.4","","100","","","","19","","43","","0.8","","99.10","","","","","","Fog"
"-52.75","47.62","ST. JOHN'S INTL A","8403505","2019-01-21 10:30","2019","01","21","10:30","6.9","","6.9","","100","","","","20","","45","","24.1","","99.10","","","","","","NA"
"-52.75","47.62","ST. JOHN'S INTL A","8403505","2019-01-21 11:30","2019","01","21","11:30","9.4","","8.4","","94","","","","20","","50","","24.1","","98.96","","","","","","Cloudy"
"-52.75","47.62","ST. JOHN'S INTL A","8403505","2019-01-21 12:30","2019","01","21","12:30","10.5","","8.9","","90","","","","20","","59","","24.1","","98.83","","","","","","NA"
"-52.75","47.62","ST. JOHN'S INTL A","8403505","2019-01-21 13:30","2019","01","21","13:30","10.3","","8.7","","89","","","","19","","58","","24.1","","98.71","","","","","","NA"
"-52.75","47.62","ST. JOHN'S INTL A","8403505","2019-01-21 14:30","2019","01","21","14:30","9.8","","8.5","","92","","","","20","","50","","24.1","","98.66","","","","","","Mostly Cloudy"
"-52.75","47.62","ST. JOHN'S INTL A","8403505","2019-01-21 15:30","2019","01","21","15:30","8.9","","7.6","","91","","","","19","","49","","24.1","","98.55","","","","","","NA"
"-52.75","47.62","ST. JOHN'S INTL A","8403505","2019-01-21 16:30","2019","01","21","16:30","8.0","","7.4","","96","","","","20","","49","","24.1","","98.52","","","","","","Drizzle"
"-52.75","47.62","ST. JOHN'S INTL A","8403505","2019-01-21 17:30","2019","01","21","17:30","8.6","","8.0","","96","","","","20","","46","","24.1","","98.51","","","","","","Rain"
"-52.75","47.62","ST. JOHN'S INTL A","8403505","2019-01-21 18:30","2019","01","21","18:30","8.4","","7.9","","97","","","","20","","50","","19.3","","98.50","","","","","","Rain"
"-52.75","47.62","ST. JOHN'S INTL A","8403505","2019-01-21 19:30","2019","01","21","19:30","7.6","","7.1","","97","","","","19","","49","","8.1","","98.41","","","","","","Moderate Rain,Fog"
"-52.75","47.62","ST. JOHN'S INTL A","8403505","2019-01-21 20:30","2019","01","21","20:30","7.5","","7.1","","98","","","","19","","47","","24.1","","98.29","","","","","","Rain"
"-52.75","47.62","ST. JOHN'S INTL A","8403505","2019-01-21 21:30","2019","01","21","21:30","7.1","","6.8","","98","","","","19","","39","","6.4","","98.18","","","","","","Rain,Fog"
"-52.75","47.62","ST. JOHN'S INTL A","8403505","2019-01-21 22:30","2019","01","21","22:30","6.7","","6.5","","99","","","","19","","31","","24.1","","98.13","","","","","","Rain"
"-52.75","47.62","ST. JOHN'S INTL A","8403505","2019-01-21 23:30","2019","01","21","23:30","7.0","","6.3","","95","","","","23","","35","","24.1","","98.15","","","","","","Cloudy"
"-52.75","47.62","ST. JOHN'S INTL A","8403505","2019-01-22 00:30","2019","01","22","00:30","4.6","","4.3","","98","","","","25","","32","","24.1","","98.24","","","","","","NA"
"-52.75","47.62","ST. JOHN'S INTL A","8403505","2019-01-22 01:30","2019","01","22","01:30","4.0","","3.6","","97","","","","26","","26","","24.1","","98.20","","","","","","NA"
"-52.75","47.62","ST. JOHN'S INTL A","8403505","2019-01-22 02:30","2019","01","22","02:30","3.6","","3.3","","98","","","","19","","13","","24.1","","98.17","","","","","","Cloudy"
"-52.75","47.62","ST. JOHN'S INTL A","8403505","2019-01-22 03:30","2019","01","22","03:30","3.5","","3.4","","99","","","","19","","16","","24.1","","98.12","","","","","","NA"
"-52.75","47.62","ST. JOHN'S INTL A","8403505","2019-01-22 04:30","2019","01","22","04:30","2.2","","1.7","","97","","","","27","","24","","24.1","","98.13","","","","","","NA"
"-52.75","47.62","ST. JOHN'S INTL A","8403505","2019-01-22 05:30","2019","01","22","05:30","0.7","","0.1","","96","","","","26","","36","","24.1","","98.20","","","","","","Rain Showers"
"-52.75","47.62","ST. JOHN'S INTL A","8403505","2019-01-22 06:30","2019","01","22","06:30","-0.2","","-0.5","","98","","","","27","","32","","24.1","","98.17","","","","-7","","NA"
"-52.75","47.62","ST. JOHN'S INTL A","8403505","2019-01-22 07:30","2019","01","22","07:30","-0.4","","-0.6","","99","","","","28","","35","","19.3","","98.12","","","","-7","","NA"
"-52.75","47.62","ST. JOHN'S INTL A","8403505","2019-01-22 08:30","2019","01","22","08:30","-0.4","","-0.8","","98","","","","28","","42","","12.9","","98.20","","","","-8","","Snow Showers"
"-52.75","47.62","ST. JOHN'S INTL A","8403505","2019-01-22 09:30","2019","01","22","09:30","-0.3","","-0.6","","98","","","","28","","31","","2.4","","98.31","","","","-7","","Snow Showers"
"-52.75","47.62","ST. JOHN'S INTL A","8403505","2019-01-22 10:30","2019","01","22","10:30","-0.4","","-0.8","","97","","","","29","","32","","6.4","","98.32","","","","-7","","Snow Showers"
"-52.75","47.62","ST. JOHN'S INTL A","8403505","2019-01-22 11:30","2019","01","22","11:30","-0.7","","-1.2","","96","","","","28","","34","","1.6","","98.37","","","","-8","","Snow Showers"
"-52.75","47.62","ST. JOHN'S INTL A","8403505","2019-01-22 12:30","2019","01","22","12:30","-0.7","","-1.3","","96","","","","28","","32","","4.8","","98.44","","","","-8","","Snow Showers"
"-52.75","47.62","ST. JOHN'S INTL A","8403505","2019-01-22 13:30","2019","01","22","13:30","0.0","","-1.6","","89","","","","29","","18","","24.1","","98.40","","","","-5","","NA"
"-52.75","47.62","ST. JOHN'S INTL A","8403505","2019-01-22 14:30","2019","01","22","14:30","0.4","","-1.9","","85","","","","28","","14","","24.1","","98.45","","","","","","Mostly Cloudy"
"-52.75","47.62","ST. JOHN'S INTL A","8403505","2019-01-22 15:30","2019","01","22","15:30","-0.2","","-1.8","","89","","","","26","","19","","24.1","","98.55","","","","-5","","NA"
"-52.75","47.62","ST. JOHN'S INTL A","8403505","2019-01-22 16:30","2019","01","22","16:30","-0.5","","-1.8","","91","","","","27","","22","","24.1","","98.58","","","","-6","","NA"
"-52.75","47.62","ST. JOHN'S INTL A","8403505","2019-01-22 17:30","2019","01","22","17:30","-0.8","","-2.3","","90","","","","29","","17","","24.1","","98.63","","","","-6","","Mostly Cloudy"
"-52.75","47.62","ST. JOHN'S INTL A","8403505","2019-01-22 18:30","2019","01","22","18:30","-1.0","","-2.1","","92","","","","26","","13","","19.3","","98.67","","","","-5","","Snow Showers"
"-52.75","47.62","ST. JOHN'S INTL A","8403505","2019-01-22 19:30","2019","01","22","19:30","-1.6","","-2.1","","96","","","","30","","8","","3.6","","98.64","","","","-5","","Snow Showers"
"-52.75","47.62","ST. JOHN'S INTL A","8403505","2019-01-22 20:30","2019","01","22","20:30","-1.5","","-1.9","","97","","","","25","","14","","3.2","","98.70","","","","-6","","Snow Showers"
"-52.75","47.62","ST. JOHN'S INTL A","8403505","2019-01-22 21:30","2019","01","22","21:30","-1.7","","-2.4","","95","","","","26","","16","","24.1","","98.73","","","","-7","","NA"
"-52.75","47.62","ST. JOHN'S INTL A","8403505","2019-01-22 22:30","2019","01","22","22:30","-2.6","","-3.4","","94","","","","29","","27","","8.1","","98.74","","","","-10","","Snow Showers"
"-52.75","47.62","ST. JOHN'S INTL A","8403505","2019-01-22 23:30","2019","01","22","23:30","-3.1","","-4.1","","93","","","","29","","19","","24.1","","98.76","","","","-9","","Cloudy"
"-52.75","47.62","ST. JOHN'S INTL A","8403505","2019-01-23 00:30","2019","01","23","00:30","-3.4","","-5.3","","87","","","","28","","15","","24.1","","98.83","","","","-9","","NA"
"-52.75","47.62","ST. JOHN'S INTL A","8403505","2019-01-23 01:30","2019","01","23","01:30","-3.5","","-5.2","","88","","","","27","","21","","8.1","","98.83","","","","-10","","Snow Showers"
"-52.75","47.62","ST. JOHN'S INTL A","8403505","2019-01-23 02:30","2019","01","23","02:30","-4.2","","-5.8","","89","","","","27","","27","","4.8","","98.89","","","","-12","","Snow Showers,Blowing Snow"
"-52.75","47.62","ST. JOHN'S INTL A","8403505","2019-01-23 03:30","2019","01","23","03:30","-4.2","","-5.9","","88","","","","27","","17","","24.1","","98.93","","","","-10","","Snow Showers"
"-52.75","47.62","ST. JOHN'S INTL A","8403505","2019-01-23 04:30","2019","01","23","04:30","-5.0","","-6.1","","92","","","","31","","27","","2.0","","99.02","","","","-13","","Snow Showers"
"-52.75","47.62","ST. JOHN'S INTL A","8403505","2019-01-23 05:30","2019","01","23","05:30","-5.3","","-7.3","","86","","","","31","","23","","3.6","","99.11","","","","-12","","Snow Showers,Blowing Snow"
"-52.75","47.62","ST. JOHN'S INTL A","8403505","2019-01-23 06:30","2019","01","23","06:30","-5.8","","-7.6","","87","","","","29","","30","","24.1","","99.20","","","","-14","","Blowing Snow"
"-52.75","47.62","ST. JOHN'S INTL A","8403505","2019-01-23 07:30","2019","01","23","07:30","-5.9","","-7.4","","90","","","","28","","26","","24.1","","99.32","","","","-14","","NA"
"-52.75","47.62","ST. JOHN'S INTL A","8403505","2019-01-23 08:30","2019","01","23","08:30","-5.8","","-7.2","","90","","","","28","","30","","24.1","","99.46","","","","-14","","Cloudy"
"-52.75","47.62","ST. JOHN'S INTL A","8403505","2019-01-23 09:30","2019","01","23","09:30","-4.8","","-6.2","","90","","","","29","","29","","24.1","","99.58","","","","-13","","NA"
"-52.75","47.62","ST. JOHN'S INTL A","8403505","2019-01-23 10:30","2019","01","23","10:30","-4.1","","-5.1","","93","","","","31","","27","","24.1","","99.69","","","","-11","","Blowing Snow"
"-52.75","47.62","ST. JOHN'S INTL A","8403505","2019-01-23 11:30","2019","01","23","11:30","-3.1","","-5.1","","86","","","","33","","38","","24.1","","99.77","","","","-11","","Snow Showers,Blowing Snow"
"-52.75","47.62","ST. JOHN'S INTL A","8403505","2019-01-23 12:30","2019","01","23","12:30","-3.0","","-5.5","","83","","","","34","","31","","24.1","","99.83","","","","-11","","Blowing Snow"
"-52.75","47.62","ST. JOHN'S INTL A","8403505","2019-01-23 13:30","2019","01","23","13:30","-3.1","","-6.3","","79","","","","35","","35","","24.1","","99.88","","","","-11","","Blowing Snow"
"-52.75","47.62","ST. JOHN'S INTL A","8403505","2019-01-23 14:30","2019","01","23","14:30","-2.7","","-7.2","","71","","","","34","","28","","24.1","","99.96","","","","-10","","Blowing Snow"
"-52.75","47.62","ST. JOHN'S INTL A","8403505","2019-01-23 15:30","2019","01","23","15:30","-2.7","","-7.5","","70","","","","34","","21","","24.1","","100.06","","","","-9","","Blowing Snow"
"-52.75","47.62","ST. JOHN'S INTL A","8403505","2019-01-23 16:30","2019","01","23","16:30","-3.6","","-7.8","","73","","","","34","","18","","24.1","","100.21","","","","-9","","NA"
"-52.75","47.62","ST. JOHN'S INTL A","8403505","2019-01-23 17:30","2019","01","23","17:30","-3.7","","-8.2","","71","","","","32","","26","","22.5","","100.37","","","","-11","","Mainly Clear"
"-52.75","47.62","ST. JOHN'S INTL A","8403505","2019-01-23 18:30","2019","01","23","18:30","-4.4","","-8.8","","72","","","","33","","20","","24.1","","100.45","","","","-11","","NA"
"-52.75","47.62","ST. JOHN'S INTL A","8403505","2019-01-23 19:30","2019","01","23","19:30","-5.3","","-8.1","","81","","","","27","","12","","24.1","","100.51","","","","-10","","NA"
"-52.75","47.62","ST. JOHN'S INTL A","8403505","2019-01-23 20:30","2019","01","23","20:30","-6.2","","-8.6","","84","","","","31","","14","","24.1","","100.52","","","","-12","","Mainly Clear"
"-52.75","47.62","ST. JOHN'S INTL A","8403505","2019-01-23 21:30","2019","01","23","21:30","-6.4","","-8.5","","86","","","","28","","14","","24.1","","100.58","","","","-12","","NA"
"-52.75","47.62","ST. JOHN'S INTL A","8403505","2019-01-23 22:30","2019","01","23","22:30","-6.5","","-8.9","","83","","","","29","","14","","24.1","","100.55","","","","-12","","NA"
"-52.75","47.62","ST. JOHN'S INTL A","8403505","2019-01-23 23:30","2019","01","23","23:30","-6.9","","-8.4","","89","","","","28","","18","","24.1","","100.57","","","","-14","","Clear"
"-52.75","47.62","ST. JOHN'S INTL A","8403505","2019-01-24 00:30","2019","01","24","00:30","-6.2","","-7.7","","90","","","","25","","13","","24.1","","100.62","","","","-12","","NA"
"-52.75","47.62","ST. JOHN'S INTL A","8403505","2019-01-24 01:30","2019","01","24","01:30","-5.9","","-7.0","","92","","","","29","","13","","24.1","","100.62","","","","-11","","NA"
"-52.75","47.62","ST. JOHN'S INTL A","8403505","2019-01-24 02:30","2019","01","24","02:30","-5.5","","-6.7","","91","","","","30","","9","","24.1","","100.58","","","","-10","","Mostly Cloudy"
"-52.75","47.62","ST. JOHN'S INTL A","8403505","2019-01-24 03:30","2019","01","24","03:30","-5.2","","-6.2","","93","","","","25","","8","","24.1","","100.58","","","","-9","","NA"
"-52.75","47.62","ST. JOHN'S INTL A","8403505","2019-01-24 04:30","2019","01","24","04:30","-4.8","","-5.9","","92","","","","22","","7","","24.1","","100.56","","","","-8","","NA"
"-52.75","47.62","ST. JOHN'S INTL A","8403505","2019-01-24 05:30","2019","01","24","05:30","-4.5","","-6.1","","89","","","","22","","6","","24.1","","100.60","","","","-7","","Cloudy"
"-52.75","47.62","ST. JOHN'S INTL A","8403505","2019-01-24 06:30","2019","01","24","06:30","-4.4","","-6.0","","89","","","","23","","10","","24.1","","100.61","","","","-9","","NA"
"-52.75","47.62","ST. JOHN'S INTL A","8403505","2019-01-24 07:30","2019","01","24","07:30","-4.5","","-4.8","","97","","","","19","","12","","4.0","","100.57","","","","-9","","Snow,Fog"
"-52.75","47.62","ST. JOHN'S INTL A","8403505","2019-01-24 08:30","2019","01","24","08:30","-4.4","","-5.0","","96","","","","19","","10","","16.1","","100.55","","","","-9","","Cloudy"
"-52.75","47.62","ST. JOHN'S INTL A","8403505","2019-01-24 09:30","2019","01","24","09:30","-4.0","","-4.7","","95","","","","21","","7","","2.4","","100.54","","","","-7","","Snow"
"-52.75","47.62","ST. JOHN'S INTL A","8403505","2019-01-24 10:30","2019","01","24","10:30","-3.6","","-4.5","","94","","","","23","","9","","4.0","","100.51","","","","-7","","Snow"
"-52.75","47.62","ST. JOHN'S INTL A","8403505","2019-01-24 11:30","2019","01","24","11:30","-3.4","","-4.4","","93","","","","20","","16","","4.0","","100.43","","","","-9","","Snow"
"-52.75","47.62","ST. JOHN'S INTL A","8403505","2019-01-24 12:30","2019","01","24","12:30","-2.8","","-3.8","","93","","","","18","","11","","19.3","","100.34","","","","-7","","Snow"
"-52.75","47.62","ST. JOHN'S INTL A","8403505","2019-01-24 13:30","2019","01","24","13:30","-2.5","","-3.9","","91","","","","18","","21","","19.3","","100.22","","","","-9","","Snow"
"-52.75","47.62","ST. JOHN'S INTL A","8403505","2019-01-24 14:30","2019","01","24","14:30","-2.6","","-3.2","","95","","","","17","","13","","2.0","","100.17","","","","-7","","Snow"
"-52.75","47.62","ST. JOHN'S INTL A","8403505","2019-01-24 15:30","2019","01","24","15:30","-2.3","","-2.9","","96","","","","17","","21","","2.0","","100.12","","","","-8","","Snow"
"-52.75","47.62","ST. JOHN'S INTL A","8403505","2019-01-24 16:30","2019","01","24","16:30","-2.2","","-2.5","","97","","","","16","","25","","1.2","","100.07","","","","-9","","Snow"
"-52.75","47.62","ST. JOHN'S INTL A","8403505","2019-01-24 17:30","2019","01","24","17:30","-1.9","","-2.2","","98","","","","16","","32","","1.6","","100.02","","","","-9","","Snow"
"-52.75","47.62","ST. JOHN'S INTL A","8403505","2019-01-24 18:30","2019","01","24","18:30","-1.6","","-1.9","","98","","","","16","","36","","2.4","","99.95","","","","-9","","Snow,Blowing Snow"
"-52.75","47.62","ST. JOHN'S INTL A","8403505","2019-01-24 19:30","2019","01","24","19:30","-1.2","","-1.4","","99","","","","16","","36","","3.2","","99.89","","","","-9","","Snow,Fog"
"-52.75","47.62","ST. JOHN'S INTL A","8403505","2019-01-24 20:30","2019","01","24","20:30","-0.8","","-0.9","","99","","","","16","","34","","6.4","","99.80","","","","-8","","Freezing Rain,Fog"
"-52.75","47.62","ST. JOHN'S INTL A","8403505","2019-01-24 21:30","2019","01","24","21:30","-0.4","","-0.5","","100","","","","17","","26","","16.1","","99.80","","","","-7","","Freezing Rain"
"-52.75","47.62","ST. JOHN'S INTL A","8403505","2019-01-24 22:30","2019","01","24","22:30","-0.2","","-0.2","","100","","","","17","","11","","16.1","","99.74","","","","-4","","Freezing Rain"
"-52.75","47.62","ST. JOHN'S INTL A","8403505","2019-01-24 23:30","2019","01","24","23:30","0.2","","0.2","","100","","","","19","","16","","24.1","","99.69","","","","","","Rain"
"-52.75","47.62","ST. JOHN'S INTL A","8403505","2019-01-25 00:30","2019","01","25","00:30","1.6","","1.6","","100","","","","21","","13","","24.1","","99.60","","","","","","Rain"
"-52.75","47.62","ST. JOHN'S INTL A","8403505","2019-01-25 01:30","2019","01","25","01:30","3.2","","3.2","","100","","","","23","","24","","24.1","","99.56","","","","","","Rain"
"-52.75","47.62","ST. JOHN'S INTL A","8403505","2019-01-25 02:30","2019","01","25","02:30","4.5","","4.5","","100","","","","23","","23","","24.1","","99.54","","","","","","Rain"
"-52.75","47.62","ST. JOHN'S INTL A","8403505","2019-01-25 03:30","2019","01","25","03:30","5.9","","5.8","","99","","","","23","","28","","24.1","","99.47","","","","","","Rain"
"-52.75","47.62","ST. JOHN'S INTL A","8403505","2019-01-25 04:30","2019","01","25","04:30","7.0","","6.4","","96","","","","22","","30","","24.1","","99.32","","","","","","NA"
"-52.75","47.62","ST. JOHN'S INTL A","8403505","2019-01-25 05:30","2019","01","25","05:30","5.9","","5.6","","98","","","","21","","39","","24.1","","99.28","","","","","","Rain"
"-52.75","47.62","ST. JOHN'S INTL A","8403505","2019-01-25 06:30","2019","01","25","06:30","5.9","","5.8","","99","","","","19","","31","","24.1","","99.17","","","","","","Rain"
"-52.75","47.62","ST. JOHN'S INTL A","8403505","2019-01-25 07:30","2019","01","25","07:30","6.2","","5.9","","98","","","","19","","42","","24.1","","99.05","","","","","","NA"
"-52.75","47.62","ST. JOHN'S INTL A","8403505","2019-01-25 08:30","2019","01","25","08:30","7.5","","6.8","","95","","","","20","","44","","24.1","","98.87","","","","","","Rain"
"-52.75","47.62","ST. JOHN'S INTL A","8403505","2019-01-25 09:30","2019","01","25","09:30","8.0","","7.4","","96","","","","20","","49","","24.1","","98.76","","","","","","Rain"
"-52.75","47.62","ST. JOHN'S INTL A","8403505","2019-01-25 10:30","2019","01","25","10:30","8.8","","8.0","","95","","","","22","","62","","12.9","","98.71","","","","","","Rain"
"-52.75","47.62","ST. JOHN'S INTL A","8403505","2019-01-25 11:30","2019","01","25","11:30","9.1","","8.4","","95","","","","22","","49","","12.9","","98.65","","","","","","Drizzle"
"-52.75","47.62","ST. JOHN'S INTL A","8403505","2019-01-25 12:30","2019","01","25","12:30","9.3","","8.7","","96","","","","22","","45","","4.0","","98.57","","","","","","Drizzle,Fog"
"-52.75","47.62","ST. JOHN'S INTL A","8403505","2019-01-25 13:30","2019","01","25","13:30","9.5","","9.1","","97","","","","23","","42","","24.1","","98.53","","","","","","Drizzle"
"-52.75","47.62","ST. JOHN'S INTL A","8403505","2019-01-25 14:30","2019","01","25","14:30","9.2","","8.4","","95","","","","24","","45","","24.1","","98.53","","","","","","Drizzle"
"-52.75","47.62","ST. JOHN'S INTL A","8403505","2019-01-25 15:30","2019","01","25","15:30","7.8","","7.1","","95","","","","23","","37","","24.1","","98.52","","","","","","NA"
"-52.75","47.62","ST. JOHN'S INTL A","8403505","2019-01-25 16:30","2019","01","25","16:30","6.2","","5.4","","94","","","","23","","40","","24.1","","98.54","","","","","","NA"
"-52.75","47.62","ST. JOHN'S INTL A","8403505","2019-01-25 17:30","2019","01","25","17:30","4.6","","4.1","","97","","","","25","","28","","24.1","","98.62","","","","","","Mainly Clear"
"-52.75","47.62","ST. JOHN'S INTL A","8403505","2019-01-25 18:30","2019","01","25","18:30","3.3","","3.1","","99","","","","24","","28","","16.1","","98.73","","","","","","NA"
"-52.75","47.62","ST. JOHN'S INTL A","8403505","2019-01-25 19:30","2019","01","25","19:30","2.0","","1.9","","100","","","","26","","27","","0.8","","98.77","","","","","","Fog"
"-52.75","47.62","ST. JOHN'S INTL A","8403505","2019-01-25 20:30","2019","01","25","20:30","1.2","","1.2","","100","","","","24","","28","","2.0","","98.91","","","","","","Fog"
"-52.75","47.62","ST. JOHN'S INTL A","8403505","2019-01-25 21:30","2019","01","25","21:30","1.1","","1.1","","100","","","","25","","23","","1.6","","98.95","","","","","","Fog"
"-52.75","47.62","ST. JOHN'S INTL A","8403505","2019-01-25 22:30","2019","01","25","22:30","0.9","","0.9","","100","","","","24","","21","","4.8","","98.92","","","","","","Fog"
"-52.75","47.62","ST. JOHN'S INTL A","8403505","2019-01-25 23:30","2019","01","25","23:30","0.9","","0.9","","100","","","","25","","25","","4.8","","99.05","","","","","","Fog"
"-52.75","47.62","ST. JOHN'S INTL A","8403505","2019-01-26 00:30","2019","01","26","00:30","1.4","","1.4","","100","","","","25","","22","","24.1","","99.04","","","","","","Drizzle"
"-52.75","47.62","ST. JOHN'S INTL A","8403505","2019-01-26 01:30","2019","01","26","01:30","1.3","","1.0","","98","","","","24","","13","","24.1","","99.10","","","","","","NA"
"-52.75","47.62","ST. JOHN'S INTL A","8403505","2019-01-26 02:30","2019","01","26","02:30","0.8","","0.7","","99","","","","25","","21","","2.0","","99.20","","","","","","Drizzle,Fog"
"-52.75","47.62","ST. JOHN'S INTL A","8403505","2019-01-26 03:30","2019","01","26","03:30","0.6","","0.6","","100","","","","25","","28","","16.1","","99.26","","","","","","Drizzle"
"-52.75","47.62","ST. JOHN'S INTL A","8403505","2019-01-26 04:30","2019","01","26","04:30","0.6","","0.6","","100","","","","25","","25","","19.3","","99.36","","","","","","Drizzle"
"-52.75","47.62","ST. JOHN'S INTL A","8403505","2019-01-26 05:30","2019","01","26","05:30","0.4","","0.3","","99","","","","26","","30","","24.1","","99.49","","","","","","Mostly Cloudy"
"-52.75","47.62","ST. JOHN'S INTL A","8403505","2019-01-26 06:30","2019","01","26","06:30","0.0","","-0.7","","95","","","","26","","28","","24.1","","99.58","","","","-6","","NA"
"-52.75","47.62","ST. JOHN'S INTL A","8403505","2019-01-26 07:30","2019","01","26","07:30","-0.4","","-1.8","","91","","","","26","","26","","24.1","","99.73","","","","-7","","NA"
"-52.75","47.62","ST. JOHN'S INTL A","8403505","2019-01-26 08:30","2019","01","26","08:30","-0.4","","-1.9","","89","","","","27","","34","","24.1","","99.90","","","","-7","","Mostly Cloudy"
"-52.75","47.62","ST. JOHN'S INTL A","8403505","2019-01-26 09:30","2019","01","26","09:30","-0.1","","-3.2","","80","","","","28","","39","","24.1","","100.00","","","","-7","","NA"
"-52.75","47.62","ST. JOHN'S INTL A","8403505","2019-01-26 10:30","2019","01","26","10:30","-0.2","","-4.2","","75","","","","28","","37","","24.1","","100.18","","","","-7","","NA"
"-52.75","47.62","ST. JOHN'S INTL A","8403505","2019-01-26 11:30","2019","01","26","11:30","0.1","","-5.1","","68","","","","27","","23","","24.1","","100.31","","","","","","Mostly Cloudy"
"-52.75","47.62","ST. JOHN'S INTL A","8403505","2019-01-26 12:30","2019","01","26","12:30","0.9","","-5.3","","63","","","","27","","23","","24.1","","100.38","","","","","","NA"
"-52.75","47.62","ST. JOHN'S INTL A","8403505","2019-01-26 13:30","2019","01","26","13:30","1.4","","-4.8","","64","","","","27","","18","","24.1","","100.42","","","","","","NA"
"-52.75","47.62","ST. JOHN'S INTL A","8403505","2019-01-26 14:30","2019","01","26","14:30","1.3","","-6.3","","57","","","","26","","22","","24.1","","100.51","","","","","","Mainly Clear"
"-52.75","47.62","ST. JOHN'S INTL A","8403505","2019-01-26 15:30","2019","01","26","15:30","1.1","","-5.2","","63","","","","26","","17","","24.1","","100.62","","","","","","NA"
"-52.75","47.62","ST. JOHN'S INTL A","8403505","2019-01-26 16:30","2019","01","26","16:30","-0.1","","-5.3","","68","","","","26","","12","","24.1","","100.68","","","","-4","","NA"
"-52.75","47.62","ST. JOHN'S INTL A","8403505","2019-01-26 17:30","2019","01","26","17:30","-1.7","","-4.8","","79","","","","23","","10","","24.1","","100.80","","","","-5","","Mainly Clear"
"-52.75","47.62","ST. JOHN'S INTL A","8403505","2019-01-26 18:30","2019","01","26","18:30","-2.2","","-5.9","","76","","","","23","","13","","24.1","","100.93","","","","-7","","NA"
"-52.75","47.62","ST. JOHN'S INTL A","8403505","2019-01-26 19:30","2019","01","26","19:30","-2.9","","-5.6","","81","","","","24","","16","","24.1","","101.01","","","","-8","","NA"
"-52.75","47.62","ST. JOHN'S INTL A","8403505","2019-01-26 20:30","2019","01","26","20:30","-3.1","","-5.5","","84","","","","24","","18","","24.1","","101.05","","","","-9","","Clear"
"-52.75","47.62","ST. JOHN'S INTL A","8403505","2019-01-26 21:30","2019","01","26","21:30","-3.3","","-5.6","","84","","","","22","","12","","24.1","","101.08","","","","-8","","NA"
"-52.75","47.62","ST. JOHN'S INTL A","8403505","2019-01-26 22:30","2019","01","26","22:30","-4.1","","-6.0","","87","","","","24","","14","","24.1","","101.11","","","","-9","","NA"
"-52.75","47.62","ST. JOHN'S INTL A","8403505","2019-01-26 23:30","2019","01","26","23:30","-4.7","","-6.0","","91","","","","23","","4","","24.1","","101.21","","","","-6","","Clear"
"-52.75","47.62","ST. JOHN'S INTL A","8403505","2019-01-27 00:30","2019","01","27","00:30","-4.4","","-5.5","","92","","","","20","","6","","24.1","","101.22","","","","-7","","NA"
"-52.75","47.62","ST. JOHN'S INTL A","8403505","2019-01-27 01:30","2019","01","27","01:30","-5.3","","-6.1","","95","","","","24","","12","","24.1","","101.25","","","","-10","","NA"
"-52.75","47.62","ST. JOHN'S INTL A","8403505","2019-01-27 02:30","2019","01","27","02:30","-4.2","","-5.0","","94","","","","24","","10","","24.1","","101.37","","","","-8","","Cloudy"
"-52.75","47.62","ST. JOHN'S INTL A","8403505","2019-01-27 03:30","2019","01","27","03:30","-3.5","","-4.2","","95","","","","32","","13","","24.1","","101.32","","","","-8","","NA"
"-52.75","47.62","ST. JOHN'S INTL A","8403505","2019-01-27 04:30","2019","01","27","04:30","-4.9","","-5.8","","94","","","","2","","9","","24.1","","101.30","","","","-9","","NA"
"-52.75","47.62","ST. JOHN'S INTL A","8403505","2019-01-27 05:30","2019","01","27","05:30","-5.2","","-6.2","","93","","","","36","","8","","24.1","","101.32","","","","-9","","Clear"
"-52.75","47.62","ST. JOHN'S INTL A","8403505","2019-01-27 06:30","2019","01","27","06:30","-4.9","","-6.7","","87","","","","1","","4","","24.1","","101.41","","","","-7","","NA"
"-52.75","47.62","ST. JOHN'S INTL A","8403505","2019-01-27 07:30","2019","01","27","07:30","-5.1","","-7.4","","84","","","","5","","8","","24.1","","101.40","","","","-9","","NA"
"-52.75","47.62","ST. JOHN'S INTL A","8403505","2019-01-27 08:30","2019","01","27","08:30","-4.3","","-7.2","","80","","","","8","","9","","24.1","","101.49","","","","-8","","Mostly Cloudy"
"-52.75","47.62","ST. JOHN'S INTL A","8403505","2019-01-27 09:30","2019","01","27","09:30","-3.4","","-6.5","","79","","","","10","","9","","24.1","","101.47","","","","-7","","NA"
"-52.75","47.62","ST. JOHN'S INTL A","8403505","2019-01-27 10:30","2019","01","27","10:30","-2.4","","-6.7","","72","","","","10","","15","","24.1","","101.48","","","","-7","","NA"
"-52.75","47.62","ST. JOHN'S INTL A","8403505","2019-01-27 11:30","2019","01","27","11:30","-2.1","","-7.1","","69","","","","11","","16","","24.1","","101.46","","","","-7","","Mostly Cloudy"
"-52.75","47.62","ST. JOHN'S INTL A","8403505","2019-01-27 12:30","2019","01","27","12:30","-1.9","","-7.3","","67","","","","12","","16","","24.1","","101.46","","","","-7","","NA"
"-52.75","47.62","ST. JOHN'S INTL A","8403505","2019-01-27 13:30","2019","01","27","13:30","-1.6","","-8.7","","58","","","","8","","14","","24.1","","101.33","","","","-6","","NA"
"-52.75","47.62","ST. JOHN'S INTL A","8403505","2019-01-27 14:30","2019","01","27","14:30","-1.6","","-8.4","","60","","","","9","","16","","24.1","","101.34","","","","-7","","Mostly Cloudy"
"-52.75","47.62","ST. JOHN'S INTL A","8403505","2019-01-27 15:30","2019","01","27","15:30","-1.6","","-8.0","","62","","","","10","","15","","24.1","","101.33","","","","-6","","NA"
"-52.75","47.62","ST. JOHN'S INTL A","8403505","2019-01-27 16:30","2019","01","27","16:30","-2.6","","-7.3","","70","","","","10","","11","","24.1","","101.33","","","","-7","","NA"
"-52.75","47.62","ST. JOHN'S INTL A","8403505","2019-01-27 17:30","2019","01","27","17:30","-3.6","","-7.2","","77","","","","11","","8","","24.1","","101.29","","","","-7","","Mainly Clear"
"-52.75","47.62","ST. JOHN'S INTL A","8403505","2019-01-27 18:30","2019","01","27","18:30","-4.3","","-6.4","","86","","","","11","","9","","24.1","","101.26","","","","-8","","NA"
"-52.75","47.62","ST. JOHN'S INTL A","8403505","2019-01-27 19:30","2019","01","27","19:30","-3.9","","-5.4","","89","","","","10","","7","","24.1","","101.31","","","","-7","","NA"
"-52.75","47.62","ST. JOHN'S INTL A","8403505","2019-01-27 20:30","2019","01","27","20:30","-3.3","","-4.3","","93","","","","11","","8","","24.1","","101.32","","","","-7","","Cloudy"
"-52.75","47.62","ST. JOHN'S INTL A","8403505","2019-01-27 21:30","2019","01","27","21:30","-2.4","","-3.5","","92","","","","14","","10","","24.1","","101.33","","","","-6","","NA"
"-52.75","47.62","ST. JOHN'S INTL A","8403505","2019-01-27 22:30","2019","01","27","22:30","-2.1","","-3.1","","93","","","","13","","15","","24.1","","101.23","","","","-7","","NA"
"-52.75","47.62","ST. JOHN'S INTL A","8403505","2019-01-27 23:30","2019","01","27","23:30","-1.9","","-2.6","","95","","","","12","","14","","24.1","","101.22","","","","-7","","Cloudy"
"-52.75","47.62","ST. JOHN'S INTL A","8403505","2019-01-28 00:30","2019","01","28","00:30","-1.8","","-2.1","","98","","","","13","","14","","12.9","","101.14","","","","-6","","NA"
"-52.75","47.62","ST. JOHN'S INTL A","8403505","2019-01-28 01:30","2019","01","28","01:30","-1.9","","-2.2","","98","","","","13","","17","","6.4","","101.06","","","","-7","","Fog"
"-52.75","47.62","ST. JOHN'S INTL A","8403505","2019-01-28 02:30","2019","01","28","02:30","-1.9","","-2.1","","98","","","","14","","22","","24.1","","101.07","","","","-8","","Cloudy"
"-52.75","47.62","ST. JOHN'S INTL A","8403505","2019-01-28 03:30","2019","01","28","03:30","-1.6","","-2.3","","95","","","","15","","25","","24.1","","101.03","","","","-8","","NA"
"-52.75","47.62","ST. JOHN'S INTL A","8403505","2019-01-28 04:30","2019","01","28","04:30","-1.6","","-2.2","","96","","","","15","","28","","24.1","","100.90","","","","-8","","NA"
"-52.75","47.62","ST. JOHN'S INTL A","8403505","2019-01-28 05:30","2019","01","28","05:30","-1.6","","-1.8","","98","","","","15","","28","","12.9","","100.86","","","","-8","","Cloudy"
"-52.75","47.62","ST. JOHN'S INTL A","8403505","2019-01-28 06:30","2019","01","28","06:30","-1.5","","-1.8","","98","","","","14","","27","","24.1","","100.74","","","","-8","","NA"
"-52.75","47.62","ST. JOHN'S INTL A","8403505","2019-01-28 07:30","2019","01","28","07:30","-1.4","","-2.0","","96","","","","15","","29","","24.1","","100.74","","","","-8","","NA"
"-52.75","47.62","ST. JOHN'S INTL A","8403505","2019-01-28 08:30","2019","01","28","08:30","-1.2","","-2.0","","94","","","","14","","34","","24.1","","100.65","","","","-8","","Cloudy"
"-52.75","47.62","ST. JOHN'S INTL A","8403505","2019-01-28 09:30","2019","01","28","09:30","-1.0","","-1.7","","95","","","","15","","47","","24.1","","100.42","","","","-9","","NA"
"-52.75","47.62","ST. JOHN'S INTL A","8403505","2019-01-28 10:30","2019","01","28","10:30","-0.8","","-1.1","","97","","","","17","","41","","24.1","","100.39","","","","-9","","NA"
"-52.75","47.62","ST. JOHN'S INTL A","8403505","2019-01-28 11:30","2019","01","28","11:30","-0.8","","-1.0","","99","","","","15","","32","","0.8","","100.20","","","","-8","","Freezing Fog"
"-52.75","47.62","ST. JOHN'S INTL A","8403505","2019-01-28 12:30","2019","01","28","12:30","-0.6","","-0.6","","100","","","","14","","30","","0.6","","99.99","","","","-7","","Freezing Drizzle,Freezing Fog"
"-52.75","47.62","ST. JOHN'S INTL A","8403505","2019-01-28 13:30","2019","01","28","13:30","-0.4","","-0.4","","100","","","","15","","31","","0.4","","99.80","","","","-7","","Freezing Drizzle,Freezing Fog"
"-52.75","47.62","ST. JOHN'S INTL A","8403505","2019-01-28 14:30","2019","01","28","14:30","-0.2","","-0.2","","100","","","","15","","32","","2.4","","99.66","","","","-7","","Freezing Rain,Fog"
"-52.75","47.62","ST. JOHN'S INTL A","8403505","2019-01-28 15:30","2019","01","28","15:30","0.0","","0.0","","100","","","","16","","31","","2.4","","99.42","","","","-7","","Rain,Fog"
"-52.75","47.62","ST. JOHN'S INTL A","8403505","2019-01-28 16:30","2019","01","28","16:30","0.3","","0.3","","100","","","","16","","19","","2.0","","99.38","","","","","","Rain,Fog"
"-52.75","47.62","ST. JOHN'S INTL A","8403505","2019-01-28 17:30","2019","01","28","17:30","0.4","","0.4","","100","","","","20","","5","","8.1","","99.30","","","","","","Rain,Fog"
"-52.75","47.62","ST. JOHN'S INTL A","8403505","2019-01-28 18:30","2019","01","28","18:30","0.5","","0.5","","100","","","","19","","7","","19.3","","99.22","","","","","","NA"
"-52.75","47.62","ST. JOHN'S INTL A","8403505","2019-01-28 19:30","2019","01","28","19:30","1.6","","1.6","","100","","","","27","","25","","8.1","","99.18","","","","","","Fog"
"-52.75","47.62","ST. JOHN'S INTL A","8403505","2019-01-28 20:30","2019","01","28","20:30","1.6","","1.6","","100","","","","26","","23","","0.8","","99.17","","","","","","Fog"
"-52.75","47.62","ST. JOHN'S INTL A","8403505","2019-01-28 21:30","2019","01","28","21:30","2.0","","2.0","","100","","","","26","","24","","0.8","","99.23","","","","","","Fog"
"-52.75","47.62","ST. JOHN'S INTL A","8403505","2019-01-28 22:30","2019","01","28","22:30","1.8","","1.8","","100","","","","27","","21","","1.6","","99.25","","","","","","Fog"
"-52.75","47.62","ST. JOHN'S INTL A","8403505","2019-01-28 23:30","2019","01","28","23:30","1.2","","1.2","","100","","","","28","","31","","1.6","","99.34","","","","","","Fog"
"-52.75","47.62","ST. JOHN'S INTL A","8403505","2019-01-29 00:30","2019","01","29","00:30","0.6","","0.6","","100","","","","28","","24","","12.9","","99.32","","","","","","NA"
"-52.75","47.62","ST. JOHN'S INTL A","8403505","2019-01-29 01:30","2019","01","29","01:30","0.5","","0.5","","100","","","","28","","26","","24.1","","99.42","","","","","","NA"
"-52.75","47.62","ST. JOHN'S INTL A","8403505","2019-01-29 02:30","2019","01","29","02:30","0.1","","0.0","","99","","","","28","","17","","24.1","","99.39","","","","","","Cloudy"
"-52.75","47.62","ST. JOHN'S INTL A","8403505","2019-01-29 03:30","2019","01","29","03:30","-0.1","","-0.5","","97","","","","29","","23","","24.1","","99.42","","","","-6","","NA"
"-52.75","47.62","ST. JOHN'S INTL A","8403505","2019-01-29 04:30","2019","01","29","04:30","-0.9","","-3.0","","86","","","","32","","23","","24.1","","99.46","","","","-7","","NA"
"-52.75","47.62","ST. JOHN'S INTL A","8403505","2019-01-29 05:30","2019","01","29","05:30","-2.6","","-4.9","","84","","","","35","","15","","24.1","","99.53","","","","-8","","Cloudy"
"-52.75","47.62","ST. JOHN'S INTL A","8403505","2019-01-29 06:30","2019","01","29","06:30","-4.1","","-6.7","","82","","","","34","","24","","24.1","","99.57","","","","-11","","NA"
"-52.75","47.62","ST. JOHN'S INTL A","8403505","2019-01-29 07:30","2019","01","29","07:30","-4.8","","-7.2","","83","","","","32","","26","","24.1","","99.71","","","","-12","","NA"
"-52.75","47.62","ST. JOHN'S INTL A","8403505","2019-01-29 08:30","2019","01","29","08:30","-5.4","","-8.5","","79","","","","35","","17","","24.1","","99.76","","","","-11","","Cloudy"
"-52.75","47.62","ST. JOHN'S INTL A","8403505","2019-01-29 09:30","2019","01","29","09:30","-5.7","","-10.2","","71","","","","34","","19","","24.1","","99.77","","","","-12","","NA"
"-52.75","47.62","ST. JOHN'S INTL A","8403505","2019-01-29 10:30","2019","01","29","10:30","-6.3","","-10.4","","73","","","","33","","25","","24.1","","99.83","","","","-14","","NA"
"-52.75","47.62","ST. JOHN'S INTL A","8403505","2019-01-29 11:30","2019","01","29","11:30","-6.3","","-12.2","","64","","","","34","","17","","24.1","","99.79","","","","-13","","Mostly Cloudy"
"-52.75","47.62","ST. JOHN'S INTL A","8403505","2019-01-29 12:30","2019","01","29","12:30","-5.8","","-12.7","","59","","","","33","","16","","24.1","","99.77","","","","-12","","NA"
"-52.75","47.62","ST. JOHN'S INTL A","8403505","2019-01-29 13:30","2019","01","29","13:30","-5.3","","-12.1","","59","","","","33","","20","","24.1","","99.74","","","","-12","","NA"
"-52.75","47.62","ST. JOHN'S INTL A","8403505","2019-01-29 14:30","2019","01","29","14:30","-5.2","","-13.6","","52","","","","34","","18","","24.1","","99.75","","","","-11","","Mostly Cloudy"
"-52.75","47.62","ST. JOHN'S INTL A","8403505","2019-01-29 15:30","2019","01","29","15:30","-5.3","","-13.0","","55","","","","34","","22","","24.1","","99.80","","","","-12","","NA"
"-52.75","47.62","ST. JOHN'S INTL A","8403505","2019-01-29 16:30","2019","01","29","16:30","-5.8","","-12.4","","60","","","","34","","13","","24.1","","99.83","","","","-11","","NA"
"-52.75","47.62","ST. JOHN'S INTL A","8403505","2019-01-29 17:30","2019","01","29","17:30","-6.7","","-11.8","","67","","","","34","","10","","24.1","","99.88","","","","-11","","Mainly Clear"
"-52.75","47.62","ST. JOHN'S INTL A","8403505","2019-01-29 18:30","2019","01","29","18:30","-6.8","","-11.4","","70","","","","2","","8","","24.1","","99.93","","","","-11","","NA"
"-52.75","47.62","ST. JOHN'S INTL A","8403505","2019-01-29 19:30","2019","01","29","19:30","-7.6","","-11.3","","75","","","","32","","10","","24.1","","100.05","","","","-12","","NA"
"-52.75","47.62","ST. JOHN'S INTL A","8403505","2019-01-29 20:30","2019","01","29","20:30","-6.5","","-10.9","","71","","","","31","","22","","24.1","","100.13","","","","-14","","Clear"
"-52.75","47.62","ST. JOHN'S INTL A","8403505","2019-01-29 21:30","2019","01","29","21:30","-7.0","","-10.9","","74","","","","31","","17","","24.1","","100.25","","","","-13","","NA"
"-52.75","47.62","ST. JOHN'S INTL A","8403505","2019-01-29 22:30","2019","01","29","22:30","-6.9","","-11.1","","72","","","","36","","10","","24.1","","100.24","","","","-12","","NA"
"-52.75","47.62","ST. JOHN'S INTL A","8403505","2019-01-29 23:30","2019","01","29","23:30","-8.1","","-11.6","","76","","","","31","","10","","24.1","","100.36","","","","-13","","Mainly Clear"
"-52.75","47.62","ST. JOHN'S INTL A","8403505","2019-01-30 00:30","2019","01","30","00:30","-8.2","","-10.9","","81","","","","34","","19","","24.1","","100.43","","","","-15","","NA"
"-52.75","47.62","ST. JOHN'S INTL A","8403505","2019-01-30 01:30","2019","01","30","01:30","-8.3","","-10.3","","85","","","","32","","7","","24.1","","100.47","","","","-12","","NA"
"-52.75","47.62","ST. JOHN'S INTL A","8403505","2019-01-30 02:30","2019","01","30","02:30","-6.2","","-8.2","","86","","","","1","","24","","24.1","","100.55","","","","-14","","Cloudy"
"-52.75","47.62","ST. JOHN'S INTL A","8403505","2019-01-30 03:30","2019","01","30","03:30","-5.1","","-6.6","","90","","","","2","","27","","24.1","","100.47","","","","-13","","NA"
"-52.75","47.62","ST. JOHN'S INTL A","8403505","2019-01-30 04:30","2019","01","30","04:30","-5.0","","-6.2","","91","","","","3","","21","","24.1","","100.52","","","","-12","","NA"
"-52.75","47.62","ST. JOHN'S INTL A","8403505","2019-01-30 05:30","2019","01","30","05:30","-4.7","","-5.5","","94","","","","7","","17","","24.1","","100.61","","","","-11","","Cloudy"
"-52.75","47.62","ST. JOHN'S INTL A","8403505","2019-01-30 06:30","2019","01","30","06:30","-4.6","","-5.3","","95","","","","8","","16","","24.1","","100.68","","","","-10","","NA"
"-52.75","47.62","ST. JOHN'S INTL A","8403505","2019-01-30 07:30","2019","01","30","07:30","-4.7","","-5.1","","97","","","","7","","14","","24.1","","100.70","","","","-10","","NA"
"-52.75","47.62","ST. JOHN'S INTL A","8403505","2019-01-30 08:30","2019","01","30","08:30","-4.4","","-4.6","","98","","","","8","","16","","12.9","","100.72","","","","-10","","Cloudy"
"-52.75","47.62","ST. JOHN'S INTL A","8403505","2019-01-30 09:30","2019","01","30","09:30","-3.9","","-4.2","","98","","","","7","","16","","16.1","","100.70","","","","-9","","NA"
"-52.75","47.62","ST. JOHN'S INTL A","8403505","2019-01-30 10:30","2019","01","30","10:30","-3.6","","-4.0","","97","","","","9","","21","","16.1","","100.66","","","","-10","","Snow"
"-52.75","47.62","ST. JOHN'S INTL A","8403505","2019-01-30 11:30","2019","01","30","11:30","-3.2","","-3.8","","96","","","","9","","23","","19.3","","100.59","","","","-10","","Snow"
"-52.75","47.62","ST. JOHN'S INTL A","8403505","2019-01-30 12:30","2019","01","30","12:30","-2.9","","-3.7","","95","","","","10","","20","","4.8","","100.46","","","","-9","","Snow Showers"
"-52.75","47.62","ST. JOHN'S INTL A","8403505","2019-01-30 13:30","2019","01","30","13:30","-2.8","","-3.5","","95","","","","11","","23","","19.3","","100.41","","","","-9","","Snow Showers"
"-52.75","47.62","ST. JOHN'S INTL A","8403505","2019-01-30 14:30","2019","01","30","14:30","-2.7","","-3.5","","94","","","","12","","24","","24.1","","100.40","","","","-9","","Snow Showers"
"-52.75","47.62","ST. JOHN'S INTL A","8403505","2019-01-30 15:30","2019","01","30","15:30","-2.4","","-3.2","","95","","","","11","","22","","24.1","","100.40","","","","-9","","Snow Showers"
"-52.75","47.62","ST. JOHN'S INTL A","8403505","2019-01-30 16:30","2019","01","30","16:30","-2.3","","-3.3","","93","","","","12","","25","","24.1","","100.35","","","","-9","","NA"
"-52.75","47.62","ST. JOHN'S INTL A","8403505","2019-01-30 17:30","2019","01","30","17:30","-2.2","","-3.1","","93","","","","12","","33","","24.1","","100.16","","","","-10","","Cloudy"
"-52.75","47.62","ST. JOHN'S INTL A","8403505","2019-01-30 18:30","2019","01","30","18:30","-2.0","","-2.9","","94","","","","12","","29","","24.1","","100.18","","","","-9","","NA"
"-52.75","47.62","ST. JOHN'S INTL A","8403505","2019-01-30 19:30","2019","01","30","19:30","-1.9","","-2.7","","94","","","","13","","25","","24.1","","100.17","","","","-8","","NA"
"-52.75","47.62","ST. JOHN'S INTL A","8403505","2019-01-30 20:30","2019","01","30","20:30","-1.8","","-2.2","","97","","","","14","","30","","9.7","","100.16","","","","-9","","Fog"
"-52.75","47.62","ST. JOHN'S INTL A","8403505","2019-01-30 21:30","2019","01","30","21:30","-1.7","","-1.9","","99","","","","15","","25","","8.1","","100.12","","","","-8","","Fog"
"-52.75","47.62","ST. JOHN'S INTL A","8403505","2019-01-30 22:30","2019","01","30","22:30","-1.5","","-1.8","","98","","","","14","","35","","9.7","","99.97","","","","-9","","Fog"
"-52.75","47.62","ST. JOHN'S INTL A","8403505","2019-01-30 23:30","2019","01","30","23:30","-1.4","","-1.6","","99","","","","13","","22","","9.7","","99.88","","","","-7","","Fog"
"-52.75","47.62","ST. JOHN'S INTL A","8403505","2019-01-31 00:30","2019","01","31","00:30","-1.2","","-1.4","","99","","","","14","","24","","6.4","","99.82","","","","-7","","Fog"
"-52.75","47.62","ST. JOHN'S INTL A","8403505","2019-01-31 01:30","2019","01","31","01:30","-1.2","","-1.2","","100","","","","14","","21","","4.8","","99.76","","","","-7","","Fog"
"-52.75","47.62","ST. JOHN'S INTL A","8403505","2019-01-31 02:30","2019","01","31","02:30","-1.0","","-1.0","","100","","","","15","","26","","2.8","","99.70","","","","-7","","Fog"
"-52.75","47.62","ST. JOHN'S INTL A","8403505","2019-01-31 03:30","2019","01","31","03:30","-0.7","","-0.7","","100","","","","15","","23","","0.4","","99.63","","","","-7","","Freezing Drizzle,Freezing Fog"
"-52.75","47.62","ST. JOHN'S INTL A","8403505","2019-01-31 04:30","2019","01","31","04:30","-0.6","","-0.6","","100","","","","15","","21","","0.4","","99.52","","","","-6","","Freezing Drizzle,Freezing Fog"
"-52.75","47.62","ST. JOHN'S INTL A","8403505","2019-01-31 05:30","2019","01","31","05:30","-0.4","","-0.4","","100","","","","16","","28","","0.4","","99.39","","","","-7","","Freezing Drizzle,Freezing Fog"
"-52.75","47.62","ST. JOHN'S INTL A","8403505","2019-01-31 06:30","2019","01","31","06:30","-0.2","","-0.2","","100","","","","17","","26","","0.6","","99.34","","","","-6","","Freezing Drizzle,Freezing Fog"
"-52.75","47.62","ST. JOHN'S INTL A","8403505","2019-01-31 07:30","2019","01","31","07:30","-0.1","","-0.1","","100","","","","17","","23","","0.4","","99.33","","","","-6","","Freezing Rain,Freezing Fog"
"-52.75","47.62","ST. JOHN'S INTL A","8403505","2019-01-31 08:30","2019","01","31","08:30","0.6","","0.6","","100","","","","20","","21","","24.1","","99.32","","","","","","Rain"
"-52.75","47.62","ST. JOHN'S INTL A","8403505","2019-01-31 09:30","2019","01","31","09:30","1.7","","1.7","","100","","","","21","","21","","24.1","","99.23","","","","","","Rain"
"-52.75","47.62","ST. JOHN'S INTL A","8403505","2019-01-31 10:30","2019","01","31","10:30","2.8","","2.5","","98","","","","24","","25","","24.1","","99.18","","","","","","NA"
"-52.75","47.62","ST. JOHN'S INTL A","8403505","2019-01-31 11:30","2019","01","31","11:30","2.9","","2.5","","97","","","","24","","28","","24.1","","99.15","","","","","","Cloudy"
"-52.75","47.62","ST. JOHN'S INTL A","8403505","2019-01-31 12:30","2019","01","31","12:30","2.2","","0.6","","89","","","","24","","29","","24.1","","99.03","","","","","","Rain"
"-52.75","47.62","ST. JOHN'S INTL A","8403505","2019-01-31 13:30","2019","01","31","13:30","1.3","","0.2","","93","","","","27","","40","","24.1","","99.03","","","","","","NA"
"-52.75","47.62","ST. JOHN'S INTL A","8403505","2019-01-31 14:30","2019","01","31","14:30","1.1","","-0.9","","87","","","","26","","40","","24.1","","98.92","","","","","","Mostly Cloudy"
"-52.75","47.62","ST. JOHN'S INTL A","8403505","2019-01-31 15:30","2019","01","31","15:30","2.0","","-3.6","","66","","","","26","","28","","24.1","","98.95","","","","","","NA"
"-52.75","47.62","ST. JOHN'S INTL A","8403505","2019-01-31 16:30","2019","01","31","16:30","1.8","","-6.5","","54","","","","23","","18","","24.1","","98.95","","","","","","NA"
"-52.75","47.62","ST. JOHN'S INTL A","8403505","2019-01-31 17:30","2019","01","31","17:30","0.4","","-7.2","","57","","","","23","","21","","24.1","","98.97","","","","","","Mainly Clear"
"-52.75","47.62","ST. JOHN'S INTL A","8403505","2019-01-31 18:30","2019","01","31","18:30","-0.2","","-7.0","","60","","","","23","","31","","24.1","","98.97","","","","-7","","NA"
"-52.75","47.62","ST. JOHN'S INTL A","8403505","2019-01-31 19:30","2019","01","31","19:30","-0.2","","-4.1","","75","","","","26","","47","","24.1","","98.97","","","","-8","","NA"
"-52.75","47.62","ST. JOHN'S INTL A","8403505","2019-01-31 20:30","2019","01","31","20:30","-1.8","","-5.9","","73","","","","26","","38","","24.1","","99.04","","","","-10","","Snow"
"-52.75","47.62","ST. JOHN'S INTL A","8403505","2019-01-31 21:30","2019","01","31","21:30","-3.7","","-8.9","","67","","","","26","","47","","24.1","","99.14","","","","-13","","Snow"
"-52.75","47.62","ST. JOHN'S INTL A","8403505","2019-01-31 22:30","2019","01","31","22:30","-5.0","","-10.4","","66","","","","26","","43","","24.1","","99.22","","","","-14","","Snow"
"-52.75","47.62","ST. JOHN'S INTL A","8403505","2019-01-31 23:30","2019","01","31","23:30","-6.1","","-13.3","","57","","","","26","","53","","24.1","","99.30","","","","-17","","Mainly Clear"
