"Longitude (x)","Latitude (y)","Station Name","Climate ID","Date/Time (LST)","Year","Month","Day","Time (LST)","Temp (°C)","Temp Flag","Dew Point Temp (°C)","Dew Point Temp Flag","Rel Hum (%)","Rel Hum Flag","Precip. Amount (mm)","Precip. Amount Flag","Wind Dir (10s deg)","Wind Dir Flag","Wind Spd (km/h)","Wind Spd Flag","Visibility (km)","Visibility Flag","Stn Press (kPa)","Stn Press Flag","Hmdx","Hmdx Flag","Wind Chill","Wind Chill Flag","Weather"
"-52.75","47.62","ST. JOHN'S INTL A","8403505","2021-12-01 00:30","2021","12","01","00:30","3.1","","1.1","","87","","","","24","","42","","24.1","","99.02","","","","","","NA"
"-52.75","47.62","ST. JOHN'S INTL A","8403505","2021-12-01 01:30","2021","12","01","01:30","3.1","","0.6","","83","","","","24","","30","","24.1","","99.17","","","","","","NA"
"-52.75","47.62","ST. JOHN'S INTL A","8403505","2021-12-01 02:30","2021","12","01","02:30","3.1","","0.8","","85","","","","25","","45","","24.1","","99.26","","","","","","Mostly Cloudy"
"-52.75","47.62","ST. JOHN'S INTL A","8403505","2021-12-01 03:30","2021","12","01","03:30","2.5","","0.5","","87","","","","24","","31","","24.1","","99.33","","","","","","NA"
"-52.75","47.62","ST. JOHN'S INTL A","8403505","2021-12-01 04:30","2021","12","01","04:30","2.3","","-0.4","","82","","","","25","","30","","24.1","","99.43","","","","","","NA"
"-52.75","47.62","ST. JOHN'S INTL A","8403505","2021-12-01 05:30","2021","12","01","05:30","2.6","","-0.2","","82","","","","25","","35","","24.1","","99.52","","","","","","Mostly Cloudy"
"-52.75","47.62","ST. JOHN'S INTL A","8403505","2021-12-01 06:30","2021","12","01","06:30","1.8","","-0.6","","84","","","","25","","27","","24.1","","99.60","","","","","","NA"
"-52.75","47.62","ST. JOHN'S INTL A","8403505","2021-12-01 07:30","2021","12","01","07:30","2.2","","-0.8","","80","","","","25","","37","","24.1","","99.70","","","","","","NA"
"-52.75","47.62","ST. JOHN'S INTL A","8403505","2021-12-01 08:30","2021","12","01","08:30","2.6","","-0.5","","80","","","","25","","26","","24.1","","99.89","","","","","","Mostly Cloudy"
"-52.75","47.62","ST. JOHN'S INTL A","8403505","2021-12-01 09:30","2021","12","01","09:30","3.3","","-1.0","","73","","","","25","","25","","24.1","","99.97","","","","","","NA"
"-52.75","47.62","ST. JOHN'S INTL A","8403505","2021-12-01 10:30","2021","12","01","10:30","3.9","","-0.5","","73","","","","24","","23","","24.1","","100.05","","","","","","NA"
"-52.75","47.62","ST. JOHN'S INTL A","8403505","2021-12-01 11:30","2021","12","01","11:30","4.4","","-0.3","","71","","","","25","","29","","24.1","","100.03","","","","","","Mostly Cloudy"
"-52.75","47.62","ST. JOHN'S INTL A","8403505","2021-12-01 12:30","2021","12","01","12:30","5.0","","-0.7","","67","","","","26","","24","","24.1","","100.01","","","","","","NA"
"-52.75","47.62","ST. JOHN'S INTL A","8403505","2021-12-01 13:30","2021","12","01","13:30","4.6","","-0.6","","69","","","","25","","26","","24.1","","100.00","","","","","","NA"
"-52.75","47.62","ST. JOHN'S INTL A","8403505","2021-12-01 14:30","2021","12","01","14:30","4.8","","-1.2","","65","","","","25","","26","","24.1","","100.01","","","","","","Cloudy"
"-52.75","47.62","ST. JOHN'S INTL A","8403505","2021-12-01 15:30","2021","12","01","15:30","4.5","","-0.8","","68","","","","25","","18","","24.1","","100.06","","","","","","NA"
"-52.75","47.62","ST. JOHN'S INTL A","8403505","2021-12-01 16:30","2021","12","01","16:30","4.0","","-0.6","","72","","","","27","","23","","24.1","","100.10","","","","","","NA"
"-52.75","47.62","ST. JOHN'S INTL A","8403505","2021-12-01 17:30","2021","12","01","17:30","2.5","","-0.6","","80","","","","24","","10","","24.1","","100.20","","","","","","Mostly Cloudy"
"-52.75","47.62","ST. JOHN'S INTL A","8403505","2021-12-01 18:30","2021","12","01","18:30","2.6","","-1.0","","77","","","","26","","14","","24.1","","100.19","","","","","","NA"
"-52.75","47.62","ST. JOHN'S INTL A","8403505","2021-12-01 19:30","2021","12","01","19:30","2.1","","-1.0","","80","","","","26","","11","","24.1","","100.22","","","","","","NA"
"-52.75","47.62","ST. JOHN'S INTL A","8403505","2021-12-01 20:30","2021","12","01","20:30","1.6","","-0.8","","84","","","","18","","13","","24.1","","100.21","","","","","","Cloudy"
"-52.75","47.62","ST. JOHN'S INTL A","8403505","2021-12-01 21:30","2021","12","01","21:30","1.8","","-0.6","","84","","","","36","","2","","24.1","","100.23","","","","","","NA"
"-52.75","47.62","ST. JOHN'S INTL A","8403505","2021-12-01 22:30","2021","12","01","22:30","2.0","","-0.5","","83","","","","25","","3","","24.1","","100.23","","","","","","NA"
"-52.75","47.62","ST. JOHN'S INTL A","8403505","2021-12-01 23:30","2021","12","01","23:30","1.6","","-0.4","","87","","","","21","","7","","24.1","","100.25","","","","","","Cloudy"
"-52.75","47.62","ST. JOHN'S INTL A","8403505","2021-12-02 00:30","2021","12","02","00:30","1.9","","0.8","","92","","","","16","","4","","24.1","","100.19","","","","","","NA"
"-52.75","47.62","ST. JOHN'S INTL A","8403505","2021-12-02 01:30","2021","12","02","01:30","3.1","","1.8","","91","","","","20","","19","","24.1","","100.20","","","","","","NA"
"-52.75","47.62","ST. JOHN'S INTL A","8403505","2021-12-02 02:30","2021","12","02","02:30","3.1","","2.0","","92","","","","20","","22","","24.1","","100.21","","","","","","Cloudy"
"-52.75","47.62","ST. JOHN'S INTL A","8403505","2021-12-02 03:30","2021","12","02","03:30","3.5","","2.1","","91","","","","20","","22","","24.1","","100.19","","","","","","NA"
"-52.75","47.62","ST. JOHN'S INTL A","8403505","2021-12-02 04:30","2021","12","02","04:30","3.8","","2.6","","92","","","","24","","19","","24.1","","100.22","","","","","","NA"
"-52.75","47.62","ST. JOHN'S INTL A","8403505","2021-12-02 05:30","2021","12","02","05:30","4.0","","2.2","","88","","","","28","","29","","24.1","","100.28","","","","","","Mostly Cloudy"
"-52.75","47.62","ST. JOHN'S INTL A","8403505","2021-12-02 06:30","2021","12","02","06:30","1.4","","-0.2","","89","","","","29","","21","","24.1","","100.44","","","","","","NA"
"-52.75","47.62","ST. JOHN'S INTL A","8403505","2021-12-02 07:30","2021","12","02","07:30"
"-52.75","47.62","ST. JOHN'S INTL A","8403505","2021-12-02 08:30","2021","12","02","08:30","1.7","","-0.1","","88","","","","27","","16","","24.1","","100.64","","","","","","Mainly Clear"
"-52.75","47.62","ST. JOHN'S INTL A","8403505","2021-12-02 09:30","2021","12","02","09:30","3.1","","0.4","","82","","","","26","","20","","24.1","","100.70","","","","","","NA"
"-52.75","47.62","ST. JOHN'S INTL A","8403505","2021-12-02 10:30","2021","12","02","10:30","4.7","","0.4","","73","","","","24","","19","","24.1","","100.68","","","","","","NA"
"-52.75","47.62","ST. JOHN'S INTL A","8403505","2021-12-02 11:30","2021","12","02","11:30","5.5","","-0.5","","65","","","","26","","26","","24.1","","100.66","","","","","","Mainly Clear"
"-52.75","47.62","ST. JOHN'S INTL A","8403505","2021-12-02 12:30","2021","12","02","12:30","5.8","","0.2","","67","","","","25","","29","","24.1","","100.58","","","","","","NA"
"-52.75","47.62","ST. JOHN'S INTL A","8403505","2021-12-02 13:30","2021","12","02","13:30","5.5","","0.6","","70","","","","25","","20","","24.1","","100.57","","","","","","NA"
"-52.75","47.62","ST. JOHN'S INTL A","8403505","2021-12-02 14:30","2021","12","02","14:30","5.8","","0.9","","71","","","","24","","26","","24.1","","100.58","","","","","","Mainly Clear"
"-52.75","47.62","ST. JOHN'S INTL A","8403505","2021-12-02 15:30","2021","12","02","15:30","5.9","","1.2","","72","","","","25","","26","","24.1","","100.60","","","","","","NA"
"-52.75","47.62","ST. JOHN'S INTL A","8403505","2021-12-02 16:30","2021","12","02","16:30","4.4","","0.5","","76","","","","24","","23","","24.1","","100.60","","","","","","NA"
"-52.75","47.62","ST. JOHN'S INTL A","8403505","2021-12-02 17:30","2021","12","02","17:30","4.2","","2.3","","87","","","","24","","24","","24.1","","100.61","","","","","","Mostly Cloudy"
"-52.75","47.62","ST. JOHN'S INTL A","8403505","2021-12-02 18:30","2021","12","02","18:30","4.5","","2.7","","88","","","","23","","21","","24.1","","100.62","","","","","","NA"
"-52.75","47.62","ST. JOHN'S INTL A","8403505","2021-12-02 19:30","2021","12","02","19:30","4.0","","2.4","","89","","","","21","","17","","24.1","","100.64","","","","","","NA"
"-52.75","47.62","ST. JOHN'S INTL A","8403505","2021-12-02 20:30","2021","12","02","20:30","3.6","","2.4","","92","","","","20","","18","","24.1","","100.58","","","","","","Mostly Cloudy"
"-52.75","47.62","ST. JOHN'S INTL A","8403505","2021-12-02 21:30","2021","12","02","21:30","3.9","","2.5","","90","","","","19","","20","","24.1","","100.49","","","","","","NA"
"-52.75","47.62","ST. JOHN'S INTL A","8403505","2021-12-02 22:30","2021","12","02","22:30","4.5","","2.8","","89","","","","19","","17","","24.1","","100.44","","","","","","NA"
"-52.75","47.62","ST. JOHN'S INTL A","8403505","2021-12-02 23:30","2021","12","02","23:30","4.6","","1.6","","81","","","","19","","34","","24.1","","100.33","","","","","","Cloudy"
"-52.75","47.62","ST. JOHN'S INTL A","8403505","2021-12-03 00:30","2021","12","03","00:30","4.7","","2.3","","84","","","","18","","35","","24.1","","100.18","","","","","","Rain"
"-52.75","47.62","ST. JOHN'S INTL A","8403505","2021-12-03 01:30","2021","12","03","01:30","4.5","","3.4","","92","","","","18","","39","","24.1","","100.11","","","","","","Rain"
"-52.75","47.62","ST. JOHN'S INTL A","8403505","2021-12-03 02:30","2021","12","03","02:30","4.5","","4.0","","97","","","","17","","39","","24.1","","99.99","","","","","","Rain"
"-52.75","47.62","ST. JOHN'S INTL A","8403505","2021-12-03 03:30","2021","12","03","03:30","5.0","","4.8","","98","","","","17","","40","","12.9","","99.82","","","","","","Rain"
"-52.75","47.62","ST. JOHN'S INTL A","8403505","2021-12-03 04:30","2021","12","03","04:30","5.4","","5.2","","99","","","","18","","38","","16.1","","99.69","","","","","","Rain"
"-52.75","47.62","ST. JOHN'S INTL A","8403505","2021-12-03 05:30","2021","12","03","05:30","6.1","","6.0","","99","","","","19","","46","","19.3","","99.49","","","","","","Rain"
"-52.75","47.62","ST. JOHN'S INTL A","8403505","2021-12-03 06:30","2021","12","03","06:30","6.8","","6.5","","98","","","","18","","57","","19.3","","99.27","","","","","","Rain"
"-52.75","47.62","ST. JOHN'S INTL A","8403505","2021-12-03 07:30","2021","12","03","07:30","6.4","","6.0","","98","","","","19","","48","","19.3","","99.12","","","","","","Drizzle"
"-52.75","47.62","ST. JOHN'S INTL A","8403505","2021-12-03 08:30","2021","12","03","08:30","6.4","","6.1","","98","","","","18","","61","","16.1","","98.98","","","","","","Drizzle"
"-52.75","47.62","ST. JOHN'S INTL A","8403505","2021-12-03 09:30","2021","12","03","09:30","6.8","","6.5","","98","","","","19","","62","","12.9","","98.84","","","","","","Drizzle"
"-52.75","47.62","ST. JOHN'S INTL A","8403505","2021-12-03 10:30","2021","12","03","10:30","6.7","","6.2","","97","","","","18","","40","","16.1","","98.70","","","","","","Moderate Rain"
"-52.75","47.62","ST. JOHN'S INTL A","8403505","2021-12-03 11:30","2021","12","03","11:30","7.4","","6.9","","97","","","","19","","48","","16.1","","98.40","","","","","","Rain"
"-52.75","47.62","ST. JOHN'S INTL A","8403505","2021-12-03 12:30","2021","12","03","12:30","8.1","","7.9","","99","","","","19","","54","","12.9","","98.10","","","","","","Rain"
"-52.75","47.62","ST. JOHN'S INTL A","8403505","2021-12-03 13:30","2021","12","03","13:30","8.9","","8.5","","97","","","","19","","55","","16.1","","97.87","","","","","","Rain"
"-52.75","47.62","ST. JOHN'S INTL A","8403505","2021-12-03 14:30","2021","12","03","14:30","10.0","","9.7","","98","","","","19","","58","","4.0","","97.59","","","","","","Rain,Fog"
"-52.75","47.62","ST. JOHN'S INTL A","8403505","2021-12-03 15:30","2021","12","03","15:30","9.4","","9.1","","98","","","","19","","55","","2.0","","97.46","","","","","","Rain,Fog"
"-52.75","47.62","ST. JOHN'S INTL A","8403505","2021-12-03 16:30","2021","12","03","16:30","10.4","","10.0","","97","","","","19","","41","","12.9","","97.24","","","","","","Moderate Rain"
"-52.75","47.62","ST. JOHN'S INTL A","8403505","2021-12-03 17:30","2021","12","03","17:30","10.1","","9.7","","97","","","","20","","36","","24.1","","97.13","","","","","","Moderate Rain"
"-52.75","47.62","ST. JOHN'S INTL A","8403505","2021-12-03 18:30","2021","12","03","18:30","10.5","","10.0","","96","","","","20","","30","","24.1","","96.94","","","","","","Rain"
"-52.75","47.62","ST. JOHN'S INTL A","8403505","2021-12-03 19:30","2021","12","03","19:30","10.2","","8.9","","92","","","","24","","41","","19.3","","96.93","","","","","","Drizzle"
"-52.75","47.62","ST. JOHN'S INTL A","8403505","2021-12-03 20:30","2021","12","03","20:30","7.7","","5.4","","85","","","","26","","53","","24.1","","96.99","","","","","","Drizzle"
"-52.75","47.62","ST. JOHN'S INTL A","8403505","2021-12-03 21:30","2021","12","03","21:30","6.0","","3.7","","85","","","","25","","41","","24.1","","96.97","","","","","","NA"
"-52.75","47.62","ST. JOHN'S INTL A","8403505","2021-12-03 22:30","2021","12","03","22:30","5.1","","2.6","","84","","","","25","","40","","24.1","","97.05","","","","","","NA"
"-52.75","47.62","ST. JOHN'S INTL A","8403505","2021-12-03 23:30","2021","12","03","23:30","4.9","","3.5","","91","","","","24","","40","","24.1","","97.08","","","","","","Mainly Clear"
"-52.75","47.62","ST. JOHN'S INTL A","8403505","2021-12-04 00:30","2021","12","04","00:30","4.7","","2.5","","86","","","","25","","44","","24.1","","97.08","","","","","","NA"
"-52.75","47.62","ST. JOHN'S INTL A","8403505","2021-12-04 01:30","2021","12","04","01:30","4.3","","2.6","","89","","","","26","","37","","24.1","","97.11","","","","","","Drizzle"
"-52.75","47.62","ST. JOHN'S INTL A","8403505","2021-12-04 02:30","2021","12","04","02:30","3.7","","2.2","","90","","","","27","","41","","24.1","","97.12","","","","","","Cloudy"
"-52.75","47.62","ST. JOHN'S INTL A","8403505","2021-12-04 03:30","2021","12","04","03:30","2.9","","1.4","","90","","","","26","","39","","24.1","","97.15","","","","","","NA"
"-52.75","47.62","ST. JOHN'S INTL A","8403505","2021-12-04 04:30","2021","12","04","04:30","2.5","","1.1","","91","","","","26","","32","","24.1","","97.26","","","","","","Rain"
"-52.75","47.62","ST. JOHN'S INTL A","8403505","2021-12-04 05:30","2021","12","04","05:30","1.4","","0.3","","92","","","","26","","41","","24.1","","97.33","","","","","","Rain"
"-52.75","47.62","ST. JOHN'S INTL A","8403505","2021-12-04 06:30","2021","12","04","06:30","1.3","","0.0","","91","","","","26","","37","","24.1","","97.41","","","","","","NA"
"-52.75","47.62","ST. JOHN'S INTL A","8403505","2021-12-04 07:30","2021","12","04","07:30","1.1","","-1.7","","81","","","","27","","36","","24.1","","97.50","","","","","","Snow Showers"
"-52.75","47.62","ST. JOHN'S INTL A","8403505","2021-12-04 08:30","2021","12","04","08:30","0.9","","-3.0","","75","","","","27","","49","","24.1","","97.58","","","","","","Mostly Cloudy"
"-52.75","47.62","ST. JOHN'S INTL A","8403505","2021-12-04 09:30","2021","12","04","09:30","-0.4","","-4.0","","77","","","","27","","61","","24.1","","97.72","","","","-9","","Snow Showers"
"-52.75","47.62","ST. JOHN'S INTL A","8403505","2021-12-04 10:30","2021","12","04","10:30","-0.2","","-4.3","","74","","","","29","","42","","24.1","","97.89","","","","-8","","Snow Showers"
"-52.75","47.62","ST. JOHN'S INTL A","8403505","2021-12-04 11:30","2021","12","04","11:30","0.1","","-7.4","","57","","","","28","","53","","24.1","","97.95","","","","","","Snow Showers"
"-52.75","47.62","ST. JOHN'S INTL A","8403505","2021-12-04 12:30","2021","12","04","12:30","-0.1","","-12.6","","39","","","","29","","63","","24.1","","98.07","","","","-9","","NA"
"-52.75","47.62","ST. JOHN'S INTL A","8403505","2021-12-04 13:30","2021","12","04","13:30","-0.5","","-10.8","","46","","","","29","","41","","24.1","","98.24","","","","-8","","NA"
"-52.75","47.62","ST. JOHN'S INTL A","8403505","2021-12-04 14:30","2021","12","04","14:30","-0.7","","-11.5","","44","","","","30","","47","","24.1","","98.41","","","","-9","","Mainly Clear"
"-52.75","47.62","ST. JOHN'S INTL A","8403505","2021-12-04 15:30","2021","12","04","15:30","-1.3","","-12.5","","43","","","","28","","46","","24.1","","98.62","","","","-10","","NA"
"-52.75","47.62","ST. JOHN'S INTL A","8403505","2021-12-04 16:30","2021","12","04","16:30","-1.6","","-11.8","","46","","","","28","","36","","24.1","","98.78","","","","-9","","NA"
"-52.75","47.62","ST. JOHN'S INTL A","8403505","2021-12-04 17:30","2021","12","04","17:30","-1.7","","-12.0","","45","","","","28","","33","","24.1","","98.93","","","","-9","","Mostly Cloudy"
"-52.75","47.62","ST. JOHN'S INTL A","8403505","2021-12-04 18:30","2021","12","04","18:30","-2.0","","-10.6","","52","","","","29","","44","","24.1","","99.10","","","","-10","","NA"
"-52.75","47.62","ST. JOHN'S INTL A","8403505","2021-12-04 19:30","2021","12","04","19:30","-2.4","","-10.4","","54","","","","29","","36","","24.1","","99.28","","","","-10","","NA"
"-52.75","47.62","ST. JOHN'S INTL A","8403505","2021-12-04 20:30","2021","12","04","20:30","-3.1","","-11.0","","55","","","","29","","33","","24.1","","99.43","","","","-11","","Mainly Clear"
"-52.75","47.62","ST. JOHN'S INTL A","8403505","2021-12-04 21:30","2021","12","04","21:30","-2.5","","-11.7","","49","","","","29","","40","","24.1","","99.54","","","","-11","","NA"
"-52.75","47.62","ST. JOHN'S INTL A","8403505","2021-12-04 22:30","2021","12","04","22:30","-2.2","","-10.9","","52","","","","29","","39","","24.1","","99.64","","","","-10","","NA"
"-52.75","47.62","ST. JOHN'S INTL A","8403505","2021-12-04 23:30","2021","12","04","23:30","-2.1","","-10.1","","55","","","","28","","36","","24.1","","99.71","","","","-10","","Clear"
"-52.75","47.62","ST. JOHN'S INTL A","8403505","2021-12-05 00:30","2021","12","05","00:30","-2.1","","-10.0","","55","","","","28","","35","","24.1","","99.83","","","","-10","","NA"
"-52.75","47.62","ST. JOHN'S INTL A","8403505","2021-12-05 01:30","2021","12","05","01:30","-2.3","","-9.0","","60","","","","28","","26","","24.1","","99.97","","","","-9","","NA"
"-52.75","47.62","ST. JOHN'S INTL A","8403505","2021-12-05 02:30","2021","12","05","02:30","-2.7","","-8.8","","63","","","","28","","18","","24.1","","100.08","","","","-8","","Mainly Clear"
"-52.75","47.62","ST. JOHN'S INTL A","8403505","2021-12-05 03:30","2021","12","05","03:30","-2.7","","-8.4","","65","","","","28","","21","","24.1","","100.12","","","","-9","","NA"
"-52.75","47.62","ST. JOHN'S INTL A","8403505","2021-12-05 04:30","2021","12","05","04:30","-3.3","","-9.0","","65","","","","28","","15","","24.1","","100.16","","","","-8","","NA"
"-52.75","47.62","ST. JOHN'S INTL A","8403505","2021-12-05 05:30","2021","12","05","05:30","-3.9","","-7.5","","76","","","","22","","10","","24.1","","100.27","","","","-8","","Clear"
"-52.75","47.62","ST. JOHN'S INTL A","8403505","2021-12-05 06:30","2021","12","05","06:30","-4.2","","-5.9","","88","","","","24","","11","","24.1","","100.31","","","","-9","","NA"
"-52.75","47.62","ST. JOHN'S INTL A","8403505","2021-12-05 07:30","2021","12","05","07:30","-3.8","","-5.4","","89","","","","21","","8","","24.1","","100.41","","","","-7","","NA"
"-52.75","47.62","ST. JOHN'S INTL A","8403505","2021-12-05 08:30","2021","12","05","08:30","-2.6","","-5.2","","83","","","","23","","13","","24.1","","100.50","","","","-7","","Mostly Cloudy"
"-52.75","47.62","ST. JOHN'S INTL A","8403505","2021-12-05 09:30","2021","12","05","09:30","-1.6","","-5.8","","73","","","","24","","10","","24.1","","100.52","","","","-5","","NA"
"-52.75","47.62","ST. JOHN'S INTL A","8403505","2021-12-05 10:30","2021","12","05","10:30","0.2","","-7.2","","58","","","","18","","8","","24.1","","100.53","","","","","","NA"
"-52.75","47.62","ST. JOHN'S INTL A","8403505","2021-12-05 11:30","2021","12","05","11:30","0.3","","-6.5","","60","","","","26","","7","","24.1","","100.46","","","","","","Mostly Cloudy"
"-52.75","47.62","ST. JOHN'S INTL A","8403505","2021-12-05 12:30","2021","12","05","12:30","1.2","","-4.6","","65","","","","20","","14","","24.1","","100.41","","","","","","NA"
"-52.75","47.62","ST. JOHN'S INTL A","8403505","2021-12-05 13:30","2021","12","05","13:30","0.8","","-6.0","","60","","","","25","","13","","24.1","","100.38","","","","","","NA"
"-52.75","47.62","ST. JOHN'S INTL A","8403505","2021-12-05 14:30","2021","12","05","14:30","1.8","","-5.0","","61","","","","25","","14","","24.1","","100.37","","","","","","Mostly Cloudy"
"-52.75","47.62","ST. JOHN'S INTL A","8403505","2021-12-05 15:30","2021","12","05","15:30","0.9","","-6.0","","60","","","","27","","17","","24.1","","100.39","","","","","","NA"
"-52.75","47.62","ST. JOHN'S INTL A","8403505","2021-12-05 16:30","2021","12","05","16:30","-0.6","","-6.6","","64","","","","24","","16","","24.1","","100.44","","","","-5","","NA"
"-52.75","47.62","ST. JOHN'S INTL A","8403505","2021-12-05 17:30","2021","12","05","17:30","0.3","","-6.4","","61","","","","24","","14","","24.1","","100.45","","","","","","Mostly Cloudy"
"-52.75","47.62","ST. JOHN'S INTL A","8403505","2021-12-05 18:30","2021","12","05","18:30","-0.6","","-5.9","","68","","","","23","","12","","24.1","","100.45","","","","-5","","NA"
"-52.75","47.62","ST. JOHN'S INTL A","8403505","2021-12-05 19:30","2021","12","05","19:30","-0.9","","-4.9","","74","","","","22","","18","","24.1","","100.42","","","","-6","","NA"
"-52.75","47.62","ST. JOHN'S INTL A","8403505","2021-12-05 20:30","2021","12","05","20:30","-0.5","","-1.4","","93","","","","23","","18","","12.9","","100.43","","","","-6","","Snow Showers"
"-52.75","47.62","ST. JOHN'S INTL A","8403505","2021-12-05 21:30","2021","12","05","21:30","0.0","","-0.8","","95","","","","26","","18","","24.1","","100.48","","","","-5","","Snow Showers"
"-52.75","47.62","ST. JOHN'S INTL A","8403505","2021-12-05 22:30","2021","12","05","22:30","-0.9","","-3.3","","84","","","","30","","30","","24.1","","100.58","","","","-8","","Snow Showers"
"-52.75","47.62","ST. JOHN'S INTL A","8403505","2021-12-05 23:30","2021","12","05","23:30","-1.7","","-5.5","","76","","","","30","","29","","24.1","","100.69","","","","-9","","Mostly Cloudy"
"-52.75","47.62","ST. JOHN'S INTL A","8403505","2021-12-06 00:30","2021","12","06","00:30","-2.2","","-6.0","","75","","","","30","","31","","24.1","","100.74","","","","-9","","NA"
"-52.75","47.62","ST. JOHN'S INTL A","8403505","2021-12-06 01:30","2021","12","06","01:30","-2.7","","-5.8","","79","","","","29","","25","","24.1","","100.83","","","","-9","","NA"
"-52.75","47.62","ST. JOHN'S INTL A","8403505","2021-12-06 02:30","2021","12","06","02:30","-2.4","","-6.4","","74","","","","30","","31","","24.1","","100.94","","","","-10","","Mainly Clear"
"-52.75","47.62","ST. JOHN'S INTL A","8403505","2021-12-06 03:30","2021","12","06","03:30","-2.9","","-6.0","","79","","","","31","","22","","24.1","","101.03","","","","-9","","NA"
"-52.75","47.62","ST. JOHN'S INTL A","8403505","2021-12-06 04:30","2021","12","06","04:30","-3.7","","-6.1","","83","","","","30","","18","","24.1","","101.10","","","","-10","","NA"
"-52.75","47.62","ST. JOHN'S INTL A","8403505","2021-12-06 05:30","2021","12","06","05:30","-3.0","","-5.9","","80","","","","31","","23","","24.1","","101.21","","","","-9","","Mainly Clear"
"-52.75","47.62","ST. JOHN'S INTL A","8403505","2021-12-06 06:30","2021","12","06","06:30","-3.6","","-6.4","","81","","","","31","","16","","24.1","","101.31","","","","-9","","NA"
"-52.75","47.62","ST. JOHN'S INTL A","8403505","2021-12-06 07:30","2021","12","06","07:30","-4.0","","-6.8","","81","","","","21","","7","","24.1","","101.48","","","","-7","","NA"
"-52.75","47.62","ST. JOHN'S INTL A","8403505","2021-12-06 08:30","2021","12","06","08:30","-3.1","","-6.2","","79","","","","28","","14","","24.1","","101.50","","","","-8","","Mainly Clear"
"-52.75","47.62","ST. JOHN'S INTL A","8403505","2021-12-06 09:30","2021","12","06","09:30","-1.8","","-7.0","","67","","","","30","","23","","24.1","","101.58","","","","-8","","NA"
"-52.75","47.62","ST. JOHN'S INTL A","8403505","2021-12-06 10:30","2021","12","06","10:30","-1.2","","-7.6","","62","","","","30","","22","","24.1","","101.61","","","","-7","","NA"
"-52.75","47.62","ST. JOHN'S INTL A","8403505","2021-12-06 11:30","2021","12","06","11:30","-0.6","","-6.5","","64","","","","28","","19","","24.1","","101.57","","","","-6","","Mostly Cloudy"
"-52.75","47.62","ST. JOHN'S INTL A","8403505","2021-12-06 12:30","2021","12","06","12:30","-0.2","","-6.8","","61","","","","28","","14","","24.1","","101.53","","","","-4","","NA"
"-52.75","47.62","ST. JOHN'S INTL A","8403505","2021-12-06 13:30","2021","12","06","13:30","-0.2","","-6.3","","64","","","","27","","18","","24.1","","101.56","","","","-5","","NA"
"-52.75","47.62","ST. JOHN'S INTL A","8403505","2021-12-06 14:30","2021","12","06","14:30","-0.2","","-6.4","","63","","","","28","","22","","24.1","","101.56","","","","-6","","Cloudy"
"-52.75","47.62","ST. JOHN'S INTL A","8403505","2021-12-06 15:30","2021","12","06","15:30","-0.2","","-5.4","","68","","","","26","","12","","24.1","","101.59","","","","-4","","NA"
"-52.75","47.62","ST. JOHN'S INTL A","8403505","2021-12-06 16:30","2021","12","06","16:30","-0.4","","-5.0","","71","","","","20","","10","","24.1","","101.57","","","","-4","","NA"
"-52.75","47.62","ST. JOHN'S INTL A","8403505","2021-12-06 17:30","2021","12","06","17:30","-0.8","","-5.3","","72","","","","19","","6","","24.1","","101.60","","","","-3","","Mostly Cloudy"
"-52.75","47.62","ST. JOHN'S INTL A","8403505","2021-12-06 18:30","2021","12","06","18:30","-0.5","","-4.5","","74","","","","18","","12","","24.1","","101.56","","","","-4","","NA"
"-52.75","47.62","ST. JOHN'S INTL A","8403505","2021-12-06 19:30","2021","12","06","19:30","0.0","","-3.2","","79","","","","20","","17","","24.1","","101.46","","","","-5","","NA"
"-52.75","47.62","ST. JOHN'S INTL A","8403505","2021-12-06 20:30","2021","12","06","20:30","0.2","","-3.0","","79","","","","19","","18","","24.1","","101.38","","","","","","Cloudy"
"-52.75","47.62","ST. JOHN'S INTL A","8403505","2021-12-06 21:30","2021","12","06","21:30","0.2","","-2.9","","79","","","","21","","17","","24.1","","101.27","","","","","","NA"
"-52.75","47.62","ST. JOHN'S INTL A","8403505","2021-12-06 22:30","2021","12","06","22:30","0.8","","-2.7","","78","","","","20","","16","","24.1","","101.17","","","","","","NA"
"-52.75","47.62","ST. JOHN'S INTL A","8403505","2021-12-06 23:30","2021","12","06","23:30","1.6","","-1.7","","79","","","","19","","32","","24.1","","100.95","","","","","","Cloudy"
"-52.75","47.62","ST. JOHN'S INTL A","8403505","2021-12-07 00:30","2021","12","07","00:30","1.8","","-1.0","","82","","","","20","","41","","24.1","","100.84","","","","","","NA"
"-52.75","47.62","ST. JOHN'S INTL A","8403505","2021-12-07 01:30","2021","12","07","01:30","2.6","","0.4","","85","","","","18","","48","","24.1","","100.61","","","","","","NA"
"-52.75","47.62","ST. JOHN'S INTL A","8403505","2021-12-07 02:30","2021","12","07","02:30","3.5","","1.8","","88","","","","19","","47","","24.1","","100.44","","","","","","Cloudy"
"-52.75","47.62","ST. JOHN'S INTL A","8403505","2021-12-07 03:30","2021","12","07","03:30","4.2","","2.8","","90","","","","19","","49","","24.1","","100.24","","","","","","Rain"
"-52.75","47.62","ST. JOHN'S INTL A","8403505","2021-12-07 04:30","2021","12","07","04:30","4.7","","4.0","","95","","","","19","","50","","24.1","","100.08","","","","","","Rain"
"-52.75","47.62","ST. JOHN'S INTL A","8403505","2021-12-07 05:30","2021","12","07","05:30","5.7","","5.2","","96","","","","20","","52","","19.3","","99.89","","","","","","Rain"
"-52.75","47.62","ST. JOHN'S INTL A","8403505","2021-12-07 06:30","2021","12","07","06:30","6.9","","6.5","","97","","","","20","","46","","19.3","","99.82","","","","","","Rain"
"-52.75","47.62","ST. JOHN'S INTL A","8403505","2021-12-07 07:30","2021","12","07","07:30","7.9","","7.5","","97","","","","20","","49","","12.9","","99.65","","","","","","Drizzle"
"-52.75","47.62","ST. JOHN'S INTL A","8403505","2021-12-07 08:30","2021","12","07","08:30","8.9","","8.6","","98","","","","20","","48","","3.6","","99.53","","","","","","Drizzle,Fog"
"-52.75","47.62","ST. JOHN'S INTL A","8403505","2021-12-07 09:30","2021","12","07","09:30","10.2","","9.8","","97","","","","20","","42","","24.1","","99.34","","","","","","Drizzle"
"-52.75","47.62","ST. JOHN'S INTL A","8403505","2021-12-07 10:30","2021","12","07","10:30","12.4","","11.8","","96","","","","21","","48","","24.1","","99.14","","","","","","Drizzle"
"-52.75","47.62","ST. JOHN'S INTL A","8403505","2021-12-07 11:30","2021","12","07","11:30","13.2","","12.1","","93","","","","22","","62","","24.1","","98.93","","","","","","Drizzle"
"-52.75","47.62","ST. JOHN'S INTL A","8403505","2021-12-07 12:30","2021","12","07","12:30","14.1","","12.6","","91","","","","22","","68","","24.1","","98.73","","","","","","Drizzle"
"-52.75","47.62","ST. JOHN'S INTL A","8403505","2021-12-07 13:30","2021","12","07","13:30","14.7","","12.7","","88","","","","22","","60","","24.1","","98.62","","","","","","NA"
"-52.75","47.62","ST. JOHN'S INTL A","8403505","2021-12-07 14:30","2021","12","07","14:30","14.7","","13.4","","92","","","","22","","63","","24.1","","98.51","","","","","","Rain"
"-52.75","47.62","ST. JOHN'S INTL A","8403505","2021-12-07 15:30","2021","12","07","15:30","13.9","","12.6","","92","","","","23","","57","","24.1","","98.49","","","","","","Rain"
"-52.75","47.62","ST. JOHN'S INTL A","8403505","2021-12-07 16:30","2021","12","07","16:30","12.2","","10.7","","91","","","","25","","52","","24.1","","98.55","","","","","","Rain"
"-52.75","47.62","ST. JOHN'S INTL A","8403505","2021-12-07 17:30","2021","12","07","17:30","6.9","","6.0","","94","","","","27","","43","","24.1","","98.69","","","","","","Drizzle"
"-52.75","47.62","ST. JOHN'S INTL A","8403505","2021-12-07 18:30","2021","12","07","18:30","4.7","","2.7","","87","","","","28","","49","","24.1","","98.73","","","","","","NA"
"-52.75","47.62","ST. JOHN'S INTL A","8403505","2021-12-07 19:30","2021","12","07","19:30","3.4","","1.0","","84","","","","28","","51","","24.1","","98.81","","","","","","NA"
"-52.75","47.62","ST. JOHN'S INTL A","8403505","2021-12-07 20:30","2021","12","07","20:30","3.1","","-0.6","","76","","","","28","","46","","24.1","","98.96","","","","","","Mostly Cloudy"
"-52.75","47.62","ST. JOHN'S INTL A","8403505","2021-12-07 21:30","2021","12","07","21:30","3.0","","-0.8","","77","","","","27","","37","","24.1","","99.05","","","","","","NA"
"-52.75","47.62","ST. JOHN'S INTL A","8403505","2021-12-07 22:30","2021","12","07","22:30","2.6","","-1.4","","75","","","","27","","26","","24.1","","99.11","","","","","","NA"
"-52.75","47.62","ST. JOHN'S INTL A","8403505","2021-12-07 23:30","2021","12","07","23:30","2.7","","-1.1","","76","","","","29","","26","","24.1","","99.25","","","","","","Cloudy"
"-52.75","47.62","ST. JOHN'S INTL A","8403505","2021-12-08 00:30","2021","12","08","00:30","1.6","","-4.9","","62","","","","30","","30","","24.1","","99.32","","","","","","NA"
"-52.75","47.62","ST. JOHN'S INTL A","8403505","2021-12-08 01:30","2021","12","08","01:30","0.7","","-6.0","","61","","","","30","","30","","24.1","","99.43","","","","","","NA"
"-52.75","47.62","ST. JOHN'S INTL A","8403505","2021-12-08 02:30","2021","12","08","02:30","0.2","","-6.3","","62","","","","31","","28","","24.1","","99.56","","","","","","Cloudy"
"-52.75","47.62","ST. JOHN'S INTL A","8403505","2021-12-08 03:30","2021","12","08","03:30","-0.2","","-5.5","","68","","","","31","","22","","24.1","","99.65","","","","-6","","NA"
"-52.75","47.62","ST. JOHN'S INTL A","8403505","2021-12-08 04:30","2021","12","08","04:30","-1.1","","-6.2","","68","","","","28","","21","","24.1","","99.76","","","","-7","","NA"
"-52.75","47.62","ST. JOHN'S INTL A","8403505","2021-12-08 05:30","2021","12","08","05:30","-1.0","","-6.9","","64","","","","29","","19","","24.1","","99.78","","","","-6","","Mostly Cloudy"
"-52.75","47.62","ST. JOHN'S INTL A","8403505","2021-12-08 06:30","2021","12","08","06:30","-1.4","","-6.3","","69","","","","28","","17","","24.1","","99.89","","","","-7","","NA"
"-52.75","47.62","ST. JOHN'S INTL A","8403505","2021-12-08 07:30","2021","12","08","07:30","-1.2","","-6.7","","66","","","","28","","17","","24.1","","99.93","","","","-6","","NA"
"-52.75","47.62","ST. JOHN'S INTL A","8403505","2021-12-08 08:30","2021","12","08","08:30","-1.0","","-7.2","","63","","","","28","","21","","24.1","","100.01","","","","-7","","Mainly Clear"
"-52.75","47.62","ST. JOHN'S INTL A","8403505","2021-12-08 09:30","2021","12","08","09:30","0.0","","-8.3","","54","","","","30","","24","","24.1","","100.06","","","","-6","","NA"
"-52.75","47.62","ST. JOHN'S INTL A","8403505","2021-12-08 10:30","2021","12","08","10:30","0.6","","-7.8","","54","","","","28","","23","","24.1","","100.14","","","","","","NA"
"-52.75","47.62","ST. JOHN'S INTL A","8403505","2021-12-08 11:30","2021","12","08","11:30","0.2","","-7.5","","56","","","","30","","21","","24.1","","100.14","","","","","","Mostly Cloudy"
"-52.75","47.62","ST. JOHN'S INTL A","8403505","2021-12-08 12:30","2021","12","08","12:30","0.7","","-6.3","","59","","","","27","","17","","24.1","","100.14","","","","","","NA"
"-52.75","47.62","ST. JOHN'S INTL A","8403505","2021-12-08 13:30","2021","12","08","13:30","0.9","","-5.3","","63","","","","28","","21","","24.1","","100.13","","","","","","NA"
"-52.75","47.62","ST. JOHN'S INTL A","8403505","2021-12-08 14:30","2021","12","08","14:30","1.0","","-4.6","","66","","","","27","","14","","24.1","","100.14","","","","","","Mostly Cloudy"
"-52.75","47.62","ST. JOHN'S INTL A","8403505","2021-12-08 15:30","2021","12","08","15:30","1.3","","-3.8","","69","","","","28","","24","","24.1","","100.18","","","","","","NA"
"-52.75","47.62","ST. JOHN'S INTL A","8403505","2021-12-08 16:30","2021","12","08","16:30","1.0","","-3.1","","74","","","","29","","24","","24.1","","100.23","","","","","","NA"
"-52.75","47.62","ST. JOHN'S INTL A","8403505","2021-12-08 17:30","2021","12","08","17:30","0.1","","-3.2","","79","","","","30","","12","","24.1","","100.30","","","","","","Cloudy"
"-52.75","47.62","ST. JOHN'S INTL A","8403505","2021-12-08 18:30","2021","12","08","18:30","0.0","","-2.9","","80","","","","29","","10","","24.1","","100.34","","","","-3","","NA"
"-52.75","47.62","ST. JOHN'S INTL A","8403505","2021-12-08 19:30","2021","12","08","19:30","0.3","","-3.0","","78","","","","28","","9","","24.1","","100.39","","","","","","NA"
"-52.75","47.62","ST. JOHN'S INTL A","8403505","2021-12-08 20:30","2021","12","08","20:30","0.1","","-3.8","","75","","","","27","","8","","24.1","","100.37","","","","","","Cloudy"
"-52.75","47.62","ST. JOHN'S INTL A","8403505","2021-12-08 21:30","2021","12","08","21:30","-0.5","","-3.6","","79","","","","30","","5","","24.1","","100.34","","","","-2","","NA"
"-52.75","47.62","ST. JOHN'S INTL A","8403505","2021-12-08 22:30","2021","12","08","22:30","-0.8","","-3.2","","83","","","","24","","7","","24.1","","100.42","","","","-3","","NA"
"-52.75","47.62","ST. JOHN'S INTL A","8403505","2021-12-08 23:30","2021","12","08","23:30","-0.2","","-3.2","","80","","","","21","","7","","24.1","","100.40","","","","-3","","Cloudy"
"-52.75","47.62","ST. JOHN'S INTL A","8403505","2021-12-09 00:30","2021","12","09","00:30","-1.2","","-3.6","","84","","","","18","","4","","24.1","","100.27","","","","-3","","NA"
"-52.75","47.62","ST. JOHN'S INTL A","8403505","2021-12-09 01:30","2021","12","09","01:30","-1.4","","-3.3","","87","","","","15","","3","","24.1","","100.13","","","","-2","","NA"
"-52.75","47.62","ST. JOHN'S INTL A","8403505","2021-12-09 02:30","2021","12","09","02:30","-1.8","","-3.3","","90","","","","10","","4","","24.1","","100.00","","","","-3","","Cloudy"
"-52.75","47.62","ST. JOHN'S INTL A","8403505","2021-12-09 03:30","2021","12","09","03:30","-1.2","","-3.1","","87","","","","14","","4","","24.1","","99.88","","","","-3","","NA"
"-52.75","47.62","ST. JOHN'S INTL A","8403505","2021-12-09 04:30","2021","12","09","04:30","-0.3","","-2.8","","83","","","","9","","10","","24.1","","99.72","","","","-4","","NA"
"-52.75","47.62","ST. JOHN'S INTL A","8403505","2021-12-09 05:30","2021","12","09","05:30","0.8","","-2.8","","77","","","","11","","21","","24.1","","99.48","","","","","","Cloudy"
"-52.75","47.62","ST. JOHN'S INTL A","8403505","2021-12-09 06:30","2021","12","09","06:30","1.0","","-1.8","","81","","","","11","","27","","24.1","","99.26","","","","","","Snow"
"-52.75","47.62","ST. JOHN'S INTL A","8403505","2021-12-09 07:30","2021","12","09","07:30","-0.1","","-0.4","","98","","","","11","","32","","0.8","","98.88","","","","-7","","Moderate Snow,Freezing Fog"
"-52.75","47.62","ST. JOHN'S INTL A","8403505","2021-12-09 08:30","2021","12","09","08:30","-0.1","","-0.3","","98","","","","11","","33","","0.8","","98.57","","","","-7","","Moderate Snow,Freezing Fog"
"-52.75","47.62","ST. JOHN'S INTL A","8403505","2021-12-09 09:30","2021","12","09","09:30","0.1","","-0.3","","97","","","","11","","30","","2.4","","98.39","","","","","","Snow,Ice Pellets,Fog"
"-52.75","47.62","ST. JOHN'S INTL A","8403505","2021-12-09 10:30","2021","12","09","10:30","0.0","","-0.2","","98","","","","9","","46","","1.2","","97.97","","","","-8","","Snow,Ice Pellets,Fog"
"-52.75","47.62","ST. JOHN'S INTL A","8403505","2021-12-09 11:30","2021","12","09","11:30","0.0","","-0.2","","98","","","","7","","41","","2.4","","97.51","","","","-7","","Snow,Ice Pellets,Fog"
"-52.75","47.62","ST. JOHN'S INTL A","8403505","2021-12-09 12:30","2021","12","09","12:30","0.3","","0.0","","99","","","","8","","43","","2.4","","97.24","","","","","","Snow,Ice Pellets,Fog"
"-52.75","47.62","ST. JOHN'S INTL A","8403505","2021-12-09 13:30","2021","12","09","13:30","0.8","","0.7","","99","","","","7","","35","","1.2","","96.89","","","","","","Drizzle,Fog"
"-52.75","47.62","ST. JOHN'S INTL A","8403505","2021-12-09 14:30","2021","12","09","14:30","1.3","","1.2","","99","","","","6","","27","","1.2","","96.64","","","","","","Rain,Fog"
"-52.75","47.62","ST. JOHN'S INTL A","8403505","2021-12-09 15:30","2021","12","09","15:30","1.7","","1.7","","99","","","","7","","23","","0.8","","96.38","","","","","","Rain,Fog"
"-52.75","47.62","ST. JOHN'S INTL A","8403505","2021-12-09 16:30","2021","12","09","16:30","2.0","","1.8","","99","","","","5","","17","","0.4","","95.99","","","","","","Drizzle,Fog"
"-52.75","47.62","ST. JOHN'S INTL A","8403505","2021-12-09 17:30","2021","12","09","17:30","2.1","","2.0","","100","","","","1","","13","","0.4","","95.66","","","","","","Drizzle,Fog"
"-52.75","47.62","ST. JOHN'S INTL A","8403505","2021-12-09 18:30","2021","12","09","18:30","1.2","","1.1","","100","","","","36","","41","","3.2","","95.49","","","","","","Rain,Fog"
"-52.75","47.62","ST. JOHN'S INTL A","8403505","2021-12-09 19:30","2021","12","09","19:30","0.0","","-0.1","","99","","","","36","","64","","2.4","","95.52","","","","-9","","Rain,Fog"
"-52.75","47.62","ST. JOHN'S INTL A","8403505","2021-12-09 20:30","2021","12","09","20:30","-1.0","","-1.5","","96","","","","33","","67","","2.0","","96.22","","","","-11","","Snow,Blowing Snow"
"-52.75","47.62","ST. JOHN'S INTL A","8403505","2021-12-09 21:30","2021","12","09","21:30","-1.4","","-1.9","","97","","","","33","","63","","0.4","","96.66","","","","-11","","Moderate Snow,Blowing Snow"
"-52.75","47.62","ST. JOHN'S INTL A","8403505","2021-12-09 22:30","2021","12","09","22:30","-1.7","","-3.1","","90","","","","31","","64","","4.0","","97.23","","","","-11","","Snow,Blowing Snow"
"-52.75","47.62","ST. JOHN'S INTL A","8403505","2021-12-09 23:30","2021","12","09","23:30","-1.9","","-4.0","","86","","","","31","","54","","24.1","","97.64","","","","-11","","Snow,Blowing Snow"
"-52.75","47.62","ST. JOHN'S INTL A","8403505","2021-12-10 00:30","2021","12","10","00:30","-2.0","","-4.9","","81","","","","31","","67","","24.1","","97.92","","","","-12","","Blowing Snow"
"-52.75","47.62","ST. JOHN'S INTL A","8403505","2021-12-10 01:30","2021","12","10","01:30","-3.2","","-5.3","","86","","","","31","","52","","24.1","","98.26","","","","-13","","Blowing Snow"
"-52.75","47.62","ST. JOHN'S INTL A","8403505","2021-12-10 02:30","2021","12","10","02:30","-3.5","","-6.3","","81","","","","31","","49","","24.1","","98.55","","","","-13","","Blowing Snow"
"-52.75","47.62","ST. JOHN'S INTL A","8403505","2021-12-10 03:30","2021","12","10","03:30","-4.1","","-6.7","","82","","","","31","","46","","24.1","","98.75","","","","-13","","Blowing Snow"
"-52.75","47.62","ST. JOHN'S INTL A","8403505","2021-12-10 04:30","2021","12","10","04:30","-4.6","","-7.3","","81","","","","31","","44","","24.1","","98.97","","","","-14","","NA"
"-52.75","47.62","ST. JOHN'S INTL A","8403505","2021-12-10 05:30","2021","12","10","05:30","-4.9","","-7.8","","80","","","","30","","45","","24.1","","99.16","","","","-14","","Mostly Cloudy"
"-52.75","47.62","ST. JOHN'S INTL A","8403505","2021-12-10 06:30","2021","12","10","06:30","-5.1","","-8.0","","80","","","","30","","35","","24.1","","99.40","","","","-14","","NA"
"-52.75","47.62","ST. JOHN'S INTL A","8403505","2021-12-10 07:30","2021","12","10","07:30","-5.1","","-8.1","","79","","","","31","","37","","24.1","","99.55","","","","-14","","NA"
"-52.75","47.62","ST. JOHN'S INTL A","8403505","2021-12-10 08:30","2021","12","10","08:30","-4.8","","-7.9","","79","","","","31","","41","","24.1","","99.69","","","","-14","","Mainly Clear"
"-52.75","47.62","ST. JOHN'S INTL A","8403505","2021-12-10 09:30","2021","12","10","09:30","-4.7","","-7.6","","80","","","","31","","33","","24.1","","99.90","","","","-13","","NA"
"-52.75","47.62","ST. JOHN'S INTL A","8403505","2021-12-10 10:30","2021","12","10","10:30","-4.2","","-7.1","","81","","","","30","","28","","24.1","","100.01","","","","-12","","NA"
"-52.75","47.62","ST. JOHN'S INTL A","8403505","2021-12-10 11:30","2021","12","10","11:30","-3.8","","-6.8","","80","","","","31","","30","","24.1","","100.07","","","","-11","","Mostly Cloudy"
"-52.75","47.62","ST. JOHN'S INTL A","8403505","2021-12-10 12:30","2021","12","10","12:30","-3.8","","-7.1","","78","","","","30","","27","","24.1","","100.11","","","","-11","","NA"
"-52.75","47.62","ST. JOHN'S INTL A","8403505","2021-12-10 13:30","2021","12","10","13:30","-3.6","","-7.7","","74","","","","31","","30","","24.1","","100.19","","","","-11","","NA"
"-52.75","47.62","ST. JOHN'S INTL A","8403505","2021-12-10 14:30","2021","12","10","14:30","-3.7","","-9.0","","67","","","","31","","30","","24.1","","100.26","","","","-11","","Mainly Clear"
"-52.75","47.62","ST. JOHN'S INTL A","8403505","2021-12-10 15:30","2021","12","10","15:30","-3.8","","-8.3","","72","","","","30","","16","","24.1","","100.35","","","","-9","","NA"
"-52.75","47.62","ST. JOHN'S INTL A","8403505","2021-12-10 16:30","2021","12","10","16:30","-4.9","","-8.9","","74","","","","30","","22","","24.1","","100.47","","","","-12","","NA"
"-52.75","47.62","ST. JOHN'S INTL A","8403505","2021-12-10 17:30","2021","12","10","17:30","-5.2","","-9.3","","73","","","","30","","26","","24.1","","100.53","","","","-13","","Mainly Clear"
"-52.75","47.62","ST. JOHN'S INTL A","8403505","2021-12-10 18:30","2021","12","10","18:30","-5.6","","-9.9","","72","","","","30","","31","","24.1","","100.57","","","","-14","","NA"
"-52.75","47.62","ST. JOHN'S INTL A","8403505","2021-12-10 19:30","2021","12","10","19:30","-5.9","","-10.8","","68","","","","31","","31","","24.1","","100.60","","","","-14","","NA"
"-52.75","47.62","ST. JOHN'S INTL A","8403505","2021-12-10 20:30","2021","12","10","20:30","-6.1","","-11.1","","68","","","","31","","34","","24.1","","100.62","","","","-15","","Mainly Clear"
"-52.75","47.62","ST. JOHN'S INTL A","8403505","2021-12-10 21:30","2021","12","10","21:30","-6.4","","-10.6","","72","","","","32","","15","","24.1","","100.70","","","","-12","","NA"
"-52.75","47.62","ST. JOHN'S INTL A","8403505","2021-12-10 22:30","2021","12","10","22:30","-6.9","","-11.2","","72","","","","31","","6","","24.1","","100.72","","","","-10","","NA"
"-52.75","47.62","ST. JOHN'S INTL A","8403505","2021-12-10 23:30","2021","12","10","23:30","-7.0","","-11.2","","73","","","","36","","3","","24.1","","100.71","","","","-9","","Clear"
"-52.75","47.62","ST. JOHN'S INTL A","8403505","2021-12-11 00:30","2021","12","11","00:30","-8.1","","-11.4","","78","","","","32","","12","","24.1","","100.70","","","","-14","","NA"
"-52.75","47.62","ST. JOHN'S INTL A","8403505","2021-12-11 01:30","2021","12","11","01:30","-9.2","","-11.8","","82","","","","28","","12","","24.1","","100.70","","","","-15","","NA"
"-52.75","47.62","ST. JOHN'S INTL A","8403505","2021-12-11 02:30","2021","12","11","02:30","-8.2","","-11.7","","77","","","","27","","9","","24.1","","100.77","","","","-13","","Mainly Clear"
"-52.75","47.62","ST. JOHN'S INTL A","8403505","2021-12-11 03:30","2021","12","11","03:30","-7.3","","-10.7","","77","","","","30","","28","","24.1","","100.76","","","","-16","","NA"
"-52.75","47.62","ST. JOHN'S INTL A","8403505","2021-12-11 04:30","2021","12","11","04:30","-7.0","","-9.8","","80","","","","29","","23","","24.1","","100.70","","","","-15","","NA"
"-52.75","47.62","ST. JOHN'S INTL A","8403505","2021-12-11 05:30","2021","12","11","05:30","-6.0","","-9.4","","77","","","","28","","11","","24.1","","100.68","","","","-11","","Cloudy"
"-52.75","47.62","ST. JOHN'S INTL A","8403505","2021-12-11 06:30","2021","12","11","06:30","-5.4","","-8.8","","77","","","","28","","11","","24.1","","100.71","","","","-10","","NA"
"-52.75","47.62","ST. JOHN'S INTL A","8403505","2021-12-11 07:30","2021","12","11","07:30","-5.4","","-8.6","","78","","","","26","","9","","24.1","","100.70","","","","-9","","NA"
"-52.75","47.62","ST. JOHN'S INTL A","8403505","2021-12-11 08:30","2021","12","11","08:30","-5.2","","-8.0","","80","","","","25","","12","","24.1","","100.74","","","","-10","","Snow Showers"
"-52.75","47.62","ST. JOHN'S INTL A","8403505","2021-12-11 09:30","2021","12","11","09:30","-4.6","","-6.5","","87","","","","22","","7","","24.1","","100.71","","","","-8","","Snow Showers"
"-52.75","47.62","ST. JOHN'S INTL A","8403505","2021-12-11 10:30","2021","12","11","10:30","-3.1","","-6.2","","80","","","","22","","8","","24.1","","100.69","","","","-6","","NA"
"-52.75","47.62","ST. JOHN'S INTL A","8403505","2021-12-11 11:30","2021","12","11","11:30","-2.5","","-5.2","","82","","","","21","","14","","24.1","","100.61","","","","-7","","Snow Showers"
"-52.75","47.62","ST. JOHN'S INTL A","8403505","2021-12-11 12:30","2021","12","11","12:30","-1.9","","-3.8","","87","","","","19","","17","","24.1","","100.53","","","","-7","","Snow Showers"
"-52.75","47.62","ST. JOHN'S INTL A","8403505","2021-12-11 13:30","2021","12","11","13:30","-1.4","","-3.1","","88","","","","20","","16","","24.1","","100.43","","","","-6","","Snow Showers"
"-52.75","47.62","ST. JOHN'S INTL A","8403505","2021-12-11 14:30","2021","12","11","14:30","-1.2","","-2.1","","94","","","","18","","12","","9.7","","100.39","","","","-5","","Snow Showers"
"-52.75","47.62","ST. JOHN'S INTL A","8403505","2021-12-11 15:30","2021","12","11","15:30","-0.9","","-1.4","","96","","","","20","","14","","24.1","","100.30","","","","-5","","Snow Showers"
"-52.75","47.62","ST. JOHN'S INTL A","8403505","2021-12-11 16:30","2021","12","11","16:30","1.2","","0.3","","94","","","","25","","17","","24.1","","100.32","","","","","","NA"
"-52.75","47.62","ST. JOHN'S INTL A","8403505","2021-12-11 17:30","2021","12","11","17:30","1.3","","0.4","","94","","","","25","","17","","24.1","","100.34","","","","","","Cloudy"
"-52.75","47.62","ST. JOHN'S INTL A","8403505","2021-12-11 18:30","2021","12","11","18:30","1.7","","0.5","","92","","","","26","","18","","24.1","","100.32","","","","","","NA"
"-52.75","47.62","ST. JOHN'S INTL A","8403505","2021-12-11 19:30","2021","12","11","19:30","1.5","","0.3","","92","","","","24","","15","","24.1","","100.35","","","","","","NA"
"-52.75","47.62","ST. JOHN'S INTL A","8403505","2021-12-11 20:30","2021","12","11","20:30","1.0","","0.0","","93","","","","21","","12","","24.1","","100.34","","","","","","Cloudy"
"-52.75","47.62","ST. JOHN'S INTL A","8403505","2021-12-11 21:30","2021","12","11","21:30","1.6","","0.7","","94","","","","21","","13","","24.1","","100.29","","","","","","NA"
"-52.75","47.62","ST. JOHN'S INTL A","8403505","2021-12-11 22:30","2021","12","11","22:30","1.8","","0.9","","94","","","","22","","12","","24.1","","100.24","","","","","","NA"
"-52.75","47.62","ST. JOHN'S INTL A","8403505","2021-12-11 23:30","2021","12","11","23:30","1.5","","1.0","","96","","","","20","","16","","24.1","","100.09","","","","","","Cloudy"
"-52.75","47.62","ST. JOHN'S INTL A","8403505","2021-12-12 00:30","2021","12","12","00:30","2.4","","2.0","","98","","","","23","","26","","19.3","","99.98","","","","","","Rain"
"-52.75","47.62","ST. JOHN'S INTL A","8403505","2021-12-12 01:30","2021","12","12","01:30","2.5","","1.7","","94","","","","21","","21","","19.3","","99.87","","","","","","Rain"
"-52.75","47.62","ST. JOHN'S INTL A","8403505","2021-12-12 02:30","2021","12","12","02:30","2.1","","1.7","","97","","","","18","","25","","19.3","","99.70","","","","","","Rain"
"-52.75","47.62","ST. JOHN'S INTL A","8403505","2021-12-12 03:30","2021","12","12","03:30","2.8","","2.5","","98","","","","18","","28","","19.3","","99.47","","","","","","Rain"
"-52.75","47.62","ST. JOHN'S INTL A","8403505","2021-12-12 04:30","2021","12","12","04:30","3.3","","3.1","","99","","","","18","","39","","6.4","","99.16","","","","","","Rain,Fog"
"-52.75","47.62","ST. JOHN'S INTL A","8403505","2021-12-12 05:30","2021","12","12","05:30","3.8","","3.5","","98","","","","19","","44","","6.4","","98.90","","","","","","Rain,Fog"
"-52.75","47.62","ST. JOHN'S INTL A","8403505","2021-12-12 06:30","2021","12","12","06:30","5.4","","5.1","","98","","","","22","","39","","9.7","","98.60","","","","","","Drizzle,Fog"
"-52.75","47.62","ST. JOHN'S INTL A","8403505","2021-12-12 07:30","2021","12","12","07:30","9.1","","8.4","","96","","","","24","","46","","12.9","","98.49","","","","","","Rain"
"-52.75","47.62","ST. JOHN'S INTL A","8403505","2021-12-12 08:30","2021","12","12","08:30","9.3","","8.6","","95","","","","25","","49","","19.3","","98.40","","","","","","Drizzle"
"-52.75","47.62","ST. JOHN'S INTL A","8403505","2021-12-12 09:30","2021","12","12","09:30","9.9","","9.4","","97","","","","25","","42","","19.3","","98.38","","","","","","Rain"
"-52.75","47.62","ST. JOHN'S INTL A","8403505","2021-12-12 10:30","2021","12","12","10:30","10.8","","10.3","","97","","","","25","","47","","12.9","","98.31","","","","","","Drizzle"
"-52.75","47.62","ST. JOHN'S INTL A","8403505","2021-12-12 11:30","2021","12","12","11:30","11.3","","10.7","","96","","","","24","","43","","19.3","","98.20","","","","","","Drizzle"
"-52.75","47.62","ST. JOHN'S INTL A","8403505","2021-12-12 12:30","2021","12","12","12:30","12.5","","11.5","","94","","","","24","","61","","24.1","","98.01","","","","","","Drizzle"
"-52.75","47.62","ST. JOHN'S INTL A","8403505","2021-12-12 13:30","2021","12","12","13:30","13.0","","11.8","","93","","","","23","","62","","24.1","","97.82","","","","","","Rain"
"-52.75","47.62","ST. JOHN'S INTL A","8403505","2021-12-12 14:30","2021","12","12","14:30","13.4","","12.2","","92","","","","24","","56","","24.1","","97.72","","","","","","Rain"
"-52.75","47.62","ST. JOHN'S INTL A","8403505","2021-12-12 15:30","2021","12","12","15:30","13.0","","11.5","","91","","","","25","","60","","24.1","","97.69","","","","","","Rain"
"-52.75","47.62","ST. JOHN'S INTL A","8403505","2021-12-12 16:30","2021","12","12","16:30","12.3","","10.9","","91","","","","24","","51","","24.1","","97.65","","","","","","Drizzle"
"-52.75","47.62","ST. JOHN'S INTL A","8403505","2021-12-12 17:30","2021","12","12","17:30","10.7","","9.7","","93","","","","26","","53","","24.1","","97.73","","","","","","Drizzle"
"-52.75","47.62","ST. JOHN'S INTL A","8403505","2021-12-12 18:30","2021","12","12","18:30","9.9","","8.7","","92","","","","25","","48","","24.1","","97.67","","","","","","NA"
"-52.75","47.62","ST. JOHN'S INTL A","8403505","2021-12-12 19:30","2021","12","12","19:30","5.2","","4.6","","96","","","","27","","43","","24.1","","97.83","","","","","","Drizzle"
"-52.75","47.62","ST. JOHN'S INTL A","8403505","2021-12-12 20:30","2021","12","12","20:30","4.3","","3.5","","94","","","","27","","47","","24.1","","97.81","","","","","","Cloudy"
"-52.75","47.62","ST. JOHN'S INTL A","8403505","2021-12-12 21:30","2021","12","12","21:30","3.6","","1.9","","88","","","","27","","54","","24.1","","97.88","","","","","","NA"
"-52.75","47.62","ST. JOHN'S INTL A","8403505","2021-12-12 22:30","2021","12","12","22:30","2.8","","-0.1","","81","","","","27","","49","","24.1","","98.01","","","","","","NA"
"-52.75","47.62","ST. JOHN'S INTL A","8403505","2021-12-12 23:30","2021","12","12","23:30","2.3","","-1.3","","77","","","","28","","50","","24.1","","98.12","","","","","","Cloudy"
"-52.75","47.62","ST. JOHN'S INTL A","8403505","2021-12-13 00:30","2021","12","13","00:30","2.0","","-2.2","","74","","","","27","","38","","24.1","","98.14","","","","","","NA"
"-52.75","47.62","ST. JOHN'S INTL A","8403505","2021-12-13 01:30","2021","12","13","01:30","2.2","","-2.0","","74","","","","27","","43","","24.1","","98.21","","","","","","NA"
"-52.75","47.62","ST. JOHN'S INTL A","8403505","2021-12-13 02:30","2021","12","13","02:30","1.8","","-3.4","","69","","","","28","","46","","24.1","","98.23","","","","","","Clear"
"-52.75","47.62","ST. JOHN'S INTL A","8403505","2021-12-13 03:30","2021","12","13","03:30","2.2","","-3.0","","69","","","","27","","42","","24.1","","98.34","","","","","","NA"
"-52.75","47.62","ST. JOHN'S INTL A","8403505","2021-12-13 04:30","2021","12","13","04:30","2.3","","-4.5","","61","","","","28","","47","","24.1","","98.39","","","","","","NA"
"-52.75","47.62","ST. JOHN'S INTL A","8403505","2021-12-13 05:30","2021","12","13","05:30","2.2","","-4.5","","61","","","","28","","54","","24.1","","98.44","","","","","","Mostly Cloudy"
"-52.75","47.62","ST. JOHN'S INTL A","8403505","2021-12-13 06:30","2021","12","13","06:30","1.5","","-4.5","","64","","","","28","","42","","24.1","","98.52","","","","","","NA"
"-52.75","47.62","ST. JOHN'S INTL A","8403505","2021-12-13 07:30","2021","12","13","07:30","1.7","","-3.4","","69","","","","28","","40","","24.1","","98.59","","","","","","NA"
"-52.75","47.62","ST. JOHN'S INTL A","8403505","2021-12-13 08:30","2021","12","13","08:30","2.5","","-3.8","","63","","","","28","","41","","24.1","","98.64","","","","","","Mainly Clear"
"-52.75","47.62","ST. JOHN'S INTL A","8403505","2021-12-13 09:30","2021","12","13","09:30","3.3","","-2.4","","66","","","","27","","39","","24.1","","98.72","","","","","","NA"
"-52.75","47.62","ST. JOHN'S INTL A","8403505","2021-12-13 10:30","2021","12","13","10:30","3.8","","-2.3","","64","","","","27","","40","","24.1","","98.74","","","","","","NA"
"-52.75","47.62","ST. JOHN'S INTL A","8403505","2021-12-13 11:30","2021","12","13","11:30","4.3","","-2.7","","60","","","","26","","47","","24.1","","98.66","","","","","","Mainly Clear"
"-52.75","47.62","ST. JOHN'S INTL A","8403505","2021-12-13 12:30","2021","12","13","12:30","4.4","","-1.9","","64","","","","27","","49","","24.1","","98.65","","","","","","NA"
"-52.75","47.62","ST. JOHN'S INTL A","8403505","2021-12-13 13:30","2021","12","13","13:30","4.4","","-1.4","","66","","","","27","","44","","24.1","","98.61","","","","","","NA"
"-52.75","47.62","ST. JOHN'S INTL A","8403505","2021-12-13 14:30","2021","12","13","14:30","4.2","","-1.3","","67","","","","26","","50","","24.1","","98.57","","","","","","Mostly Cloudy"
"-52.75","47.62","ST. JOHN'S INTL A","8403505","2021-12-13 15:30","2021","12","13","15:30","4.0","","-1.3","","69","","","","27","","46","","24.1","","98.63","","","","","","NA"
"-52.75","47.62","ST. JOHN'S INTL A","8403505","2021-12-13 16:30","2021","12","13","16:30","3.7","","-1.0","","71","","","","27","","33","","24.1","","98.65","","","","","","NA"
"-52.75","47.62","ST. JOHN'S INTL A","8403505","2021-12-13 17:30","2021","12","13","17:30","2.8","","0.6","","85","","","","26","","40","","24.1","","98.69","","","","","","Cloudy"
"-52.75","47.62","ST. JOHN'S INTL A","8403505","2021-12-13 18:30","2021","12","13","18:30","3.0","","0.4","","83","","","","26","","39","","24.1","","98.70","","","","","","NA"
"-52.75","47.62","ST. JOHN'S INTL A","8403505","2021-12-13 19:30","2021","12","13","19:30","3.1","","0.3","","82","","","","26","","41","","24.1","","98.77","","","","","","NA"
"-52.75","47.62","ST. JOHN'S INTL A","8403505","2021-12-13 20:30","2021","12","13","20:30","2.2","","0.6","","89","","","","27","","37","","24.1","","98.84","","","","","","Rain Showers"
"-52.75","47.62","ST. JOHN'S INTL A","8403505","2021-12-13 21:30","2021","12","13","21:30","1.9","","0.1","","88","","","","26","","40","","24.1","","98.86","","","","","","NA"
"-52.75","47.62","ST. JOHN'S INTL A","8403505","2021-12-13 22:30","2021","12","13","22:30","2.3","","0.5","","88","","","","26","","34","","24.1","","98.90","","","","","","NA"
"-52.75","47.62","ST. JOHN'S INTL A","8403505","2021-12-13 23:30","2021","12","13","23:30","2.4","","-0.7","","80","","","","27","","35","","24.1","","98.98","","","","","","Mostly Cloudy"
"-52.75","47.62","ST. JOHN'S INTL A","8403505","2021-12-14 00:30","2021","12","14","00:30","2.7","","0.3","","84","","","","28","","25","","24.1","","99.01","","","","","","NA"
"-52.75","47.62","ST. JOHN'S INTL A","8403505","2021-12-14 01:30","2021","12","14","01:30","1.2","","-0.9","","86","","","","29","","33","","24.1","","98.95","","","","","","NA"
"-52.75","47.62","ST. JOHN'S INTL A","8403505","2021-12-14 02:30","2021","12","14","02:30","1.1","","-1.6","","82","","","","28","","21","","24.1","","99.03","","","","","","Mostly Cloudy"
"-52.75","47.62","ST. JOHN'S INTL A","8403505","2021-12-14 03:30","2021","12","14","03:30","0.8","","-2.1","","81","","","","28","","13","","24.1","","99.05","","","","","","NA"
"-52.75","47.62","ST. JOHN'S INTL A","8403505","2021-12-14 04:30","2021","12","14","04:30","1.3","","-1.7","","80","","","","27","","23","","24.1","","99.00","","","","","","NA"
"-52.75","47.62","ST. JOHN'S INTL A","8403505","2021-12-14 05:30","2021","12","14","05:30","1.3","","-1.8","","80","","","","27","","26","","24.1","","98.96","","","","","","Mostly Cloudy"
"-52.75","47.62","ST. JOHN'S INTL A","8403505","2021-12-14 06:30","2021","12","14","06:30","0.9","","-3.1","","75","","","","26","","18","","24.1","","98.93","","","","","","NA"
"-52.75","47.62","ST. JOHN'S INTL A","8403505","2021-12-14 07:30","2021","12","14","07:30","0.4","","-1.6","","87","","","","23","","9","","24.1","","98.90","","","","","","NA"
"-52.75","47.62","ST. JOHN'S INTL A","8403505","2021-12-14 08:30","2021","12","14","08:30","-0.1","","-1.4","","91","","","","18","","10","","24.1","","98.85","","","","-3","","Cloudy"
"-52.75","47.62","ST. JOHN'S INTL A","8403505","2021-12-14 09:30","2021","12","14","09:30","1.0","","-0.8","","88","","","","22","","10","","6.4","","98.78","","","","","","Snow"
"-52.75","47.62","ST. JOHN'S INTL A","8403505","2021-12-14 10:30","2021","12","14","10:30","0.2","","-0.3","","96","","","","30","","7","","4.8","","98.67","","","","","","Snow"
"-52.75","47.62","ST. JOHN'S INTL A","8403505","2021-12-14 11:30","2021","12","14","11:30","0.0","","-0.6","","96","","","","35","","11","","2.4","","98.47","","","","-4","","Snow,Fog"
"-52.75","47.62","ST. JOHN'S INTL A","8403505","2021-12-14 12:30","2021","12","14","12:30","-0.4","","-1.0","","96","","","","1","","10","","2.4","","98.30","","","","-4","","Snow,Fog"
"-52.75","47.62","ST. JOHN'S INTL A","8403505","2021-12-14 13:30","2021","12","14","13:30","-1.2","","-1.9","","95","","","","3","","19","","2.4","","98.19","","","","-7","","Snow,Fog"
"-52.75","47.62","ST. JOHN'S INTL A","8403505","2021-12-14 14:30","2021","12","14","14:30","-1.6","","-2.1","","96","","","","2","","21","","1.2","","98.11","","","","-7","","Snow,Fog"
"-52.75","47.62","ST. JOHN'S INTL A","8403505","2021-12-14 15:30","2021","12","14","15:30","-1.7","","-2.2","","96","","","","2","","17","","1.0","","98.12","","","","-7","","Snow,Fog"
"-52.75","47.62","ST. JOHN'S INTL A","8403505","2021-12-14 16:30","2021","12","14","16:30","-2.1","","-2.7","","95","","","","2","","21","","2.4","","98.14","","","","-8","","Snow,Fog"
"-52.75","47.62","ST. JOHN'S INTL A","8403505","2021-12-14 17:30","2021","12","14","17:30","-2.3","","-3.3","","93","","","","1","","18","","3.2","","98.19","","","","-8","","Snow,Fog"
"-52.75","47.62","ST. JOHN'S INTL A","8403505","2021-12-14 18:30","2021","12","14","18:30","-2.5","","-4.0","","90","","","","36","","25","","19.3","","98.25","","","","-9","","Snow"
"-52.75","47.62","ST. JOHN'S INTL A","8403505","2021-12-14 19:30","2021","12","14","19:30","-2.6","","-6.1","","77","","","","35","","22","","19.3","","98.30","","","","-9","","Snow"
"-52.75","47.62","ST. JOHN'S INTL A","8403505","2021-12-14 20:30","2021","12","14","20:30","-3.1","","-5.9","","81","","","","35","","27","","24.1","","98.39","","","","-10","","Snow"
"-52.75","47.62","ST. JOHN'S INTL A","8403505","2021-12-14 21:30","2021","12","14","21:30","-3.3","","-6.7","","78","","","","34","","33","","19.3","","98.41","","","","-11","","Snow"
"-52.75","47.62","ST. JOHN'S INTL A","8403505","2021-12-14 22:30","2021","12","14","22:30","-3.5","","-7.5","","74","","","","33","","39","","24.1","","98.47","","","","-12","","Snow"
"-52.75","47.62","ST. JOHN'S INTL A","8403505","2021-12-14 23:30","2021","12","14","23:30","-4.3","","-6.8","","83","","","","32","","35","","19.3","","98.52","","","","-13","","Snow"
"-52.75","47.62","ST. JOHN'S INTL A","8403505","2021-12-15 00:30","2021","12","15","00:30","-4.7","","-7.2","","82","","","","32","","40","","24.1","","98.55","","","","-14","","Snow"
"-52.75","47.62","ST. JOHN'S INTL A","8403505","2021-12-15 01:30","2021","12","15","01:30","-4.8","","-7.1","","84","","","","32","","37","","24.1","","98.61","","","","-14","","Snow"
"-52.75","47.62","ST. JOHN'S INTL A","8403505","2021-12-15 02:30","2021","12","15","02:30","-4.8","","-8.0","","78","","","","32","","46","","24.1","","98.70","","","","-14","","Snow"
"-52.75","47.62","ST. JOHN'S INTL A","8403505","2021-12-15 03:30","2021","12","15","03:30","-5.0","","-8.2","","78","","","","32","","35","","24.1","","98.79","","","","-14","","Snow"
"-52.75","47.62","ST. JOHN'S INTL A","8403505","2021-12-15 04:30","2021","12","15","04:30","-5.5","","-10.3","","69","","","","33","","43","","24.1","","98.89","","","","-15","","NA"
"-52.75","47.62","ST. JOHN'S INTL A","8403505","2021-12-15 05:30","2021","12","15","05:30","-6.3","","-11.7","","65","","","","32","","42","","24.1","","98.95","","","","-16","","Mostly Cloudy"
"-52.75","47.62","ST. JOHN'S INTL A","8403505","2021-12-15 06:30","2021","12","15","06:30","-6.6","","-12.0","","66","","","","31","","35","","24.1","","98.98","","","","-16","","NA"
"-52.75","47.62","ST. JOHN'S INTL A","8403505","2021-12-15 07:30","2021","12","15","07:30","-6.8","","-12.2","","66","","","","31","","38","","24.1","","99.03","","","","-16","","NA"
"-52.75","47.62","ST. JOHN'S INTL A","8403505","2021-12-15 08:30","2021","12","15","08:30","-6.8","","-11.6","","69","","","","32","","36","","24.1","","99.08","","","","-16","","Mostly Cloudy"
"-52.75","47.62","ST. JOHN'S INTL A","8403505","2021-12-15 09:30","2021","12","15","09:30","-6.7","","-11.2","","70","","","","31","","33","","24.1","","99.13","","","","-16","","NA"
"-52.75","47.62","ST. JOHN'S INTL A","8403505","2021-12-15 10:30","2021","12","15","10:30","-6.5","","-11.4","","68","","","","33","","33","","24.1","","99.17","","","","-15","","NA"
"-52.75","47.62","ST. JOHN'S INTL A","8403505","2021-12-15 11:30","2021","12","15","11:30","-6.3","","-11.2","","68","","","","33","","33","","24.1","","99.15","","","","-15","","Snow Showers"
"-52.75","47.62","ST. JOHN'S INTL A","8403505","2021-12-15 12:30","2021","12","15","12:30","-5.8","","-10.1","","72","","","","32","","35","","24.1","","99.13","","","","-15","","Snow Showers"
"-52.75","47.62","ST. JOHN'S INTL A","8403505","2021-12-15 13:30","2021","12","15","13:30","-6.0","","-8.6","","82","","","","31","","43","","2.4","","99.15","","","","-16","","Snow Showers"
"-52.75","47.62","ST. JOHN'S INTL A","8403505","2021-12-15 14:30","2021","12","15","14:30","-5.3","","-8.0","","82","","","","32","","48","","19.3","","99.16","","","","-15","","Snow Showers,Blowing Snow"
"-52.75","47.62","ST. JOHN'S INTL A","8403505","2021-12-15 15:30","2021","12","15","15:30","-4.9","","-7.2","","84","","","","32","","49","","4.0","","99.26","","","","-15","","Snow Showers,Blowing Snow"
"-52.75","47.62","ST. JOHN'S INTL A","8403505","2021-12-15 16:30","2021","12","15","16:30","-4.1","","-6.5","","83","","","","34","","48","","24.1","","99.41","","","","-14","","Snow Showers,Blowing Snow"
"-52.75","47.62","ST. JOHN'S INTL A","8403505","2021-12-15 17:30","2021","12","15","17:30","-3.8","","-8.3","","71","","","","35","","41","","24.1","","99.61","","","","-13","","Blowing Snow"
"-52.75","47.62","ST. JOHN'S INTL A","8403505","2021-12-15 18:30","2021","12","15","18:30","-3.9","","-8.4","","71","","","","35","","46","","24.1","","99.72","","","","-13","","Blowing Snow"
"-52.75","47.62","ST. JOHN'S INTL A","8403505","2021-12-15 19:30","2021","12","15","19:30","-4.2","","-9.4","","67","","","","34","","40","","24.1","","99.85","","","","-13","","Blowing Snow"
"-52.75","47.62","ST. JOHN'S INTL A","8403505","2021-12-15 20:30","2021","12","15","20:30","-4.6","","-8.9","","72","","","","33","","38","","24.1","","99.95","","","","-13","","Blowing Snow"
"-52.75","47.62","ST. JOHN'S INTL A","8403505","2021-12-15 21:30","2021","12","15","21:30","-5.0","","-9.5","","71","","","","33","","32","","24.1","","100.05","","","","-13","","Snow Showers,Blowing Snow"
"-52.75","47.62","ST. JOHN'S INTL A","8403505","2021-12-15 22:30","2021","12","15","22:30","-5.5","","-9.8","","72","","","","32","","31","","24.1","","100.11","","","","-14","","Snow Showers"
"-52.75","47.62","ST. JOHN'S INTL A","8403505","2021-12-15 23:30","2021","12","15","23:30","-6.3","","-10.4","","72","","","","32","","26","","24.1","","100.12","","","","-14","","Mostly Cloudy"
"-52.75","47.62","ST. JOHN'S INTL A","8403505","2021-12-16 00:30","2021","12","16","00:30","-6.7","","-10.3","","75","","","","32","","39","","24.1","","100.15","","","","-16","","NA"
"-52.75","47.62","ST. JOHN'S INTL A","8403505","2021-12-16 01:30","2021","12","16","01:30","-6.9","","-10.4","","76","","","","33","","32","","24.1","","100.21","","","","-16","","NA"
"-52.75","47.62","ST. JOHN'S INTL A","8403505","2021-12-16 02:30","2021","12","16","02:30","-6.9","","-10.4","","76","","","","32","","30","","24.1","","100.28","","","","-15","","Mostly Cloudy"
"-52.75","47.62","ST. JOHN'S INTL A","8403505","2021-12-16 03:30","2021","12","16","03:30","-7.2","","-10.9","","75","","","","33","","26","","24.1","","100.32","","","","-15","","NA"
"-52.75","47.62","ST. JOHN'S INTL A","8403505","2021-12-16 04:30","2021","12","16","04:30","-7.6","","-11.3","","75","","","","32","","32","","24.1","","100.34","","","","-17","","NA"
"-52.75","47.62","ST. JOHN'S INTL A","8403505","2021-12-16 05:30","2021","12","16","05:30","-8.3","","-12.7","","71","","","","33","","29","","24.1","","100.36","","","","-17","","Mostly Cloudy"
"-52.75","47.62","ST. JOHN'S INTL A","8403505","2021-12-16 06:30","2021","12","16","06:30","-8.4","","-13.3","","68","","","","33","","34","","24.1","","100.43","","","","-18","","NA"
"-52.75","47.62","ST. JOHN'S INTL A","8403505","2021-12-16 07:30","2021","12","16","07:30","-8.3","","-13.3","","67","","","","32","","30","","24.1","","100.49","","","","-17","","NA"
"-52.75","47.62","ST. JOHN'S INTL A","8403505","2021-12-16 08:30","2021","12","16","08:30","-8.3","","-13.4","","67","","","","33","","27","","24.1","","100.52","","","","-17","","Cloudy"
"-52.75","47.62","ST. JOHN'S INTL A","8403505","2021-12-16 09:30","2021","12","16","09:30","-8.4","","-13.6","","67","","","","33","","23","","24.1","","100.58","","","","-16","","NA"
"-52.75","47.62","ST. JOHN'S INTL A","8403505","2021-12-16 10:30","2021","12","16","10:30","-7.8","","-13.1","","66","","","","34","","21","","24.1","","100.58","","","","-15","","NA"
"-52.75","47.62","ST. JOHN'S INTL A","8403505","2021-12-16 11:30","2021","12","16","11:30","-7.6","","-13.0","","66","","","","33","","24","","24.1","","100.56","","","","-16","","Mostly Cloudy"
"-52.75","47.62","ST. JOHN'S INTL A","8403505","2021-12-16 12:30","2021","12","16","12:30","-7.3","","-12.7","","65","","","","32","","24","","24.1","","100.58","","","","-15","","NA"
"-52.75","47.62","ST. JOHN'S INTL A","8403505","2021-12-16 13:30","2021","12","16","13:30","-7.0","","-12.6","","65","","","","34","","21","","24.1","","100.56","","","","-14","","NA"
"-52.75","47.62","ST. JOHN'S INTL A","8403505","2021-12-16 14:30","2021","12","16","14:30","-6.9","","-12.5","","65","","","","32","","21","","24.1","","100.59","","","","-14","","Mostly Cloudy"
"-52.75","47.62","ST. JOHN'S INTL A","8403505","2021-12-16 15:30","2021","12","16","15:30","-6.6","","-11.6","","68","","","","32","","18","","24.1","","100.61","","","","-13","","NA"
"-52.75","47.62","ST. JOHN'S INTL A","8403505","2021-12-16 16:30","2021","12","16","16:30","-8.6","","-12.8","","72","","","","32","","13","","24.1","","100.64","","","","-15","","NA"
"-52.75","47.62","ST. JOHN'S INTL A","8403505","2021-12-16 17:30","2021","12","16","17:30","-8.9","","-12.4","","76","","","","32","","16","","24.1","","100.67","","","","-16","","Mainly Clear"
"-52.75","47.62","ST. JOHN'S INTL A","8403505","2021-12-16 18:30","2021","12","16","18:30","-9.2","","-12.8","","76","","","","34","","5","","24.1","","100.68","","","","-12","","NA"
"-52.75","47.62","ST. JOHN'S INTL A","8403505","2021-12-16 19:30","2021","12","16","19:30","-10.3","","-13.1","","80","","","","31","","7","","24.1","","100.72","","","","-14","","NA"
"-52.75","47.62","ST. JOHN'S INTL A","8403505","2021-12-16 20:30","2021","12","16","20:30","-9.2","","-12.6","","77","","","","34","","13","","24.1","","100.73","","","","-15","","Clear"
"-52.75","47.62","ST. JOHN'S INTL A","8403505","2021-12-16 21:30","2021","12","16","21:30","-9.1","","-12.9","","74","","","","29","","4","","24.1","","100.68","","","","-11","","NA"
"-52.75","47.62","ST. JOHN'S INTL A","8403505","2021-12-16 22:30","2021","12","16","22:30","-11.2","","-13.3","","84","","","","29","","4","","24.1","","100.67","","","","-14","","NA"
"-52.75","47.62","ST. JOHN'S INTL A","8403505","2021-12-16 23:30","2021","12","16","23:30","-9.4","","-11.9","","82","","","","36","","3","","24.1","","100.57","","","","-11","","Clear"
"-52.75","47.62","ST. JOHN'S INTL A","8403505","2021-12-17 00:30","2021","12","17","00:30","-11.4","","-13.7","","83","","","","20","","7","","24.1","","100.56","","","","-16","","NA"
"-52.75","47.62","ST. JOHN'S INTL A","8403505","2021-12-17 01:30","2021","12","17","01:30","-10.6","","-12.8","","84","","","","22","","5","","24.1","","100.55","","","","-14","","NA"
"-52.75","47.62","ST. JOHN'S INTL A","8403505","2021-12-17 02:30","2021","12","17","02:30","-10.5","","-12.9","","83","","","","20","","9","","24.1","","100.53","","","","-15","","Mainly Clear"
"-52.75","47.62","ST. JOHN'S INTL A","8403505","2021-12-17 03:30","2021","12","17","03:30","-10.1","","-12.6","","82","","","","24","","9","","24.1","","100.48","","","","-15","","NA"
"-52.75","47.62","ST. JOHN'S INTL A","8403505","2021-12-17 04:30","2021","12","17","04:30","-9.7","","-12.3","","81","","","","17","","10","","24.1","","100.34","","","","-15","","NA"
"-52.75","47.62","ST. JOHN'S INTL A","8403505","2021-12-17 05:30","2021","12","17","05:30","-7.7","","-9.8","","85","","","","19","","11","","24.1","","100.29","","","","-13","","Mostly Cloudy"
"-52.75","47.62","ST. JOHN'S INTL A","8403505","2021-12-17 06:30","2021","12","17","06:30","-6.5","","-8.9","","83","","","","17","","16","","24.1","","100.23","","","","-13","","NA"
"-52.75","47.62","ST. JOHN'S INTL A","8403505","2021-12-17 07:30","2021","12","17","07:30","-5.1","","-8.1","","80","","","","18","","18","","24.1","","100.18","","","","-11","","NA"
"-52.75","47.62","ST. JOHN'S INTL A","8403505","2021-12-17 08:30","2021","12","17","08:30","-4.1","","-7.2","","79","","","","17","","27","","24.1","","100.09","","","","-11","","Cloudy"
"-52.75","47.62","ST. JOHN'S INTL A","8403505","2021-12-17 09:30","2021","12","17","09:30","-3.3","","-6.7","","78","","","","17","","28","","24.1","","99.88","","","","-11","","NA"
"-52.75","47.62","ST. JOHN'S INTL A","8403505","2021-12-17 10:30","2021","12","17","10:30","-2.7","","-6.2","","77","","","","17","","42","","24.1","","99.72","","","","-11","","NA"
"-52.75","47.62","ST. JOHN'S INTL A","8403505","2021-12-17 11:30","2021","12","17","11:30","-2.3","","-5.6","","78","","","","17","","41","","24.1","","99.51","","","","-11","","Cloudy"
"-52.75","47.62","ST. JOHN'S INTL A","8403505","2021-12-17 12:30","2021","12","17","12:30","-2.1","","-4.6","","84","","","","17","","41","","2.4","","99.37","","","","-10","","Snow,Blowing Snow"
"-52.75","47.62","ST. JOHN'S INTL A","8403505","2021-12-17 13:30","2021","12","17","13:30","-2.4","","-3.4","","93","","","","17","","41","","0.8","","99.14","","","","-11","","Moderate Snow,Blowing Snow"
"-52.75","47.62","ST. JOHN'S INTL A","8403505","2021-12-17 14:30","2021","12","17","14:30","-2.0","","-2.7","","95","","","","16","","53","","0.6","","98.87","","","","-11","","Moderate Snow,Blowing Snow"
"-52.75","47.62","ST. JOHN'S INTL A","8403505","2021-12-17 15:30","2021","12","17","15:30","-1.6","","-2.1","","96","","","","18","","46","","0.4","","98.75","","","","-10","","Moderate Snow,Blowing Snow"
"-52.75","47.62","ST. JOHN'S INTL A","8403505","2021-12-17 16:30","2021","12","17","16:30","-1.1","","-1.6","","97","","","","16","","58","","0.8","","98.46","","","","-10","","Moderate Snow,Blowing Snow"
"-52.75","47.62","ST. JOHN'S INTL A","8403505","2021-12-17 17:30","2021","12","17","17:30","-0.8","","-1.4","","96","","","","16","","63","","1.6","","98.24","","","","-10","","Ice Pellets,Blowing Snow"
"-52.75","47.62","ST. JOHN'S INTL A","8403505","2021-12-17 18:30","2021","12","17","18:30","0.0","","-0.5","","96","","","","16","","60","","2.4","","97.99","","","","-9","","Drizzle,Fog"
"-52.75","47.62","ST. JOHN'S INTL A","8403505","2021-12-17 19:30","2021","12","17","19:30","0.2","","-0.2","","97","","","","17","","64","","2.0","","97.69","","","","","","Drizzle,Fog"
"-52.75","47.62","ST. JOHN'S INTL A","8403505","2021-12-17 20:30","2021","12","17","20:30","0.5","","0.1","","97","","","","17","","71","","4.0","","97.45","","","","","","Drizzle,Fog"
"-52.75","47.62","ST. JOHN'S INTL A","8403505","2021-12-17 21:30","2021","12","17","21:30","0.8","","0.5","","97","","","","17","","59","","4.0","","97.19","","","","","","Rain,Fog"
"-52.75","47.62","ST. JOHN'S INTL A","8403505","2021-12-17 22:30","2021","12","17","22:30","1.7","","1.4","","98","","","","18","","44","","8.1","","96.94","","","","","","Rain,Fog"
"-52.75","47.62","ST. JOHN'S INTL A","8403505","2021-12-17 23:30","2021","12","17","23:30","2.5","","2.3","","99","","","","22","","21","","24.1","","96.72","","","","","","Drizzle"
"-52.75","47.62","ST. JOHN'S INTL A","8403505","2021-12-18 00:30","2021","12","18","00:30","3.1","","2.8","","98","","","","27","","36","","4.0","","96.59","","","","","","Rain,Fog"
"-52.75","47.62","ST. JOHN'S INTL A","8403505","2021-12-18 01:30","2021","12","18","01:30","1.8","","1.3","","97","","","","29","","53","","24.1","","96.60","","","","","","Rain"
"-52.75","47.62","ST. JOHN'S INTL A","8403505","2021-12-18 02:30","2021","12","18","02:30","1.3","","0.9","","97","","","","29","","49","","24.1","","96.67","","","","","","Rain"
"-52.75","47.62","ST. JOHN'S INTL A","8403505","2021-12-18 03:30","2021","12","18","03:30","1.3","","0.7","","96","","","","30","","50","","24.1","","96.70","","","","","","Rain"
"-52.75","47.62","ST. JOHN'S INTL A","8403505","2021-12-18 04:30","2021","12","18","04:30","1.3","","0.7","","96","","","","28","","44","","24.1","","96.81","","","","","","Drizzle"
"-52.75","47.62","ST. JOHN'S INTL A","8403505","2021-12-18 05:30","2021","12","18","05:30","1.3","","0.2","","93","","","","28","","40","","24.1","","96.87","","","","","","Snow Showers"
"-52.75","47.62","ST. JOHN'S INTL A","8403505","2021-12-18 06:30","2021","12","18","06:30","1.1","","-0.1","","92","","","","29","","38","","24.1","","96.92","","","","","","Snow Showers"
"-52.75","47.62","ST. JOHN'S INTL A","8403505","2021-12-18 07:30","2021","12","18","07:30","1.1","","-0.1","","92","","","","29","","39","","24.1","","96.95","","","","","","Snow Showers"
"-52.75","47.62","ST. JOHN'S INTL A","8403505","2021-12-18 08:30","2021","12","18","08:30","1.0","","0.2","","94","","","","28","","42","","24.1","","97.00","","","","","","Cloudy"
"-52.75","47.62","ST. JOHN'S INTL A","8403505","2021-12-18 09:30","2021","12","18","09:30","1.1","","0.5","","96","","","","30","","46","","19.3","","97.01","","","","","","Snow Showers"
"-52.75","47.62","ST. JOHN'S INTL A","8403505","2021-12-18 10:30","2021","12","18","10:30","1.0","","0.4","","96","","","","30","","47","","19.3","","97.04","","","","","","Snow Showers"
"-52.75","47.62","ST. JOHN'S INTL A","8403505","2021-12-18 11:30","2021","12","18","11:30","0.8","","0.2","","96","","","","30","","48","","9.7","","97.09","","","","","","Snow,Fog"
"-52.75","47.62","ST. JOHN'S INTL A","8403505","2021-12-18 12:30","2021","12","18","12:30","1.0","","-0.3","","91","","","","32","","47","","24.1","","97.13","","","","","","NA"
"-52.75","47.62","ST. JOHN'S INTL A","8403505","2021-12-18 13:30","2021","12","18","13:30","0.8","","-0.5","","91","","","","31","","51","","24.1","","97.21","","","","","","Snow Showers"
"-52.75","47.62","ST. JOHN'S INTL A","8403505","2021-12-18 14:30","2021","12","18","14:30","0.5","","-1.2","","89","","","","30","","44","","3.2","","97.35","","","","","","Snow Showers"
"-52.75","47.62","ST. JOHN'S INTL A","8403505","2021-12-18 15:30","2021","12","18","15:30","0.0","","-1.6","","89","","","","30","","49","","8.1","","97.47","","","","-8","","Snow,Fog"
"-52.75","47.62","ST. JOHN'S INTL A","8403505","2021-12-18 16:30","2021","12","18","16:30","-0.7","","-2.6","","87","","","","30","","49","","2.4","","97.60","","","","-9","","Snow,Fog"
"-52.75","47.62","ST. JOHN'S INTL A","8403505","2021-12-18 17:30","2021","12","18","17:30","-0.9","","-3.7","","82","","","","30","","53","","24.1","","97.71","","","","-10","","Snow,Blowing Snow"
"-52.75","47.62","ST. JOHN'S INTL A","8403505","2021-12-18 18:30","2021","12","18","18:30","-1.1","","-4.7","","76","","","","31","","64","","24.1","","97.77","","","","-11","","Snow,Blowing Snow"
"-52.75","47.62","ST. JOHN'S INTL A","8403505","2021-12-18 19:30","2021","12","18","19:30","-1.5","","-5.4","","74","","","","31","","63","","19.3","","97.82","","","","-11","","Snow,Snow Showers"
"-52.75","47.62","ST. JOHN'S INTL A","8403505","2021-12-18 20:30","2021","12","18","20:30","-1.8","","-6.2","","72","","","","31","","47","","24.1","","97.95","","","","-10","","Cloudy"
"-52.75","47.62","ST. JOHN'S INTL A","8403505","2021-12-18 21:30","2021","12","18","21:30","-2.2","","-6.7","","72","","","","30","","61","","24.1","","98.03","","","","-12","","NA"
"-52.75","47.62","ST. JOHN'S INTL A","8403505","2021-12-18 22:30","2021","12","18","22:30","-3.1","","-7.3","","72","","","","30","","56","","24.1","","98.16","","","","-13","","NA"
"-52.75","47.62","ST. JOHN'S INTL A","8403505","2021-12-18 23:30","2021","12","18","23:30","-3.6","","-7.7","","73","","","","31","","41","","24.1","","98.28","","","","-12","","Cloudy"
"-52.75","47.62","ST. JOHN'S INTL A","8403505","2021-12-19 00:30","2021","12","19","00:30","-4.2","","-8.4","","72","","","","32","","45","","24.1","","98.34","","","","-13","","NA"
"-52.75","47.62","ST. JOHN'S INTL A","8403505","2021-12-19 01:30","2021","12","19","01:30","-4.6","","-9.2","","70","","","","31","","57","","24.1","","98.41","","","","-15","","NA"
"-52.75","47.62","ST. JOHN'S INTL A","8403505","2021-12-19 02:30","2021","12","19","02:30","-4.9","","-9.0","","73","","","","30","","41","","24.1","","98.56","","","","-14","","Cloudy"
"-52.75","47.62","ST. JOHN'S INTL A","8403505","2021-12-19 03:30","2021","12","19","03:30","-5.3","","-9.8","","71","","","","31","","45","","24.1","","98.68","","","","-15","","NA"
"-52.75","47.62","ST. JOHN'S INTL A","8403505","2021-12-19 04:30","2021","12","19","04:30","-5.6","","-9.9","","72","","","","30","","45","","24.1","","98.73","","","","-15","","NA"
"-52.75","47.62","ST. JOHN'S INTL A","8403505","2021-12-19 05:30","2021","12","19","05:30","-6.0","","-10.2","","72","","","","31","","39","","24.1","","98.84","","","","-15","","Mostly Cloudy"
"-52.75","47.62","ST. JOHN'S INTL A","8403505","2021-12-19 06:30","2021","12","19","06:30","-6.2","","-10.8","","70","","","","31","","53","","24.1","","98.89","","","","-17","","NA"
"-52.75","47.62","ST. JOHN'S INTL A","8403505","2021-12-19 07:30","2021","12","19","07:30","-6.6","","-11.1","","71","","","","33","","30","","24.1","","99.00","","","","-15","","NA"
"-52.75","47.62","ST. JOHN'S INTL A","8403505","2021-12-19 08:30","2021","12","19","08:30","-6.4","","-10.6","","72","","","","32","","35","","24.1","","99.05","","","","-15","","Mostly Cloudy"
"-52.75","47.62","ST. JOHN'S INTL A","8403505","2021-12-19 09:30","2021","12","19","09:30","-5.9","","-10.4","","71","","","","32","","29","","24.1","","99.12","","","","-14","","NA"
"-52.75","47.62","ST. JOHN'S INTL A","8403505","2021-12-19 10:30","2021","12","19","10:30","-6.1","","-10.3","","72","","","","31","","31","","24.1","","99.13","","","","-15","","NA"
"-52.75","47.62","ST. JOHN'S INTL A","8403505","2021-12-19 11:30","2021","12","19","11:30","-6.1","","-10.0","","74","","","","31","","27","","24.1","","99.07","","","","-14","","Mostly Cloudy"
"-52.75","47.62","ST. JOHN'S INTL A","8403505","2021-12-19 12:30","2021","12","19","12:30","-4.8","","-9.5","","70","","","","30","","38","","24.1","","99.02","","","","-14","","NA"
"-52.75","47.62","ST. JOHN'S INTL A","8403505","2021-12-19 13:30","2021","12","19","13:30","-5.0","","-9.4","","71","","","","31","","28","","24.1","","98.99","","","","-13","","NA"
"-52.75","47.62","ST. JOHN'S INTL A","8403505","2021-12-19 14:30","2021","12","19","14:30","-5.0","","-9.6","","70","","","","32","","18","","24.1","","99.00","","","","-11","","Mainly Clear"
"-52.75","47.62","ST. JOHN'S INTL A","8403505","2021-12-19 15:30","2021","12","19","15:30","-5.2","","-10.5","","67","","","","32","","24","","24.1","","99.00","","","","-12","","NA"
"-52.75","47.62","ST. JOHN'S INTL A","8403505","2021-12-19 16:30","2021","12","19","16:30","-6.3","","-10.6","","72","","","","32","","20","","24.1","","99.09","","","","-13","","NA"
"-52.75","47.62","ST. JOHN'S INTL A","8403505","2021-12-19 17:30","2021","12","19","17:30","-7.0","","-10.8","","75","","","","32","","16","","24.1","","99.12","","","","-13","","Mainly Clear"
"-52.75","47.62","ST. JOHN'S INTL A","8403505","2021-12-19 18:30","2021","12","19","18:30","-7.3","","-11.4","","73","","","","35","","10","","24.1","","99.17","","","","-12","","NA"
"-52.75","47.62","ST. JOHN'S INTL A","8403505","2021-12-19 19:30","2021","12","19","19:30","-7.7","","-11.3","","75","","","","34","","14","","24.1","","99.17","","","","-14","","NA"
"-52.75","47.62","ST. JOHN'S INTL A","8403505","2021-12-19 20:30","2021","12","19","20:30","-6.6","","-10.5","","74","","","","35","","8","","24.1","","99.20","","","","-10","","Mostly Cloudy"
"-52.75","47.62","ST. JOHN'S INTL A","8403505","2021-12-19 21:30","2021","12","19","21:30","-6.3","","-10.4","","73","","","","35","","12","","24.1","","99.16","","","","-11","","NA"
"-52.75","47.62","ST. JOHN'S INTL A","8403505","2021-12-19 22:30","2021","12","19","22:30","-6.1","","-9.6","","77","","","","34","","9","","24.1","","99.12","","","","-10","","NA"
"-52.75","47.62","ST. JOHN'S INTL A","8403505","2021-12-19 23:30","2021","12","19","23:30","-5.6","","-8.8","","79","","","","1","","8","","24.1","","99.04","","","","-9","","Cloudy"
"-52.75","47.62","ST. JOHN'S INTL A","8403505","2021-12-20 00:30","2021","12","20","00:30","-5.5","","-8.6","","79","","","","36","","11","","24.1","","99.04","","","","-10","","NA"
"-52.75","47.62","ST. JOHN'S INTL A","8403505","2021-12-20 01:30","2021","12","20","01:30","-5.3","","-8.1","","81","","","","34","","7","","24.1","","99.02","","","","-9","","NA"
"-52.75","47.62","ST. JOHN'S INTL A","8403505","2021-12-20 02:30","2021","12","20","02:30","-5.0","","-7.5","","83","","","","35","","12","","24.1","","99.03","","","","-10","","Cloudy"
"-52.75","47.62","ST. JOHN'S INTL A","8403505","2021-12-20 03:30","2021","12","20","03:30","-5.2","","-7.4","","85","","","","34","","12","","24.1","","99.02","","","","-10","","NA"
"-52.75","47.62","ST. JOHN'S INTL A","8403505","2021-12-20 04:30","2021","12","20","04:30","-5.2","","-7.0","","87","","","","35","","15","","24.1","","99.03","","","","-11","","NA"
"-52.75","47.62","ST. JOHN'S INTL A","8403505","2021-12-20 05:30","2021","12","20","05:30","-5.2","","-7.3","","85","","","","35","","16","","24.1","","99.05","","","","-11","","Cloudy"
"-52.75","47.62","ST. JOHN'S INTL A","8403505","2021-12-20 06:30","2021","12","20","06:30","-5.2","","-6.8","","88","","","","34","","15","","24.1","","99.08","","","","-11","","NA"
"-52.75","47.62","ST. JOHN'S INTL A","8403505","2021-12-20 07:30","2021","12","20","07:30","-5.1","","-6.9","","87","","","","34","","15","","24.1","","99.09","","","","-11","","NA"
"-52.75","47.62","ST. JOHN'S INTL A","8403505","2021-12-20 08:30","2021","12","20","08:30","-5.1","","-6.6","","89","","","","33","","19","","24.1","","99.11","","","","-12","","Mostly Cloudy"
"-52.75","47.62","ST. JOHN'S INTL A","8403505","2021-12-20 09:30","2021","12","20","09:30","-4.8","","-6.8","","85","","","","35","","17","","24.1","","99.15","","","","-11","","NA"
"-52.75","47.62","ST. JOHN'S INTL A","8403505","2021-12-20 10:30","2021","12","20","10:30","-4.8","","-7.3","","82","","","","36","","18","","24.1","","99.18","","","","-11","","NA"
"-52.75","47.62","ST. JOHN'S INTL A","8403505","2021-12-20 11:30","2021","12","20","11:30","-4.9","","-7.6","","82","","","","34","","21","","19.3","","99.19","","","","-12","","Snow Showers"
"-52.75","47.62","ST. JOHN'S INTL A","8403505","2021-12-20 12:30","2021","12","20","12:30","-5.0","","-8.0","","79","","","","35","","18","","19.3","","99.19","","","","-11","","Snow"
"-52.75","47.62","ST. JOHN'S INTL A","8403505","2021-12-20 13:30","2021","12","20","13:30","-4.9","","-8.6","","75","","","","34","","18","","19.3","","99.18","","","","-11","","Snow"
"-52.75","47.62","ST. JOHN'S INTL A","8403505","2021-12-20 14:30","2021","12","20","14:30","-5.1","","-9.0","","74","","","","32","","24","","19.3","","99.22","","","","-12","","Snow"
"-52.75","47.62","ST. JOHN'S INTL A","8403505","2021-12-20 15:30","2021","12","20","15:30","-5.1","","-9.3","","73","","","","33","","22","","24.1","","99.26","","","","-12","","NA"
"-52.75","47.62","ST. JOHN'S INTL A","8403505","2021-12-20 16:30","2021","12","20","16:30","-5.4","","-10.2","","69","","","","34","","20","","24.1","","99.31","","","","-12","","NA"
"-52.75","47.62","ST. JOHN'S INTL A","8403505","2021-12-20 17:30","2021","12","20","17:30","-5.6","","-10.2","","71","","","","33","","17","","24.1","","99.40","","","","-12","","Mostly Cloudy"
"-52.75","47.62","ST. JOHN'S INTL A","8403505","2021-12-20 18:30","2021","12","20","18:30","-6.1","","-10.1","","73","","","","33","","19","","24.1","","99.46","","","","-13","","NA"
"-52.75","47.62","ST. JOHN'S INTL A","8403505","2021-12-20 19:30","2021","12","20","19:30","-6.8","","-10.3","","76","","","","32","","25","","24.1","","99.48","","","","-15","","NA"
"-52.75","47.62","ST. JOHN'S INTL A","8403505","2021-12-20 20:30","2021","12","20","20:30","-7.5","","-11.2","","75","","","","31","","17","","24.1","","99.53","","","","-14","","Mainly Clear"
"-52.75","47.62","ST. JOHN'S INTL A","8403505","2021-12-20 21:30","2021","12","20","21:30","-7.4","","-11.8","","71","","","","31","","24","","24.1","","99.52","","","","-15","","NA"
"-52.75","47.62","ST. JOHN'S INTL A","8403505","2021-12-20 22:30","2021","12","20","22:30","-7.6","","-11.3","","75","","","","30","","25","","24.1","","99.54","","","","-16","","NA"
"-52.75","47.62","ST. JOHN'S INTL A","8403505","2021-12-20 23:30","2021","12","20","23:30","-8.0","","-11.3","","77","","","","28","","23","","24.1","","99.58","","","","-16","","Mainly Clear"
"-52.75","47.62","ST. JOHN'S INTL A","8403505","2021-12-21 00:30","2021","12","21","00:30","-8.1","","-11.5","","77","","","","27","","22","","24.1","","99.60","","","","-16","","NA"
"-52.75","47.62","ST. JOHN'S INTL A","8403505","2021-12-21 01:30","2021","12","21","01:30","-8.1","","-11.7","","76","","","","26","","15","","24.1","","99.66","","","","-14","","NA"
"-52.75","47.62","ST. JOHN'S INTL A","8403505","2021-12-21 02:30","2021","12","21","02:30","-8.6","","-12.1","","76","","","","32","","17","","24.1","","99.71","","","","-15","","Mainly Clear"
"-52.75","47.62","ST. JOHN'S INTL A","8403505","2021-12-21 03:30","2021","12","21","03:30","-7.8","","-12.0","","72","","","","32","","19","","24.1","","99.72","","","","-15","","NA"
"-52.75","47.62","ST. JOHN'S INTL A","8403505","2021-12-21 04:30","2021","12","21","04:30","-7.9","","-12.3","","71","","","","34","","26","","24.1","","99.76","","","","-16","","NA"
"-52.75","47.62","ST. JOHN'S INTL A","8403505","2021-12-21 05:30","2021","12","21","05:30","-7.8","","-12.2","","70","","","","33","","21","","24.1","","99.75","","","","-15","","Cloudy"
"-52.75","47.62","ST. JOHN'S INTL A","8403505","2021-12-21 06:30","2021","12","21","06:30","-7.2","","-11.3","","73","","","","30","","21","","24.1","","99.75","","","","-15","","NA"
"-52.75","47.62","ST. JOHN'S INTL A","8403505","2021-12-21 07:30","2021","12","21","07:30","-7.0","","-11.4","","71","","","","30","","20","","24.1","","99.77","","","","-14","","NA"
"-52.75","47.62","ST. JOHN'S INTL A","8403505","2021-12-21 08:30","2021","12","21","08:30","-6.7","","-11.2","","70","","","","28","","21","","24.1","","99.80","","","","-14","","Mostly Cloudy"
"-52.75","47.62","ST. JOHN'S INTL A","8403505","2021-12-21 09:30","2021","12","21","09:30","-6.0","","-10.5","","71","","","","28","","14","","24.1","","99.84","","","","-12","","NA"
"-52.75","47.62","ST. JOHN'S INTL A","8403505","2021-12-21 10:30","2021","12","21","10:30","-5.0","","-10.1","","67","","","","26","","11","","19.3","","99.79","","","","-10","","Snow Showers"
"-52.75","47.62","ST. JOHN'S INTL A","8403505","2021-12-21 11:30","2021","12","21","11:30","-4.2","","-10.0","","64","","","","24","","12","","24.1","","99.68","","","","-9","","Mostly Cloudy"
"-52.75","47.62","ST. JOHN'S INTL A","8403505","2021-12-21 12:30","2021","12","21","12:30","-3.9","","-9.6","","65","","","","25","","18","","24.1","","99.60","","","","-10","","Snow"
"-52.75","47.62","ST. JOHN'S INTL A","8403505","2021-12-21 13:30","2021","12","21","13:30","-4.2","","-6.6","","83","","","","18","","20","","6.4","","99.51","","","","-11","","Snow,Blowing Snow"
"-52.75","47.62","ST. JOHN'S INTL A","8403505","2021-12-21 14:30","2021","12","21","14:30","-3.9","","-6.0","","85","","","","19","","24","","4.8","","99.40","","","","-11","","Snow,Blowing Snow"
"-52.75","47.62","ST. JOHN'S INTL A","8403505","2021-12-21 15:30","2021","12","21","15:30","-2.9","","-4.2","","91","","","","20","","26","","24.1","","99.31","","","","-10","","Snow,Blowing Snow"
"-52.75","47.62","ST. JOHN'S INTL A","8403505","2021-12-21 16:30","2021","12","21","16:30","-2.7","","-3.7","","93","","","","20","","18","","24.1","","99.21","","","","-8","","NA"
"-52.75","47.62","ST. JOHN'S INTL A","8403505","2021-12-21 17:30","2021","12","21","17:30","-2.0","","-3.9","","88","","","","21","","22","","24.1","","99.07","","","","-8","","Snow Showers"
"-52.75","47.62","ST. JOHN'S INTL A","8403505","2021-12-21 18:30","2021","12","21","18:30","-0.9","","-2.2","","91","","","","20","","29","","24.1","","98.92","","","","-8","","NA"
"-52.75","47.62","ST. JOHN'S INTL A","8403505","2021-12-21 19:30","2021","12","21","19:30","-0.5","","-1.4","","94","","","","19","","34","","4.0","","98.70","","","","-8","","Snow Showers"
"-52.75","47.62","ST. JOHN'S INTL A","8403505","2021-12-21 20:30","2021","12","21","20:30","0.1","","-0.5","","96","","","","21","","23","","4.0","","98.60","","","","","","Snow"
"-52.75","47.62","ST. JOHN'S INTL A","8403505","2021-12-21 21:30","2021","12","21","21:30","0.6","","0.0","","95","","","","27","","41","","24.1","","98.56","","","","","","Snow"
"-52.75","47.62","ST. JOHN'S INTL A","8403505","2021-12-21 22:30","2021","12","21","22:30","0.3","","-1.6","","87","","","","30","","41","","24.1","","98.71","","","","","","NA"
"-52.75","47.62","ST. JOHN'S INTL A","8403505","2021-12-21 23:30","2021","12","21","23:30","-0.6","","-2.9","","84","","","","29","","42","","24.1","","98.81","","","","-8","","Mostly Cloudy"
"-52.75","47.62","ST. JOHN'S INTL A","8403505","2021-12-22 00:30","2021","12","22","00:30","-1.4","","-4.8","","78","","","","29","","57","","24.1","","98.95","","","","-11","","NA"
"-52.75","47.62","ST. JOHN'S INTL A","8403505","2021-12-22 01:30","2021","12","22","01:30","-2.3","","-5.4","","79","","","","30","","47","","24.1","","99.10","","","","-11","","Blowing Snow"
"-52.75","47.62","ST. JOHN'S INTL A","8403505","2021-12-22 02:30","2021","12","22","02:30","-3.0","","-6.1","","79","","","","30","","42","","24.1","","99.33","","","","-12","","Blowing Snow"
"-52.75","47.62","ST. JOHN'S INTL A","8403505","2021-12-22 03:30","2021","12","22","03:30","-3.4","","-6.5","","79","","","","30","","36","","24.1","","99.42","","","","-12","","NA"
"-52.75","47.62","ST. JOHN'S INTL A","8403505","2021-12-22 04:30","2021","12","22","04:30","-4.3","","-6.5","","85","","","","29","","27","","24.1","","99.51","","","","-12","","NA"
"-52.75","47.62","ST. JOHN'S INTL A","8403505","2021-12-22 05:30","2021","12","22","05:30","-4.0","","-6.5","","83","","","","29","","30","","24.1","","99.64","","","","-12","","Mainly Clear"
"-52.75","47.62","ST. JOHN'S INTL A","8403505","2021-12-22 06:30","2021","12","22","06:30","-3.9","","-6.5","","82","","","","30","","25","","24.1","","99.74","","","","-11","","NA"
"-52.75","47.62","ST. JOHN'S INTL A","8403505","2021-12-22 07:30","2021","12","22","07:30","-3.8","","-6.2","","83","","","","30","","25","","24.1","","99.80","","","","-11","","NA"
"-52.75","47.62","ST. JOHN'S INTL A","8403505","2021-12-22 08:30","2021","12","22","08:30","-3.6","","-6.8","","79","","","","30","","30","","24.1","","99.91","","","","-11","","Mainly Clear"
"-52.75","47.62","ST. JOHN'S INTL A","8403505","2021-12-22 09:30","2021","12","22","09:30","-3.3","","-7.5","","73","","","","31","","15","","24.1","","99.98","","","","-8","","NA"
"-52.75","47.62","ST. JOHN'S INTL A","8403505","2021-12-22 10:30","2021","12","22","10:30","-3.0","","-7.6","","71","","","","30","","23","","24.1","","100.04","","","","-9","","NA"
"-52.75","47.62","ST. JOHN'S INTL A","8403505","2021-12-22 11:30","2021","12","22","11:30","-2.7","","-7.7","","69","","","","30","","30","","24.1","","100.04","","","","-10","","Mainly Clear"
"-52.75","47.62","ST. JOHN'S INTL A","8403505","2021-12-22 12:30","2021","12","22","12:30","-2.6","","-7.7","","68","","","","30","","29","","24.1","","99.99","","","","-10","","NA"
"-52.75","47.62","ST. JOHN'S INTL A","8403505","2021-12-22 13:30","2021","12","22","13:30","-2.4","","-7.5","","69","","","","31","","23","","24.1","","99.98","","","","-9","","NA"
"-52.75","47.62","ST. JOHN'S INTL A","8403505","2021-12-22 14:30","2021","12","22","14:30","-2.7","","-7.0","","72","","","","30","","19","","24.1","","100.04","","","","-8","","Mainly Clear"
"-52.75","47.62","ST. JOHN'S INTL A","8403505","2021-12-22 15:30","2021","12","22","15:30","-3.8","","-7.5","","75","","","","33","","10","","24.1","","100.06","","","","-8","","NA"
"-52.75","47.62","ST. JOHN'S INTL A","8403505","2021-12-22 16:30","2021","12","22","16:30","-4.6","","-7.6","","80","","","","35","","5","","24.1","","100.09","","","","-7","","NA"
"-52.75","47.62","ST. JOHN'S INTL A","8403505","2021-12-22 17:30","2021","12","22","17:30","-4.4","","-7.5","","79","","","","16","","5","","24.1","","100.14","","","","-7","","Mostly Cloudy"
"-52.75","47.62","ST. JOHN'S INTL A","8403505","2021-12-22 18:30","2021","12","22","18:30","-6.0","","-7.8","","87","","","","17","","4","","24.1","","100.12","","","","-8","","NA"
"-52.75","47.62","ST. JOHN'S INTL A","8403505","2021-12-22 19:30","2021","12","22","19:30","-5.5","","-7.8","","84","","","","13","","5","","24.1","","100.06","","","","-8","","NA"
"-52.75","47.62","ST. JOHN'S INTL A","8403505","2021-12-22 20:30","2021","12","22","20:30","-5.6","","-7.7","","85","","","","12","","9","","24.1","","99.95","","","","-10","","Mainly Clear"
"-52.75","47.62","ST. JOHN'S INTL A","8403505","2021-12-22 21:30","2021","12","22","21:30","-4.3","","-6.7","","84","","","","12","","10","","24.1","","99.80","","","","-8","","NA"
"-52.75","47.62","ST. JOHN'S INTL A","8403505","2021-12-22 22:30","2021","12","22","22:30","-3.2","","-5.7","","83","","","","12","","21","","24.1","","99.59","","","","-9","","NA"
"-52.75","47.62","ST. JOHN'S INTL A","8403505","2021-12-22 23:30","2021","12","22","23:30","-2.5","","-5.1","","82","","","","12","","28","","24.1","","99.44","","","","-10","","Cloudy"
"-52.75","47.62","ST. JOHN'S INTL A","8403505","2021-12-23 00:30","2021","12","23","00:30","-2.2","","-4.4","","85","","","","13","","37","","24.1","","99.13","","","","-10","","NA"
"-52.75","47.62","ST. JOHN'S INTL A","8403505","2021-12-23 01:30","2021","12","23","01:30","-1.7","","-3.7","","86","","","","14","","44","","24.1","","99.04","","","","-10","","NA"
"-52.75","47.62","ST. JOHN'S INTL A","8403505","2021-12-23 02:30","2021","12","23","02:30","-1.4","","-3.3","","87","","","","13","","43","","24.1","","98.76","","","","-10","","Cloudy"
"-52.75","47.62","ST. JOHN'S INTL A","8403505","2021-12-23 03:30","2021","12","23","03:30","-1.4","","-2.8","","91","","","","13","","32","","19.3","","98.52","","","","-9","","Ice Pellets"
"-52.75","47.62","ST. JOHN'S INTL A","8403505","2021-12-23 04:30","2021","12","23","04:30","-0.8","","-1.6","","94","","","","14","","54","","16.1","","98.15","","","","-10","","Ice Pellets"
"-52.75","47.62","ST. JOHN'S INTL A","8403505","2021-12-23 05:30","2021","12","23","05:30","-0.3","","-0.8","","97","","","","13","","55","","4.8","","97.83","","","","-9","","Freezing Rain"
"-52.75","47.62","ST. JOHN'S INTL A","8403505","2021-12-23 06:30","2021","12","23","06:30","-0.1","","-0.4","","98","","","","14","","52","","1.2","","97.63","","","","-8","","Moderate Freezing Rain,Fog"
"-52.75","47.62","ST. JOHN'S INTL A","8403505","2021-12-23 07:30","2021","12","23","07:30","0.2","","0.0","","98","","","","14","","49","","0.8","","97.47","","","","","","Rain,Freezing Rain,Fog"
"-52.75","47.62","ST. JOHN'S INTL A","8403505","2021-12-23 08:30","2021","12","23","08:30","0.8","","0.6","","99","","","","16","","49","","0.8","","97.32","","","","","","Moderate Rain,Fog"
"-52.75","47.62","ST. JOHN'S INTL A","8403505","2021-12-23 09:30","2021","12","23","09:30","1.6","","1.4","","99","","","","17","","42","","3.2","","97.28","","","","","","Rain,Fog"
"-52.75","47.62","ST. JOHN'S INTL A","8403505","2021-12-23 10:30","2021","12","23","10:30","2.2","","2.1","","99","","","","18","","31","","0.4","","97.12","","","","","","Fog"
"-52.75","47.62","ST. JOHN'S INTL A","8403505","2021-12-23 11:30","2021","12","23","11:30","4.4","","4.2","","99","","","","22","","35","","19.3","","97.01","","","","","","Mostly Cloudy"
"-52.75","47.62","ST. JOHN'S INTL A","8403505","2021-12-23 12:30","2021","12","23","12:30","4.8","","3.4","","91","","","","25","","40","","24.1","","96.90","","","","","","NA"
"-52.75","47.62","ST. JOHN'S INTL A","8403505","2021-12-23 13:30","2021","12","23","13:30","4.5","","3.0","","90","","","","23","","34","","24.1","","96.87","","","","","","NA"
"-52.75","47.62","ST. JOHN'S INTL A","8403505","2021-12-23 14:30","2021","12","23","14:30","4.4","","3.0","","91","","","","24","","45","","24.1","","96.83","","","","","","Rain Showers"
"-52.75","47.62","ST. JOHN'S INTL A","8403505","2021-12-23 15:30","2021","12","23","15:30","3.3","","2.2","","92","","","","26","","47","","24.1","","96.91","","","","","","Rain Showers"
"-52.75","47.62","ST. JOHN'S INTL A","8403505","2021-12-23 16:30","2021","12","23","16:30","2.0","","0.6","","91","","","","26","","40","","24.1","","96.99","","","","","","NA"
"-52.75","47.62","ST. JOHN'S INTL A","8403505","2021-12-23 17:30","2021","12","23","17:30","1.0","","-0.8","","88","","","","26","","46","","24.1","","97.04","","","","","","Mostly Cloudy"
"-52.75","47.62","ST. JOHN'S INTL A","8403505","2021-12-23 18:30","2021","12","23","18:30","1.1","","-0.9","","87","","","","26","","52","","24.1","","97.05","","","","","","NA"
"-52.75","47.62","ST. JOHN'S INTL A","8403505","2021-12-23 19:30","2021","12","23","19:30","0.9","","-2.1","","80","","","","26","","60","","24.1","","97.08","","","","","","NA"
"-52.75","47.62","ST. JOHN'S INTL A","8403505","2021-12-23 20:30","2021","12","23","20:30","0.4","","-2.8","","79","","","","27","","58","","24.1","","97.16","","","","","","Mostly Cloudy"
"-52.75","47.62","ST. JOHN'S INTL A","8403505","2021-12-23 21:30","2021","12","23","21:30","-0.1","","-4.0","","75","","","","27","","53","","24.1","","97.18","","","","-8","","NA"
"-52.75","47.62","ST. JOHN'S INTL A","8403505","2021-12-23 22:30","2021","12","23","22:30","-0.8","","-3.8","","80","","","","27","","47","","24.1","","97.19","","","","-9","","Snow Showers"
"-52.75","47.62","ST. JOHN'S INTL A","8403505","2021-12-23 23:30","2021","12","23","23:30","-1.6","","-2.6","","93","","","","27","","36","","19.3","","97.22","","","","-9","","Snow Showers"
"-52.75","47.62","ST. JOHN'S INTL A","8403505","2021-12-24 00:30","2021","12","24","00:30","-1.6","","-5.4","","75","","","","27","","48","","9.7","","97.21","","","","-10","","Snow Showers,Blowing Snow"
"-52.75","47.62","ST. JOHN'S INTL A","8403505","2021-12-24 01:30","2021","12","24","01:30","-2.2","","-6.4","","73","","","","27","","55","","24.1","","97.22","","","","-11","","NA"
"-52.75","47.62","ST. JOHN'S INTL A","8403505","2021-12-24 02:30","2021","12","24","02:30","-2.9","","-7.7","","70","","","","26","","59","","24.1","","97.24","","","","-13","","Mainly Clear"
"-52.75","47.62","ST. JOHN'S INTL A","8403505","2021-12-24 03:30","2021","12","24","03:30","-3.9","","-7.1","","78","","","","27","","47","","9.7","","97.24","","","","-13","","Blowing Snow"
"-52.75","47.62","ST. JOHN'S INTL A","8403505","2021-12-24 04:30","2021","12","24","04:30","-4.1","","-7.2","","79","","","","27","","56","","6.4","","97.23","","","","-14","","Snow Showers,Blowing Snow"
"-52.75","47.62","ST. JOHN'S INTL A","8403505","2021-12-24 05:30","2021","12","24","05:30","-4.2","","-6.7","","83","","","","26","","36","","8.1","","97.21","","","","-13","","Blowing Snow"
"-52.75","47.62","ST. JOHN'S INTL A","8403505","2021-12-24 06:30","2021","12","24","06:30","-4.7","","-6.5","","88","","","","27","","46","","0.8","","97.20","","","","-14","","Snow Showers,Blowing Snow"
"-52.75","47.62","ST. JOHN'S INTL A","8403505","2021-12-24 07:30","2021","12","24","07:30","-4.7","","-6.3","","88","","","","27","","50","","24.1","","97.18","","","","-15","","Snow Showers,Blowing Snow"
"-52.75","47.62","ST. JOHN'S INTL A","8403505","2021-12-24 08:30","2021","12","24","08:30","-4.7","","-6.2","","89","","","","26","","43","","0.4","","97.15","","","","-14","","Moderate Snow Showers,Blowing Snow"
"-52.75","47.62","ST. JOHN'S INTL A","8403505","2021-12-24 09:30","2021","12","24","09:30","-4.6","","-6.5","","87","","","","27","","53","","0.4","","97.11","","","","-15","","Moderate Snow Showers,Blowing Snow"
"-52.75","47.62","ST. JOHN'S INTL A","8403505","2021-12-24 10:30","2021","12","24","10:30","-3.9","","-6.8","","80","","","","27","","55","","24.1","","97.07","","","","-14","","Snow Showers,Blowing Snow"
"-52.75","47.62","ST. JOHN'S INTL A","8403505","2021-12-24 11:30","2021","12","24","11:30","-3.4","","-8.0","","70","","","","26","","63","","24.1","","96.98","","","","-14","","Blowing Snow"
"-52.75","47.62","ST. JOHN'S INTL A","8403505","2021-12-24 12:30","2021","12","24","12:30","-2.7","","-7.6","","69","","","","26","","52","","24.1","","96.92","","","","-12","","NA"
"-52.75","47.62","ST. JOHN'S INTL A","8403505","2021-12-24 13:30","2021","12","24","13:30","-2.6","","-7.9","","67","","","","26","","50","","24.1","","96.85","","","","-12","","NA"
"-52.75","47.62","ST. JOHN'S INTL A","8403505","2021-12-24 14:30","2021","12","24","14:30","-3.2","","-7.8","","71","","","","27","","52","","12.9","","96.82","","","","-13","","Snow Showers,Blowing Snow"
"-52.75","47.62","ST. JOHN'S INTL A","8403505","2021-12-24 15:30","2021","12","24","15:30","-3.6","","-7.4","","75","","","","27","","54","","12.9","","96.80","","","","-13","","Snow Showers,Blowing Snow"
"-52.75","47.62","ST. JOHN'S INTL A","8403505","2021-12-24 16:30","2021","12","24","16:30","-4.0","","-7.6","","76","","","","25","","49","","24.1","","96.76","","","","-14","","Snow Showers,Blowing Snow"
"-52.75","47.62","ST. JOHN'S INTL A","8403505","2021-12-24 17:30","2021","12","24","17:30","-4.6","","-7.8","","79","","","","26","","50","","24.1","","96.73","","","","-14","","Mainly Clear"
"-52.75","47.62","ST. JOHN'S INTL A","8403505","2021-12-24 18:30","2021","12","24","18:30","-4.6","","-8.5","","74","","","","27","","39","","24.1","","96.68","","","","-13","","Blowing Snow"
"-52.75","47.62","ST. JOHN'S INTL A","8403505","2021-12-24 19:30","2021","12","24","19:30","-5.3","","-7.2","","87","","","","26","","33","","24.1","","96.68","","","","-14","","Blowing Snow"
"-52.75","47.62","ST. JOHN'S INTL A","8403505","2021-12-24 20:30","2021","12","24","20:30","-4.8","","-7.8","","79","","","","25","","39","","0.8","","96.64","","","","-14","","Snow Showers,Blowing Snow"
"-52.75","47.62","ST. JOHN'S INTL A","8403505","2021-12-24 21:30","2021","12","24","21:30","-5.1","","-8.3","","78","","","","25","","43","","24.1","","96.59","","","","-14","","Blowing Snow"
"-52.75","47.62","ST. JOHN'S INTL A","8403505","2021-12-24 22:30","2021","12","24","22:30","-5.1","","-8.7","","76","","","","24","","29","","24.1","","96.55","","","","-13","","Blowing Snow"
"-52.75","47.62","ST. JOHN'S INTL A","8403505","2021-12-24 23:30","2021","12","24","23:30","-5.0","","-9.2","","72","","","","24","","33","","24.1","","96.52","","","","-13","","Mostly Cloudy"
"-52.75","47.62","ST. JOHN'S INTL A","8403505","2021-12-25 00:30","2021","12","25","00:30","-5.0","","-7.7","","81","","","","23","","29","","24.1","","96.45","","","","-13","","NA"
"-52.75","47.62","ST. JOHN'S INTL A","8403505","2021-12-25 01:30","2021","12","25","01:30","-5.1","","-7.2","","85","","","","24","","29","","24.1","","96.42","","","","-13","","Snow Showers"
"-52.75","47.62","ST. JOHN'S INTL A","8403505","2021-12-25 02:30","2021","12","25","02:30","-4.8","","-7.3","","82","","","","25","","26","","24.1","","96.39","","","","-12","","Snow Showers"
"-52.75","47.62","ST. JOHN'S INTL A","8403505","2021-12-25 03:30","2021","12","25","03:30","-5.2","","-7.6","","84","","","","23","","31","","24.1","","96.31","","","","-13","","NA"
"-52.75","47.62","ST. JOHN'S INTL A","8403505","2021-12-25 04:30","2021","12","25","04:30","-5.3","","-7.7","","83","","","","23","","26","","24.1","","96.23","","","","-13","","NA"
"-52.75","47.62","ST. JOHN'S INTL A","8403505","2021-12-25 05:30","2021","12","25","05:30","-4.8","","-7.3","","83","","","","23","","28","","24.1","","96.14","","","","-12","","Mostly Cloudy"
"-52.75","47.62","ST. JOHN'S INTL A","8403505","2021-12-25 06:30","2021","12","25","06:30","-4.0","","-6.4","","83","","","","22","","28","","24.1","","96.07","","","","-11","","Snow Showers"
"-52.75","47.62","ST. JOHN'S INTL A","8403505","2021-12-25 07:30","2021","12","25","07:30","-3.4","","-5.6","","84","","","","22","","30","","12.9","","95.98","","","","-11","","Snow Showers"
"-52.75","47.62","ST. JOHN'S INTL A","8403505","2021-12-25 08:30","2021","12","25","08:30","-2.9","","-4.2","","90","","","","22","","14","","12.9","","95.92","","","","-8","","Snow Showers,Blowing Snow"
"-52.75","47.62","ST. JOHN'S INTL A","8403505","2021-12-25 09:30","2021","12","25","09:30","-2.8","","-4.5","","88","","","","31","","32","","19.3","","95.99","","","","-10","","Snow Showers,Blowing Snow"
"-52.75","47.62","ST. JOHN'S INTL A","8403505","2021-12-25 10:30","2021","12","25","10:30","-2.4","","-6.0","","76","","","","30","","32","","24.1","","96.06","","","","-10","","Blowing Snow"
"-52.75","47.62","ST. JOHN'S INTL A","8403505","2021-12-25 11:30","2021","12","25","11:30","-3.4","","-7.1","","76","","","","29","","39","","24.1","","96.08","","","","-12","","Mostly Cloudy"
"-52.75","47.62","ST. JOHN'S INTL A","8403505","2021-12-25 12:30","2021","12","25","12:30","-3.7","","-6.5","","81","","","","30","","38","","24.1","","96.09","","","","-12","","Snow Showers"
"-52.75","47.62","ST. JOHN'S INTL A","8403505","2021-12-25 13:30","2021","12","25","13:30","-3.8","","-7.8","","74","","","","32","","37","","24.1","","96.16","","","","-12","","NA"
"-52.75","47.62","ST. JOHN'S INTL A","8403505","2021-12-25 14:30","2021","12","25","14:30","-4.0","","-7.2","","79","","","","32","","36","","24.1","","96.25","","","","-12","","Mostly Cloudy"
"-52.75","47.62","ST. JOHN'S INTL A","8403505","2021-12-25 15:30","2021","12","25","15:30","-4.3","","-6.5","","85","","","","31","","34","","12.9","","96.37","","","","-13","","Snow Showers"
"-52.75","47.62","ST. JOHN'S INTL A","8403505","2021-12-25 16:30","2021","12","25","16:30","-4.3","","-6.3","","86","","","","32","","34","","16.1","","96.44","","","","-13","","Snow Showers,Blowing Snow"
"-52.75","47.62","ST. JOHN'S INTL A","8403505","2021-12-25 17:30","2021","12","25","17:30","-4.1","","-6.9","","81","","","","32","","28","","24.1","","96.52","","","","-12","","Snow Showers,Blowing Snow"
"-52.75","47.62","ST. JOHN'S INTL A","8403505","2021-12-25 18:30","2021","12","25","18:30","-4.3","","-7.5","","79","","","","31","","36","","24.1","","96.56","","","","-13","","NA"
"-52.75","47.62","ST. JOHN'S INTL A","8403505","2021-12-25 19:30","2021","12","25","19:30","-4.3","","-7.2","","80","","","","32","","30","","24.1","","96.61","","","","-12","","NA"
"-52.75","47.62","ST. JOHN'S INTL A","8403505","2021-12-25 20:30","2021","12","25","20:30","-4.0","","-7.0","","80","","","","32","","36","","24.1","","96.67","","","","-12","","Mostly Cloudy"
"-52.75","47.62","ST. JOHN'S INTL A","8403505","2021-12-25 21:30","2021","12","25","21:30","-3.7","","-6.3","","82","","","","31","","28","","24.1","","96.70","","","","-11","","NA"
"-52.75","47.62","ST. JOHN'S INTL A","8403505","2021-12-25 22:30","2021","12","25","22:30","-3.5","","-6.3","","81","","","","32","","37","","24.1","","96.73","","","","-12","","NA"
"-52.75","47.62","ST. JOHN'S INTL A","8403505","2021-12-25 23:30","2021","12","25","23:30","-3.6","","-5.4","","88","","","","31","","32","","4.8","","96.75","","","","-11","","Snow,Blowing Snow"
"-52.75","47.62","ST. JOHN'S INTL A","8403505","2021-12-26 00:30","2021","12","26","00:30","-3.1","","-4.3","","92","","","","31","","31","","4.8","","96.76","","","","-11","","Snow,Blowing Snow"
"-52.75","47.62","ST. JOHN'S INTL A","8403505","2021-12-26 01:30","2021","12","26","01:30","-2.5","","-3.4","","94","","","","34","","20","","3.2","","96.82","","","","-8","","Snow Showers,Blowing Snow"
"-52.75","47.62","ST. JOHN'S INTL A","8403505","2021-12-26 02:30","2021","12","26","02:30","-2.7","","-3.8","","92","","","","33","","25","","8.1","","96.94","","","","-9","","Snow Showers,Blowing Snow"
"-52.75","47.62","ST. JOHN'S INTL A","8403505","2021-12-26 03:30","2021","12","26","03:30","-2.8","","-4.6","","88","","","","34","","33","","9.7","","97.02","","","","-10","","Blowing Snow"
"-52.75","47.62","ST. JOHN'S INTL A","8403505","2021-12-26 04:30","2021","12","26","04:30","-3.2","","-5.3","","85","","","","33","","29","","9.7","","97.07","","","","-11","","Blowing Snow"
"-52.75","47.62","ST. JOHN'S INTL A","8403505","2021-12-26 05:30","2021","12","26","05:30","-3.9","","-5.7","","87","","","","32","","29","","19.3","","97.12","","","","-11","","Mainly Clear"
"-52.75","47.62","ST. JOHN'S INTL A","8403505","2021-12-26 06:30","2021","12","26","06:30","-3.7","","-5.5","","88","","","","32","","22","","19.3","","97.17","","","","-10","","NA"
"-52.75","47.62","ST. JOHN'S INTL A","8403505","2021-12-26 07:30","2021","12","26","07:30","-3.2","","-4.7","","90","","","","31","","26","","24.1","","97.21","","","","-10","","NA"
"-52.75","47.62","ST. JOHN'S INTL A","8403505","2021-12-26 08:30","2021","12","26","08:30","-3.0","","-4.6","","89","","","","28","","17","","24.1","","97.24","","","","-9","","Mostly Cloudy"
"-52.75","47.62","ST. JOHN'S INTL A","8403505","2021-12-26 09:30","2021","12","26","09:30","-2.9","","-5.1","","85","","","","28","","19","","24.1","","97.28","","","","-9","","NA"
"-52.75","47.62","ST. JOHN'S INTL A","8403505","2021-12-26 10:30","2021","12","26","10:30","-2.7","","-4.9","","85","","","","27","","15","","24.1","","97.28","","","","-8","","NA"
"-52.75","47.62","ST. JOHN'S INTL A","8403505","2021-12-26 11:30","2021","12","26","11:30","-1.6","","-4.7","","79","","","","29","","25","","24.1","","97.22","","","","-8","","Mostly Cloudy"
"-52.75","47.62","ST. JOHN'S INTL A","8403505","2021-12-26 12:30","2021","12","26","12:30","-0.8","","-4.5","","77","","","","26","","15","","24.1","","97.15","","","","-5","","NA"
"-52.75","47.62","ST. JOHN'S INTL A","8403505","2021-12-26 13:30","2021","12","26","13:30","-1.1","","-4.6","","77","","","","26","","17","","24.1","","97.14","","","","-6","","NA"
"-52.75","47.62","ST. JOHN'S INTL A","8403505","2021-12-26 14:30","2021","12","26","14:30","-0.3","","-4.3","","74","","","","23","","5","","24.1","","97.12","","","","-2","","Mostly Cloudy"
"-52.75","47.62","ST. JOHN'S INTL A","8403505","2021-12-26 15:30","2021","12","26","15:30","-0.5","","-3.9","","78","","","","24","","13","","24.1","","97.14","","","","-5","","NA"
"-52.75","47.62","ST. JOHN'S INTL A","8403505","2021-12-26 16:30","2021","12","26","16:30","-0.8","","-3.2","","83","","","","22","","4","","24.1","","97.15","","","","-2","","NA"
"-52.75","47.62","ST. JOHN'S INTL A","8403505","2021-12-26 17:30","2021","12","26","17:30","-1.3","","-2.6","","91","","","","21","","3","","24.1","","97.14","","","","-2","","Cloudy"
"-52.75","47.62","ST. JOHN'S INTL A","8403505","2021-12-26 18:30","2021","12","26","18:30","-1.7","","-2.4","","95","","","","35","","4","","24.1","","97.15","","","","-3","","Snow"
"-52.75","47.62","ST. JOHN'S INTL A","8403505","2021-12-26 19:30","2021","12","26","19:30","-1.6","","-2.0","","97","","","","5","","6","","8.1","","97.16","","","","-4","","Snow"
"-52.75","47.62","ST. JOHN'S INTL A","8403505","2021-12-26 20:30","2021","12","26","20:30","-1.4","","-1.7","","98","","","","1","","10","","6.4","","97.17","","","","-5","","Snow"
"-52.75","47.62","ST. JOHN'S INTL A","8403505","2021-12-26 21:30","2021","12","26","21:30","-1.8","","-2.1","","98","","","","1","","12","","24.1","","97.18","","","","-6","","NA"
"-52.75","47.62","ST. JOHN'S INTL A","8403505","2021-12-26 22:30","2021","12","26","22:30","-2.0","","-2.7","","95","","","","35","","12","","24.1","","97.21","","","","-6","","NA"
"-52.75","47.62","ST. JOHN'S INTL A","8403505","2021-12-26 23:30","2021","12","26","23:30","-3.1","","-4.2","","92","","","","32","","21","","24.1","","97.17","","","","-9","","Mainly Clear"
"-52.75","47.62","ST. JOHN'S INTL A","8403505","2021-12-27 00:30","2021","12","27","00:30","-2.9","","-4.0","","92","","","","30","","22","","24.1","","97.09","","","","-9","","NA"
"-52.75","47.62","ST. JOHN'S INTL A","8403505","2021-12-27 01:30","2021","12","27","01:30","-1.4","","-2.4","","94","","","","30","","22","","8.1","","97.04","","","","-7","","Snow Showers"
"-52.75","47.62","ST. JOHN'S INTL A","8403505","2021-12-27 02:30","2021","12","27","02:30","-0.9","","-1.5","","96","","","","30","","32","","4.8","","97.02","","","","-8","","Snow Showers,Blowing Snow"
"-52.75","47.62","ST. JOHN'S INTL A","8403505","2021-12-27 03:30","2021","12","27","03:30","-0.2","","-0.7","","96","","","","31","","30","","2.4","","97.00","","","","-7","","Freezing Rain,Fog"
"-52.75","47.62","ST. JOHN'S INTL A","8403505","2021-12-27 04:30","2021","12","27","04:30","0.1","","-0.3","","97","","","","32","","32","","2.4","","96.97","","","","","","Drizzle,Snow Showers,Fog"
"-52.75","47.62","ST. JOHN'S INTL A","8403505","2021-12-27 05:30","2021","12","27","05:30","0.3","","0.0","","98","","","","33","","32","","6.4","","96.94","","","","","","Drizzle,Fog"
"-52.75","47.62","ST. JOHN'S INTL A","8403505","2021-12-27 06:30","2021","12","27","06:30","0.2","","-0.2","","97","","","","33","","29","","4.0","","96.96","","","","","","Rain Showers,Snow Showers"
"-52.75","47.62","ST. JOHN'S INTL A","8403505","2021-12-27 07:30","2021","12","27","07:30","0.3","","0.0","","97","","","","34","","25","","2.4","","96.98","","","","","","Rain Showers,Snow Showers"
"-52.75","47.62","ST. JOHN'S INTL A","8403505","2021-12-27 08:30","2021","12","27","08:30","0.5","","0.1","","97","","","","35","","28","","4.8","","96.96","","","","","","Snow Showers"
"-52.75","47.62","ST. JOHN'S INTL A","8403505","2021-12-27 09:30","2021","12","27","09:30","0.8","","0.6","","98","","","","35","","31","","3.2","","96.95","","","","","","Fog"
"-52.75","47.62","ST. JOHN'S INTL A","8403505","2021-12-27 10:30","2021","12","27","10:30","1.0","","0.6","","98","","","","33","","35","","2.4","","96.94","","","","","","Fog"
"-52.75","47.62","ST. JOHN'S INTL A","8403505","2021-12-27 11:30","2021","12","27","11:30","1.0","","0.6","","97","","","","33","","32","","1.6","","96.86","","","","","","Fog"
"-52.75","47.62","ST. JOHN'S INTL A","8403505","2021-12-27 12:30","2021","12","27","12:30","0.8","","0.4","","97","","","","34","","35","","1.6","","96.78","","","","","","Fog"
"-52.75","47.62","ST. JOHN'S INTL A","8403505","2021-12-27 13:30","2021","12","27","13:30","0.5","","0.1","","97","","","","34","","33","","2.4","","96.73","","","","","","Rain Showers,Snow Showers"
"-52.75","47.62","ST. JOHN'S INTL A","8403505","2021-12-27 14:30","2021","12","27","14:30","1.2","","0.9","","98","","","","36","","33","","3.2","","96.76","","","","","","Rain Showers,Fog"
"-52.75","47.62","ST. JOHN'S INTL A","8403505","2021-12-27 15:30","2021","12","27","15:30","0.8","","0.5","","98","","","","2","","23","","2.4","","96.90","","","","","","Fog"
"-52.75","47.62","ST. JOHN'S INTL A","8403505","2021-12-27 16:30","2021","12","27","16:30","1.1","","0.9","","99","","","","1","","25","","2.4","","96.96","","","","","","Drizzle,Fog"
"-52.75","47.62","ST. JOHN'S INTL A","8403505","2021-12-27 17:30","2021","12","27","17:30","1.4","","1.2","","98","","","","36","","26","","9.7","","97.02","","","","","","Drizzle"
"-52.75","47.62","ST. JOHN'S INTL A","8403505","2021-12-27 18:30","2021","12","27","18:30","1.1","","1.0","","99","","","","1","","28","","0.8","","97.10","","","","","","Drizzle,Fog"
"-52.75","47.62","ST. JOHN'S INTL A","8403505","2021-12-27 19:30","2021","12","27","19:30","1.3","","1.1","","99","","","","2","","30","","0.8","","97.15","","","","","","Drizzle,Fog"
"-52.75","47.62","ST. JOHN'S INTL A","8403505","2021-12-27 20:30","2021","12","27","20:30","1.3","","1.2","","99","","","","1","","35","","2.4","","97.17","","","","","","Rain Showers,Snow Showers,Fog"
"-52.75","47.62","ST. JOHN'S INTL A","8403505","2021-12-27 21:30","2021","12","27","21:30","1.5","","1.3","","99","","","","1","","44","","1.2","","97.24","","","","","","Drizzle,Fog"
"-52.75","47.62","ST. JOHN'S INTL A","8403505","2021-12-27 22:30","2021","12","27","22:30","1.1","","0.8","","98","","","","1","","35","","2.4","","97.28","","","","","","Rain Showers,Snow Showers,Fog"
"-52.75","47.62","ST. JOHN'S INTL A","8403505","2021-12-27 23:30","2021","12","27","23:30","0.8","","0.5","","98","","","","1","","49","","2.8","","97.32","","","","","","Rain Showers,Snow Showers,Fog"
"-52.75","47.62","ST. JOHN'S INTL A","8403505","2021-12-28 00:30","2021","12","28","00:30","1.1","","0.7","","98","","","","1","","48","","2.4","","97.36","","","","","","Drizzle,Fog"
"-52.75","47.62","ST. JOHN'S INTL A","8403505","2021-12-28 01:30","2021","12","28","01:30","1.0","","0.7","","98","","","","1","","39","","4.8","","97.41","","","","","","Drizzle,Fog"
"-52.75","47.62","ST. JOHN'S INTL A","8403505","2021-12-28 02:30","2021","12","28","02:30","0.9","","0.6","","98","","","","36","","36","","4.0","","97.52","","","","","","Drizzle,Fog"
"-52.75","47.62","ST. JOHN'S INTL A","8403505","2021-12-28 03:30","2021","12","28","03:30","0.8","","0.5","","98","","","","36","","49","","3.2","","97.59","","","","","","Drizzle,Fog"
"-52.75","47.62","ST. JOHN'S INTL A","8403505","2021-12-28 04:30","2021","12","28","04:30","0.7","","0.3","","97","","","","1","","41","","9.7","","97.63","","","","","","Drizzle,Fog"
"-52.75","47.62","ST. JOHN'S INTL A","8403505","2021-12-28 05:30","2021","12","28","05:30","0.6","","0.2","","97","","","","36","","37","","4.0","","97.71","","","","","","Drizzle,Fog"
"-52.75","47.62","ST. JOHN'S INTL A","8403505","2021-12-28 06:30","2021","12","28","06:30","0.5","","0.1","","97","","","","36","","39","","6.4","","97.82","","","","","","Drizzle,Fog"
"-52.75","47.62","ST. JOHN'S INTL A","8403505","2021-12-28 07:30","2021","12","28","07:30","0.5","","-0.2","","95","","","","36","","41","","9.7","","97.92","","","","","","Drizzle,Fog"
"-52.75","47.62","ST. JOHN'S INTL A","8403505","2021-12-28 08:30","2021","12","28","08:30","0.4","","-0.6","","93","","","","36","","42","","9.7","","98.01","","","","","","Fog"
"-52.75","47.62","ST. JOHN'S INTL A","8403505","2021-12-28 09:30","2021","12","28","09:30","0.3","","-1.3","","89","","","","35","","35","","9.7","","98.06","","","","","","Fog"
"-52.75","47.62","ST. JOHN'S INTL A","8403505","2021-12-28 10:30","2021","12","28","10:30","0.6","","-1.6","","85","","","","36","","41","","9.7","","98.05","","","","","","Fog"
"-52.75","47.62","ST. JOHN'S INTL A","8403505","2021-12-28 11:30","2021","12","28","11:30","0.4","","-1.3","","89","","","","35","","38","","8.1","","98.00","","","","","","Fog"
"-52.75","47.62","ST. JOHN'S INTL A","8403505","2021-12-28 12:30","2021","12","28","12:30","0.4","","-1.6","","87","","","","35","","30","","8.1","","97.97","","","","","","Fog"
"-52.75","47.62","ST. JOHN'S INTL A","8403505","2021-12-28 13:30","2021","12","28","13:30","0.0","","-1.1","","92","","","","34","","34","","2.4","","97.98","","","","-7","","Snow Showers,Fog,Blowing Snow"
"-52.75","47.62","ST. JOHN'S INTL A","8403505","2021-12-28 14:30","2021","12","28","14:30","-0.2","","-1.1","","94","","","","34","","41","","2.4","","98.00","","","","-8","","Snow Showers,Blowing Snow"
"-52.75","47.62","ST. JOHN'S INTL A","8403505","2021-12-28 15:30","2021","12","28","15:30","-0.2","","-1.0","","95","","","","34","","36","","2.4","","98.05","","","","-7","","Snow Showers,Blowing Snow"
"-52.75","47.62","ST. JOHN'S INTL A","8403505","2021-12-28 16:30","2021","12","28","16:30","-0.3","","-1.1","","95","","","","33","","39","","1.6","","98.11","","","","-8","","Snow Showers,Blowing Snow"
"-52.75","47.62","ST. JOHN'S INTL A","8403505","2021-12-28 17:30","2021","12","28","17:30","-0.5","","-1.4","","94","","","","33","","41","","0.8","","98.11","","","","-8","","Moderate Snow Showers,Blowing Snow"
"-52.75","47.62","ST. JOHN'S INTL A","8403505","2021-12-28 18:30","2021","12","28","18:30","-0.5","","-1.3","","95","","","","33","","49","","0.8","","98.16","","","","-9","","Moderate Snow,Blowing Snow"
"-52.75","47.62","ST. JOHN'S INTL A","8403505","2021-12-28 19:30","2021","12","28","19:30","-0.4","","-1.2","","94","","","","33","","37","","2.0","","98.19","","","","-8","","Freezing Drizzle,Snow,Blowing Snow"
"-52.75","47.62","ST. JOHN'S INTL A","8403505","2021-12-28 20:30","2021","12","28","20:30","-0.4","","-1.2","","94","","","","33","","41","","2.4","","98.17","","","","-8","","Snow,Blowing Snow"
"-52.75","47.62","ST. JOHN'S INTL A","8403505","2021-12-28 21:30","2021","12","28","21:30","-0.3","","-0.9","","96","","","","33","","37","","1.6","","98.17","","","","-8","","Snow,Blowing Snow"
"-52.75","47.62","ST. JOHN'S INTL A","8403505","2021-12-28 22:30","2021","12","28","22:30","0.0","","-0.6","","96","","","","34","","35","","2.4","","98.21","","","","-7","","Freezing Drizzle,Snow,Blowing Snow"
"-52.75","47.62","ST. JOHN'S INTL A","8403505","2021-12-28 23:30","2021","12","28","23:30","0.1","","-0.4","","97","","","","34","","39","","3.2","","98.22","","","","","","Freezing Drizzle,Fog"
"-52.75","47.62","ST. JOHN'S INTL A","8403505","2021-12-29 00:30","2021","12","29","00:30","0.2","","-0.1","","97","","","","34","","32","","2.8","","98.25","","","","","","Drizzle,Fog"
"-52.75","47.62","ST. JOHN'S INTL A","8403505","2021-12-29 01:30","2021","12","29","01:30","0.3","","-0.1","","97","","","","35","","28","","8.1","","98.29","","","","","","Drizzle,Fog"
"-52.75","47.62","ST. JOHN'S INTL A","8403505","2021-12-29 02:30","2021","12","29","02:30","0.5","","0.1","","97","","","","35","","34","","12.9","","98.33","","","","","","Drizzle"
"-52.75","47.62","ST. JOHN'S INTL A","8403505","2021-12-29 03:30","2021","12","29","03:30","0.4","","0.0","","97","","","","34","","28","","3.2","","98.36","","","","","","Drizzle,Snow"
"-52.75","47.62","ST. JOHN'S INTL A","8403505","2021-12-29 04:30","2021","12","29","04:30","0.4","","0.1","","98","","","","35","","28","","8.1","","98.40","","","","","","Drizzle,Fog"
"-52.75","47.62","ST. JOHN'S INTL A","8403505","2021-12-29 05:30","2021","12","29","05:30","0.4","","0.0","","97","","","","34","","32","","19.3","","98.43","","","","","","Drizzle"
"-52.75","47.62","ST. JOHN'S INTL A","8403505","2021-12-29 06:30","2021","12","29","06:30","0.3","","-0.2","","96","","","","35","","30","","9.7","","98.46","","","","","","Snow"
"-52.75","47.62","ST. JOHN'S INTL A","8403505","2021-12-29 07:30","2021","12","29","07:30","0.2","","-0.4","","95","","","","35","","24","","24.1","","98.47","","","","","","NA"
"-52.75","47.62","ST. JOHN'S INTL A","8403505","2021-12-29 08:30","2021","12","29","08:30","0.3","","-0.4","","95","","","","35","","21","","24.1","","98.54","","","","","","Cloudy"
"-52.75","47.62","ST. JOHN'S INTL A","8403505","2021-12-29 09:30","2021","12","29","09:30","0.3","","-0.4","","95","","","","35","","27","","24.1","","98.59","","","","","","NA"
"-52.75","47.62","ST. JOHN'S INTL A","8403505","2021-12-29 10:30","2021","12","29","10:30","0.3","","-0.3","","95","","","","34","","32","","24.1","","98.57","","","","","","NA"
"-52.75","47.62","ST. JOHN'S INTL A","8403505","2021-12-29 11:30","2021","12","29","11:30","0.4","","-0.2","","96","","","","35","","34","","24.1","","98.55","","","","","","Cloudy"
"-52.75","47.62","ST. JOHN'S INTL A","8403505","2021-12-29 12:30","2021","12","29","12:30","0.4","","-0.3","","95","","","","35","","33","","19.3","","98.51","","","","","","Drizzle"
"-52.75","47.62","ST. JOHN'S INTL A","8403505","2021-12-29 13:30","2021","12","29","13:30","0.8","","0.0","","94","","","","35","","29","","24.1","","98.49","","","","","","Snow Showers"
"-52.75","47.62","ST. JOHN'S INTL A","8403505","2021-12-29 14:30","2021","12","29","14:30","0.7","","0.1","","96","","","","35","","28","","24.1","","98.53","","","","","","Snow Showers"
"-52.75","47.62","ST. JOHN'S INTL A","8403505","2021-12-29 15:30","2021","12","29","15:30","0.6","","0.1","","96","","","","35","","22","","9.7","","98.57","","","","","","Drizzle,Fog"
"-52.75","47.62","ST. JOHN'S INTL A","8403505","2021-12-29 16:30","2021","12","29","16:30","0.6","","0.2","","97","","","","35","","29","","6.4","","98.61","","","","","","Drizzle,Fog"
"-52.75","47.62","ST. JOHN'S INTL A","8403505","2021-12-29 17:30","2021","12","29","17:30","0.6","","0.3","","98","","","","36","","26","","19.3","","98.66","","","","","","Drizzle"
"-52.75","47.62","ST. JOHN'S INTL A","8403505","2021-12-29 18:30","2021","12","29","18:30","0.7","","0.5","","98","","","","1","","31","","6.4","","98.72","","","","","","Fog"
"-52.75","47.62","ST. JOHN'S INTL A","8403505","2021-12-29 19:30","2021","12","29","19:30","0.8","","0.5","","98","","","","36","","27","","4.8","","98.80","","","","","","Rain,Snow"
"-52.75","47.62","ST. JOHN'S INTL A","8403505","2021-12-29 20:30","2021","12","29","20:30","0.6","","0.3","","98","","","","1","","27","","4.8","","98.86","","","","","","Rain,Snow"
"-52.75","47.62","ST. JOHN'S INTL A","8403505","2021-12-29 21:30","2021","12","29","21:30","0.5","","0.2","","98","","","","36","","30","","4.8","","98.90","","","","","","Rain,Snow"
"-52.75","47.62","ST. JOHN'S INTL A","8403505","2021-12-29 22:30","2021","12","29","22:30","0.4","","0.2","","98","","","","36","","30","","8.1","","98.96","","","","","","Fog"
"-52.75","47.62","ST. JOHN'S INTL A","8403505","2021-12-29 23:30","2021","12","29","23:30","0.5","","0.3","","98","","","","36","","26","","9.7","","99.01","","","","","","Fog"
"-52.75","47.62","ST. JOHN'S INTL A","8403505","2021-12-30 00:30","2021","12","30","00:30","0.4","","0.2","","98","","","","36","","29","","4.8","","99.05","","","","","","Snow Showers"
"-52.75","47.62","ST. JOHN'S INTL A","8403505","2021-12-30 01:30","2021","12","30","01:30","0.4","","0.2","","98","","","","1","","31","","9.7","","99.08","","","","","","Fog"
"-52.75","47.62","ST. JOHN'S INTL A","8403505","2021-12-30 02:30","2021","12","30","02:30","0.2","","-0.1","","98","","","","36","","26","","8.1","","99.17","","","","","","Snow Showers,Fog"
"-52.75","47.62","ST. JOHN'S INTL A","8403505","2021-12-30 03:30","2021","12","30","03:30","0.2","","-0.1","","98","","","","36","","30","","9.7","","99.23","","","","","","Fog"
"-52.75","47.62","ST. JOHN'S INTL A","8403505","2021-12-30 04:30","2021","12","30","04:30","0.1","","-0.4","","97","","","","36","","30","","9.7","","99.29","","","","","","Fog"
"-52.75","47.62","ST. JOHN'S INTL A","8403505","2021-12-30 05:30","2021","12","30","05:30","0.0","","-0.6","","95","","","","1","","23","","9.7","","99.31","","","","-6","","Fog"
"-52.75","47.62","ST. JOHN'S INTL A","8403505","2021-12-30 06:30","2021","12","30","06:30","0.1","","-0.4","","96","","","","36","","30","","6.4","","99.38","","","","","","Drizzle,Fog"
"-52.75","47.62","ST. JOHN'S INTL A","8403505","2021-12-30 07:30","2021","12","30","07:30","0.0","","-0.7","","95","","","","1","","22","","24.1","","99.43","","","","-6","","NA"
"-52.75","47.62","ST. JOHN'S INTL A","8403505","2021-12-30 08:30","2021","12","30","08:30","0.2","","-0.9","","92","","","","1","","25","","24.1","","99.48","","","","","","Cloudy"
"-52.75","47.62","ST. JOHN'S INTL A","8403505","2021-12-30 09:30","2021","12","30","09:30","0.4","","-1.0","","90","","","","36","","27","","24.1","","99.56","","","","","","NA"
"-52.75","47.62","ST. JOHN'S INTL A","8403505","2021-12-30 10:30","2021","12","30","10:30","0.4","","-0.9","","91","","","","36","","27","","24.1","","99.64","","","","","","NA"
"-52.75","47.62","ST. JOHN'S INTL A","8403505","2021-12-30 11:30","2021","12","30","11:30","0.7","","-1.3","","86","","","","1","","21","","24.1","","99.63","","","","","","Mostly Cloudy"
"-52.75","47.62","ST. JOHN'S INTL A","8403505","2021-12-30 12:30","2021","12","30","12:30","-0.1","","-1.7","","89","","","","1","","23","","16.1","","99.58","","","","-6","","Snow Showers"
"-52.75","47.62","ST. JOHN'S INTL A","8403505","2021-12-30 13:30","2021","12","30","13:30","0.6","","-1.4","","87","","","","1","","25","","24.1","","99.50","","","","","","NA"
"-52.75","47.62","ST. JOHN'S INTL A","8403505","2021-12-30 14:30","2021","12","30","14:30","0.1","","-1.3","","91","","","","1","","22","","24.1","","99.53","","","","","","Mostly Cloudy"
"-52.75","47.62","ST. JOHN'S INTL A","8403505","2021-12-30 15:30","2021","12","30","15:30","-0.5","","-1.8","","91","","","","35","","23","","4.0","","99.57","","","","-6","","Snow Showers"
"-52.75","47.62","ST. JOHN'S INTL A","8403505","2021-12-30 16:30","2021","12","30","16:30","-1.1","","-2.0","","94","","","","27","","23","","16.1","","99.61","","","","-7","","Snow Showers"
"-52.75","47.62","ST. JOHN'S INTL A","8403505","2021-12-30 17:30","2021","12","30","17:30","-1.2","","-2.0","","95","","","","2","","22","","24.1","","99.61","","","","-7","","Snow Showers"
"-52.75","47.62","ST. JOHN'S INTL A","8403505","2021-12-30 18:30","2021","12","30","18:30","-1.4","","-1.9","","96","","","","36","","12","","24.1","","99.63","","","","-5","","Snow Showers"
"-52.75","47.62","ST. JOHN'S INTL A","8403505","2021-12-30 19:30","2021","12","30","19:30","-1.8","","-3.5","","88","","","","36","","19","","24.1","","99.68","","","","-7","","NA"
"-52.75","47.62","ST. JOHN'S INTL A","8403505","2021-12-30 20:30","2021","12","30","20:30","-2.0","","-3.9","","87","","","","36","","21","","24.1","","99.66","","","","-8","","Cloudy"
"-52.75","47.62","ST. JOHN'S INTL A","8403505","2021-12-30 21:30","2021","12","30","21:30","-2.2","","-3.9","","88","","","","36","","14","","24.1","","99.65","","","","-7","","NA"
"-52.75","47.62","ST. JOHN'S INTL A","8403505","2021-12-30 22:30","2021","12","30","22:30","-2.3","","-4.0","","88","","","","35","","9","","24.1","","99.64","","","","-6","","NA"
"-52.75","47.62","ST. JOHN'S INTL A","8403505","2021-12-30 23:30","2021","12","30","23:30","-2.5","","-4.1","","88","","","","35","","13","","24.1","","99.60","","","","-7","","Cloudy"
"-52.75","47.62","ST. JOHN'S INTL A","8403505","2021-12-31 00:30","2021","12","31","00:30","-2.8","","-4.7","","87","","","","35","","13","","24.1","","99.59","","","","-7","","NA"
"-52.75","47.62","ST. JOHN'S INTL A","8403505","2021-12-31 01:30","2021","12","31","01:30","-2.8","","-4.9","","85","","","","36","","16","","24.1","","99.60","","","","-8","","NA"
"-52.75","47.62","ST. JOHN'S INTL A","8403505","2021-12-31 02:30","2021","12","31","02:30","-2.8","","-4.6","","88","","","","34","","12","","24.1","","99.62","","","","-7","","Cloudy"
"-52.75","47.62","ST. JOHN'S INTL A","8403505","2021-12-31 03:30","2021","12","31","03:30","-3.4","","-5.4","","86","","","","35","","21","","24.1","","99.64","","","","-10","","NA"
"-52.75","47.62","ST. JOHN'S INTL A","8403505","2021-12-31 04:30","2021","12","31","04:30","-3.2","","-4.7","","90","","","","32","","17","","24.1","","99.63","","","","-9","","NA"
"-52.75","47.62","ST. JOHN'S INTL A","8403505","2021-12-31 05:30","2021","12","31","05:30","-3.7","","-5.3","","88","","","","32","","21","","24.1","","99.62","","","","-10","","Cloudy"
"-52.75","47.62","ST. JOHN'S INTL A","8403505","2021-12-31 06:30","2021","12","31","06:30","-3.9","","-5.7","","87","","","","32","","21","","24.1","","99.60","","","","-10","","NA"
"-52.75","47.62","ST. JOHN'S INTL A","8403505","2021-12-31 07:30","2021","12","31","07:30","-4.4","","-5.5","","92","","","","32","","18","","24.1","","99.63","","","","-10","","NA"
"-52.75","47.62","ST. JOHN'S INTL A","8403505","2021-12-31 08:30","2021","12","31","08:30","-4.2","","-5.3","","92","","","","33","","22","","24.1","","99.66","","","","-11","","Cloudy"
"-52.75","47.62","ST. JOHN'S INTL A","8403505","2021-12-31 09:30","2021","12","31","09:30","-3.9","","-5.6","","88","","","","35","","21","","24.1","","99.67","","","","-10","","NA"
"-52.75","47.62","ST. JOHN'S INTL A","8403505","2021-12-31 10:30","2021","12","31","10:30","-3.0","","-5.1","","86","","","","34","","16","","24.1","","99.67","","","","-8","","NA"
"-52.75","47.62","ST. JOHN'S INTL A","8403505","2021-12-31 11:30","2021","12","31","11:30","-2.3","","-4.8","","83","","","","35","","16","","24.1","","99.63","","","","-7","","Cloudy"
"-52.75","47.62","ST. JOHN'S INTL A","8403505","2021-12-31 12:30","2021","12","31","12:30","-2.3","","-5.0","","82","","","","34","","17","","24.1","","99.60","","","","-8","","NA"
"-52.75","47.62","ST. JOHN'S INTL A","8403505","2021-12-31 13:30","2021","12","31","13:30","-2.2","","-5.4","","79","","","","34","","13","","24.1","","99.60","","","","-7","","NA"
"-52.75","47.62","ST. JOHN'S INTL A","8403505","2021-12-31 14:30","2021","12","31","14:30","-2.3","","-5.3","","80","","","","33","","19","","24.1","","99.62","","","","-8","","Cloudy"
"-52.75","47.62","ST. JOHN'S INTL A","8403505","2021-12-31 15:30","2021","12","31","15:30","-2.4","","-5.6","","79","","","","32","","21","","24.1","","99.65","","","","-8","","NA"
"-52.75","47.62","ST. JOHN'S INTL A","8403505","2021-12-31 16:30","2021","12","31","16:30","-2.6","","-5.5","","81","","","","35","","11","","24.1","","99.69","","","","-7","","NA"
"-52.75","47.62","ST. JOHN'S INTL A","8403505","2021-12-31 17:30","2021","12","31","17:30","-2.6","","-5.6","","80","","","","35","","12","","24.1","","99.72","","","","-7","","Mostly Cloudy"
"-52.75","47.62","ST. JOHN'S INTL A","8403505","2021-12-31 18:30","2021","12","31","18:30","-2.7","","-6.0","","78","","","","33","","12","","24.1","","99.78","","","","-7","","NA"
"-52.75","47.62","ST. JOHN'S INTL A","8403505","2021-12-31 19:30","2021","12","31","19:30","-2.6","","-5.4","","82","","","","34","","11","","24.1","","99.82","","","","-7","","NA"
"-52.75","47.62","ST. JOHN'S INTL A","8403505","2021-12-31 20:30","2021","12","31","20:30","-2.6","","-5.2","","82","","","","32","","10","","24.1","","99.84","","","","-6","","Cloudy"
"-52.75","47.62","ST. JOHN'S INTL A","8403505","2021-12-31 21:30","2021","12","31","21:30","-2.9","","-5.7","","81","","","","33","","15","","24.1","","99.87","","","","-8","","NA"
"-52.75","47.62","ST. JOHN'S INTL A","8403505","2021-12-31 22:30","2021","12","31","22:30","-3.1","","-5.5","","84","","","","33","","15","","24.1","","99.89","","","","-8","","NA"
"-52.75","47.62","ST. JOHN'S INTL A","8403505","2021-12-31 23:30","2021","12","31","23:30","-3.1","","-5.3","","85","","","","32","","14","","24.1","","99.92","","","","-8","","Cloudy"
