"Longitude (x)","Latitude (y)","Station Name","Climate ID","Date/Time (LST)","Year","Month","Day","Time (LST)","Temp (°C)","Temp Flag","Dew Point Temp (°C)","Dew Point Temp Flag","Rel Hum (%)","Rel Hum Flag","Precip. Amount (mm)","Precip. Amount Flag","Wind Dir (10s deg)","Wind Dir Flag","Wind Spd (km/h)","Wind Spd Flag","Visibility (km)","Visibility Flag","Stn Press (kPa)","Stn Press Flag","Hmdx","Hmdx Flag","Wind Chill","Wind Chill Flag","Weather"
"-52.75","47.62","ST. JOHN'S INTL A","8403505","2021-03-01 00:30","2021","03","01","00:30","-1.3","","-1.5","","99","","","","3","","30","","0.4","","98.64","","","","-8","","Snow,Freezing Fog"
"-52.75","47.62","ST. JOHN'S INTL A","8403505","2021-03-01 01:30","2021","03","01","01:30","-1.7","","-1.9","","99","","","","4","","46","","1.6","","98.79","","","","-10","","Snow,Fog"
"-52.75","47.62","ST. JOHN'S INTL A","8403505","2021-03-01 02:30","2021","03","01","02:30","-1.8","","-2.0","","98","","","","4","","47","","2.4","","98.91","","","","-10","","Snow,Fog,Blowing Snow"
"-52.75","47.62","ST. JOHN'S INTL A","8403505","2021-03-01 03:30","2021","03","01","03:30","-1.6","","-1.9","","98","","","","3","","38","","2.0","","99.03","","","","-9","","Snow,Fog,Blowing Snow"
"-52.75","47.62","ST. JOHN'S INTL A","8403505","2021-03-01 04:30","2021","03","01","04:30","-1.6","","-1.9","","98","","","","3","","37","","2.0","","99.16","","","","-9","","Snow,Blowing Snow"
"-52.75","47.62","ST. JOHN'S INTL A","8403505","2021-03-01 05:30","2021","03","01","05:30","-1.6","","-1.9","","98","","","","3","","31","","2.4","","99.28","","","","-9","","Snow,Blowing Snow"
"-52.75","47.62","ST. JOHN'S INTL A","8403505","2021-03-01 06:30","2021","03","01","06:30","-1.7","","-2.0","","98","","","","3","","30","","12.9","","99.40","","","","-9","","Snow"
"-52.75","47.62","ST. JOHN'S INTL A","8403505","2021-03-01 07:30","2021","03","01","07:30","-2.0","","-2.4","","97","","","","4","","29","","24.1","","99.51","","","","-9","","Snow"
"-52.75","47.62","ST. JOHN'S INTL A","8403505","2021-03-01 08:30","2021","03","01","08:30","-1.5","","-2.2","","95","","","","4","","30","","24.1","","99.61","","","","-8","","Cloudy"
"-52.75","47.62","ST. JOHN'S INTL A","8403505","2021-03-01 09:30","2021","03","01","09:30","-1.4","","-2.0","","96","","","","2","","31","","3.2","","99.70","","","","-8","","Snow"
"-52.75","47.62","ST. JOHN'S INTL A","8403505","2021-03-01 10:30","2021","03","01","10:30","-1.2","","-1.7","","96","","","","3","","36","","24.1","","99.68","","","","-9","","Snow"
"-52.75","47.62","ST. JOHN'S INTL A","8403505","2021-03-01 11:30","2021","03","01","11:30","-1.0","","-1.8","","94","","","","3","","24","","24.1","","99.74","","","","-7","","Cloudy"
"-52.75","47.62","ST. JOHN'S INTL A","8403505","2021-03-01 12:30","2021","03","01","12:30","-0.7","","-1.8","","92","","","","2","","25","","24.1","","99.72","","","","-7","","NA"
"-52.75","47.62","ST. JOHN'S INTL A","8403505","2021-03-01 13:30","2021","03","01","13:30","-0.3","","-1.8","","89","","","","2","","26","","24.1","","99.64","","","","-6","","NA"
"-52.75","47.62","ST. JOHN'S INTL A","8403505","2021-03-01 14:30","2021","03","01","14:30","0.0","","-2.0","","87","","","","4","","21","","24.1","","99.57","","","","-5","","Mainly Clear"
"-52.75","47.62","ST. JOHN'S INTL A","8403505","2021-03-01 15:30","2021","03","01","15:30","-0.5","","-2.2","","89","","","","4","","23","","24.1","","99.47","","","","-6","","NA"
"-52.75","47.62","ST. JOHN'S INTL A","8403505","2021-03-01 16:30","2021","03","01","16:30","-1.2","","-2.4","","91","","","","5","","13","","24.1","","99.49","","","","-5","","NA"
"-52.75","47.62","ST. JOHN'S INTL A","8403505","2021-03-01 17:30","2021","03","01","17:30","-1.7","","-2.5","","95","","","","34","","10","","24.1","","99.56","","","","-5","","Mostly Cloudy"
"-52.75","47.62","ST. JOHN'S INTL A","8403505","2021-03-01 18:30","2021","03","01","18:30","-2.4","","-2.9","","96","","","","35","","10","","24.1","","99.52","","","","-6","","NA"
"-52.75","47.62","ST. JOHN'S INTL A","8403505","2021-03-01 19:30","2021","03","01","19:30","-3.4","","-3.7","","97","","","","1","","8","","24.1","","99.46","","","","-7","","NA"
"-52.75","47.62","ST. JOHN'S INTL A","8403505","2021-03-01 20:30","2021","03","01","20:30","-3.6","","-3.9","","98","","","","28","","6","","9.7","","99.39","","","","-6","","Fog"
"-52.75","47.62","ST. JOHN'S INTL A","8403505","2021-03-01 21:30","2021","03","01","21:30","-3.8","","-4.1","","98","","","","5","","7","","24.1","","99.20","","","","-7","","NA"
"-52.75","47.62","ST. JOHN'S INTL A","8403505","2021-03-01 22:30","2021","03","01","22:30","-3.5","","-3.8","","98","","","","11","","9","","2.0","","99.01","","","","-7","","Fog"
"-52.75","47.62","ST. JOHN'S INTL A","8403505","2021-03-01 23:30","2021","03","01","23:30","-2.6","","-2.8","","98","","","","13","","12","","3.2","","98.84","","","","-7","","Fog"
"-52.75","47.62","ST. JOHN'S INTL A","8403505","2021-03-02 00:30","2021","03","02","00:30","-1.9","","-2.1","","98","","","","13","","17","","3.2","","98.65","","","","-7","","Fog"
"-52.75","47.62","ST. JOHN'S INTL A","8403505","2021-03-02 01:30","2021","03","02","01:30","-1.5","","-1.7","","98","","","","14","","16","","3.2","","98.68","","","","-6","","Fog"
"-52.75","47.62","ST. JOHN'S INTL A","8403505","2021-03-02 02:30","2021","03","02","02:30","-1.3","","-1.5","","98","","","","15","","30","","1.2","","98.42","","","","-8","","Fog"
"-52.75","47.62","ST. JOHN'S INTL A","8403505","2021-03-02 03:30","2021","03","02","03:30","-1.0","","-1.2","","99","","","","16","","38","","6.4","","98.19","","","","-9","","Fog"
"-52.75","47.62","ST. JOHN'S INTL A","8403505","2021-03-02 04:30","2021","03","02","04:30","-0.6","","-0.8","","99","","","","16","","39","","24.1","","98.13","","","","-8","","NA"
"-52.75","47.62","ST. JOHN'S INTL A","8403505","2021-03-02 05:30","2021","03","02","05:30","-0.4","","-0.6","","98","","","","17","","35","","24.1","","97.99","","","","-7","","Cloudy"
"-52.75","47.62","ST. JOHN'S INTL A","8403505","2021-03-02 06:30","2021","03","02","06:30","-0.5","","-1.0","","97","","","","16","","41","","24.1","","97.74","","","","-8","","NA"
"-52.75","47.62","ST. JOHN'S INTL A","8403505","2021-03-02 07:30","2021","03","02","07:30","-0.4","","-0.9","","97","","","","16","","52","","2.4","","97.52","","","","-9","","Snow,Blowing Snow"
"-52.75","47.62","ST. JOHN'S INTL A","8403505","2021-03-02 08:30","2021","03","02","08:30","-0.5","","-0.8","","98","","","","16","","56","","0.4","","97.31","","","","-9","","Moderate Snow,Blowing Snow"
"-52.75","47.62","ST. JOHN'S INTL A","8403505","2021-03-02 09:30","2021","03","02","09:30","-0.6","","-0.9","","98","","","","16","","52","","0.4","","97.09","","","","-9","","Moderate Snow,Blowing Snow"
"-52.75","47.62","ST. JOHN'S INTL A","8403505","2021-03-02 10:30","2021","03","02","10:30","-0.6","","-0.9","","98","","","","16","","54","","0.4","","96.90","","","","-9","","Moderate Snow,Blowing Snow"
"-52.75","47.62","ST. JOHN'S INTL A","8403505","2021-03-02 11:30","2021","03","02","11:30","-0.4","","-0.7","","98","","","","16","","49","","0.4","","96.69","","","","-9","","Moderate Snow,Blowing Snow"
"-52.75","47.62","ST. JOHN'S INTL A","8403505","2021-03-02 12:30","2021","03","02","12:30","0.0","","-0.4","","97","","","","16","","36","","0.8","","96.47","","","","-7","","Moderate Snow,Blowing Snow"
"-52.75","47.62","ST. JOHN'S INTL A","8403505","2021-03-02 13:30","2021","03","02","13:30","0.2","","-0.3","","97","","","","18","","43","","0.8","","96.33","","","","","","Moderate Snow,Fog,Blowing Snow"
"-52.75","47.62","ST. JOHN'S INTL A","8403505","2021-03-02 14:30","2021","03","02","14:30","0.4","","0.0","","98","","","","18","","32","","1.0","","96.15","","","","","","Rain,Snow,Fog"
"-52.75","47.62","ST. JOHN'S INTL A","8403505","2021-03-02 15:30","2021","03","02","15:30","1.2","","0.4","","94","","","","24","","16","","24.1","","96.20","","","","","","NA"
"-52.75","47.62","ST. JOHN'S INTL A","8403505","2021-03-02 16:30","2021","03","02","16:30","1.4","","-0.6","","87","","","","27","","21","","24.1","","96.26","","","","","","NA"
"-52.75","47.62","ST. JOHN'S INTL A","8403505","2021-03-02 17:30","2021","03","02","17:30","0.3","","-1.0","","91","","","","20","","13","","24.1","","96.30","","","","","","Mainly Clear"
"-52.75","47.62","ST. JOHN'S INTL A","8403505","2021-03-02 18:30","2021","03","02","18:30","0.0","","-1.2","","92","","","","22","","23","","24.1","","96.41","","","","-6","","NA"
"-52.75","47.62","ST. JOHN'S INTL A","8403505","2021-03-02 19:30","2021","03","02","19:30","-1.6","","-2.3","","95","","","","19","","16","","24.1","","96.34","","","","-7","","NA"
"-52.75","47.62","ST. JOHN'S INTL A","8403505","2021-03-02 20:30","2021","03","02","20:30","-0.7","","-2.4","","89","","","","21","","17","","24.1","","96.40","","","","-6","","Mostly Cloudy"
"-52.75","47.62","ST. JOHN'S INTL A","8403505","2021-03-02 21:30","2021","03","02","21:30","-1.1","","-2.6","","89","","","","23","","25","","24.1","","96.43","","","","-7","","NA"
"-52.75","47.62","ST. JOHN'S INTL A","8403505","2021-03-02 22:30","2021","03","02","22:30","-2.0","","-3.8","","87","","","","24","","26","","24.1","","96.42","","","","-9","","NA"
"-52.75","47.62","ST. JOHN'S INTL A","8403505","2021-03-02 23:30","2021","03","02","23:30","-3.0","","-6.4","","77","","","","23","","24","","24.1","","96.44","","","","-10","","Mostly Cloudy"
"-52.75","47.62","ST. JOHN'S INTL A","8403505","2021-03-03 00:30","2021","03","03","00:30","-5.4","","-8.3","","80","","","","24","","22","","24.1","","96.49","","","","-12","","NA"
"-52.75","47.62","ST. JOHN'S INTL A","8403505","2021-03-03 01:30","2021","03","03","01:30","-6.4","","-8.9","","83","","","","24","","14","","24.1","","96.53","","","","-12","","NA"
"-52.75","47.62","ST. JOHN'S INTL A","8403505","2021-03-03 02:30","2021","03","03","02:30","-7.0","","-9.2","","85","","","","22","","21","","2.4","","96.53","","","","-14","","Snow Showers,Blowing Snow"
"-52.75","47.62","ST. JOHN'S INTL A","8403505","2021-03-03 03:30","2021","03","03","03:30","-8.0","","-10.9","","80","","","","25","","23","","24.1","","96.54","","","","-16","","NA"
"-52.75","47.62","ST. JOHN'S INTL A","8403505","2021-03-03 04:30","2021","03","03","04:30","-8.9","","-11.3","","83","","","","22","","18","","24.1","","96.61","","","","-16","","NA"
"-52.75","47.62","ST. JOHN'S INTL A","8403505","2021-03-03 05:30","2021","03","03","05:30","-9.3","","-11.8","","82","","","","24","","21","","24.1","","96.69","","","","-17","","Mainly Clear"
"-52.75","47.62","ST. JOHN'S INTL A","8403505","2021-03-03 06:30","2021","03","03","06:30","-9.2","","-11.4","","84","","","","24","","18","","24.1","","96.76","","","","-16","","NA"
"-52.75","47.62","ST. JOHN'S INTL A","8403505","2021-03-03 07:30","2021","03","03","07:30","-9.2","","-12.0","","80","","","","25","","20","","24.1","","96.82","","","","-17","","NA"
"-52.75","47.62","ST. JOHN'S INTL A","8403505","2021-03-03 08:30","2021","03","03","08:30","-7.8","","-12.7","","68","","","","24","","18","","24.1","","96.84","","","","-15","","Mainly Clear"
"-52.75","47.62","ST. JOHN'S INTL A","8403505","2021-03-03 09:30","2021","03","03","09:30","-6.7","","-11.7","","68","","","","24","","23","","24.1","","96.82","","","","-14","","NA"
"-52.75","47.62","ST. JOHN'S INTL A","8403505","2021-03-03 10:30","2021","03","03","10:30","-5.4","","-10.8","","66","","","","21","","31","","24.1","","96.78","","","","-14","","NA"
"-52.75","47.62","ST. JOHN'S INTL A","8403505","2021-03-03 11:30","2021","03","03","11:30","-5.7","","-7.8","","85","","","","19","","36","","0.8","","96.68","","","","-15","","Moderate Snow Showers"
"-52.75","47.62","ST. JOHN'S INTL A","8403505","2021-03-03 12:30","2021","03","03","12:30","-3.7","","-6.1","","84","","","","23","","40","","2.4","","96.56","","","","-12","","Snow Showers"
"-52.75","47.62","ST. JOHN'S INTL A","8403505","2021-03-03 13:30","2021","03","03","13:30","-3.6","","-7.6","","74","","","","26","","50","","24.1","","96.52","","","","-13","","Blowing Snow"
"-52.75","47.62","ST. JOHN'S INTL A","8403505","2021-03-03 14:30","2021","03","03","14:30","-4.0","","-9.1","","68","","","","27","","59","","24.1","","96.64","","","","-14","","Blowing Snow"
"-52.75","47.62","ST. JOHN'S INTL A","8403505","2021-03-03 15:30","2021","03","03","15:30","-4.6","","-10.3","","65","","","","28","","44","","24.1","","96.79","","","","-14","","Blowing Snow"
"-52.75","47.62","ST. JOHN'S INTL A","8403505","2021-03-03 16:30","2021","03","03","16:30","-5.4","","-9.8","","72","","","","28","","27","","24.1","","96.89","","","","-13","","NA"
"-52.75","47.62","ST. JOHN'S INTL A","8403505","2021-03-03 17:30","2021","03","03","17:30","-5.1","","-8.4","","78","","","","26","","27","","24.1","","96.97","","","","-13","","Snow Showers"
"-52.75","47.62","ST. JOHN'S INTL A","8403505","2021-03-03 18:30","2021","03","03","18:30","-5.0","","-7.7","","82","","","","27","","28","","24.1","","97.05","","","","-13","","Snow Showers"
"-52.75","47.62","ST. JOHN'S INTL A","8403505","2021-03-03 19:30","2021","03","03","19:30","-5.1","","-6.8","","88","","","","26","","27","","24.1","","97.13","","","","-13","","Snow Showers"
"-52.75","47.62","ST. JOHN'S INTL A","8403505","2021-03-03 20:30","2021","03","03","20:30","-5.1","","-6.6","","89","","","","27","","25","","0.8","","97.18","","","","-12","","Moderate Snow Showers,Blowing Snow"
"-52.75","47.62","ST. JOHN'S INTL A","8403505","2021-03-03 21:30","2021","03","03","21:30","-5.0","","-7.5","","83","","","","25","","22","","12.9","","97.19","","","","-12","","Snow Showers"
"-52.75","47.62","ST. JOHN'S INTL A","8403505","2021-03-03 22:30","2021","03","03","22:30","-5.2","","-7.5","","84","","","","25","","26","","24.1","","97.23","","","","-13","","Snow Showers"
"-52.75","47.62","ST. JOHN'S INTL A","8403505","2021-03-03 23:30","2021","03","03","23:30","-5.7","","-7.5","","87","","","","25","","35","","4.0","","97.24","","","","-14","","Snow Showers,Blowing Snow"
"-52.75","47.62","ST. JOHN'S INTL A","8403505","2021-03-04 00:30","2021","03","04","00:30","-5.8","","-8.0","","84","","","","25","","32","","8.1","","97.27","","","","-14","","Snow Showers,Blowing Snow"
"-52.75","47.62","ST. JOHN'S INTL A","8403505","2021-03-04 01:30","2021","03","04","01:30","-6.0","","-8.1","","85","","","","25","","29","","24.1","","97.31","","","","-14","","Snow Showers,Blowing Snow"
"-52.75","47.62","ST. JOHN'S INTL A","8403505","2021-03-04 02:30","2021","03","04","02:30","-6.1","","-7.8","","88","","","","25","","31","","6.4","","97.33","","","","-15","","Snow Showers,Blowing Snow"
"-52.75","47.62","ST. JOHN'S INTL A","8403505","2021-03-04 03:30","2021","03","04","03:30","-6.7","","-8.8","","85","","","","26","","31","","24.1","","97.33","","","","-15","","Blowing Snow"
"-52.75","47.62","ST. JOHN'S INTL A","8403505","2021-03-04 04:30","2021","03","04","04:30","-6.3","","-8.9","","82","","","","24","","29","","24.1","","97.33","","","","-15","","Blowing Snow"
"-52.75","47.62","ST. JOHN'S INTL A","8403505","2021-03-04 05:30","2021","03","04","05:30","-5.5","","-7.7","","85","","","","24","","27","","24.1","","97.35","","","","-13","","Blowing Snow"
"-52.75","47.62","ST. JOHN'S INTL A","8403505","2021-03-04 06:30","2021","03","04","06:30","-4.8","","-6.8","","86","","","","23","","32","","24.1","","97.36","","","","-13","","Blowing Snow"
"-52.75","47.62","ST. JOHN'S INTL A","8403505","2021-03-04 07:30","2021","03","04","07:30","-3.4","","-5.8","","84","","","","23","","32","","19.3","","97.42","","","","-11","","Snow Showers,Blowing Snow"
"-52.75","47.62","ST. JOHN'S INTL A","8403505","2021-03-04 08:30","2021","03","04","08:30","-2.2","","-4.9","","82","","","","24","","35","","24.1","","97.43","","","","-10","","Snow Showers,Blowing Snow"
"-52.75","47.62","ST. JOHN'S INTL A","8403505","2021-03-04 09:30","2021","03","04","09:30","-1.5","","-4.3","","81","","","","23","","36","","24.1","","97.42","","","","-9","","Snow Showers,Blowing Snow"
"-52.75","47.62","ST. JOHN'S INTL A","8403505","2021-03-04 10:30","2021","03","04","10:30","-0.3","","-4.1","","76","","","","24","","47","","24.1","","97.41","","","","-8","","Blowing Snow"
"-52.75","47.62","ST. JOHN'S INTL A","8403505","2021-03-04 11:30","2021","03","04","11:30","-0.1","","-4.2","","74","","","","24","","43","","24.1","","97.44","","","","-8","","Blowing Snow"
"-52.75","47.62","ST. JOHN'S INTL A","8403505","2021-03-04 12:30","2021","03","04","12:30","0.6","","-4.6","","68","","","","24","","39","","24.1","","97.42","","","","","","NA"
"-52.75","47.62","ST. JOHN'S INTL A","8403505","2021-03-04 13:30","2021","03","04","13:30","0.8","","-3.9","","71","","","","24","","33","","24.1","","97.43","","","","","","NA"
"-52.75","47.62","ST. JOHN'S INTL A","8403505","2021-03-04 14:30","2021","03","04","14:30","0.9","","-4.6","","66","","","","23","","47","","24.1","","97.43","","","","","","Mostly Cloudy"
"-52.75","47.62","ST. JOHN'S INTL A","8403505","2021-03-04 15:30","2021","03","04","15:30","0.6","","-4.4","","69","","","","24","","30","","24.1","","97.48","","","","","","NA"
"-52.75","47.62","ST. JOHN'S INTL A","8403505","2021-03-04 16:30","2021","03","04","16:30","0.2","","-4.5","","71","","","","23","","31","","24.1","","97.51","","","","","","NA"
"-52.75","47.62","ST. JOHN'S INTL A","8403505","2021-03-04 17:30","2021","03","04","17:30","-0.6","","-4.3","","76","","","","23","","19","","24.1","","97.56","","","","-6","","Mostly Cloudy"
"-52.75","47.62","ST. JOHN'S INTL A","8403505","2021-03-04 18:30","2021","03","04","18:30","-1.6","","-4.1","","83","","","","22","","22","","24.1","","97.59","","","","-8","","NA"
"-52.75","47.62","ST. JOHN'S INTL A","8403505","2021-03-04 19:30","2021","03","04","19:30","-1.9","","-4.0","","86","","","","22","","24","","24.1","","97.67","","","","-8","","NA"
"-52.75","47.62","ST. JOHN'S INTL A","8403505","2021-03-04 20:30","2021","03","04","20:30","-2.4","","-4.0","","88","","","","22","","22","","24.1","","97.70","","","","-9","","Clear"
"-52.75","47.62","ST. JOHN'S INTL A","8403505","2021-03-04 21:30","2021","03","04","21:30","-2.5","","-4.1","","89","","","","22","","24","","24.1","","97.74","","","","-9","","NA"
"-52.75","47.62","ST. JOHN'S INTL A","8403505","2021-03-04 22:30","2021","03","04","22:30","-2.6","","-4.1","","89","","","","24","","23","","24.1","","97.78","","","","-9","","NA"
"-52.75","47.62","ST. JOHN'S INTL A","8403505","2021-03-04 23:30","2021","03","04","23:30","-2.6","","-4.6","","86","","","","22","","18","","24.1","","97.79","","","","-8","","Mainly Clear"
"-52.75","47.62","ST. JOHN'S INTL A","8403505","2021-03-05 00:30","2021","03","05","00:30","-2.0","","-4.4","","84","","","","23","","19","","24.1","","97.80","","","","-8","","NA"
"-52.75","47.62","ST. JOHN'S INTL A","8403505","2021-03-05 01:30","2021","03","05","01:30","-1.7","","-4.3","","82","","","","22","","19","","24.1","","97.83","","","","-7","","NA"
"-52.75","47.62","ST. JOHN'S INTL A","8403505","2021-03-05 02:30","2021","03","05","02:30","-1.3","","-4.3","","80","","","","23","","21","","24.1","","97.86","","","","-7","","Mostly Cloudy"
"-52.75","47.62","ST. JOHN'S INTL A","8403505","2021-03-05 03:30","2021","03","05","03:30","-1.5","","-4.5","","80","","","","22","","23","","24.1","","97.86","","","","-8","","NA"
"-52.75","47.62","ST. JOHN'S INTL A","8403505","2021-03-05 04:30","2021","03","05","04:30","-1.8","","-4.2","","83","","","","20","","23","","24.1","","97.89","","","","-8","","NA"
"-52.75","47.62","ST. JOHN'S INTL A","8403505","2021-03-05 05:30","2021","03","05","05:30","-2.7","","-4.6","","86","","","","20","","20","","24.1","","97.90","","","","-9","","Mainly Clear"
"-52.75","47.62","ST. JOHN'S INTL A","8403505","2021-03-05 06:30","2021","03","05","06:30","-2.9","","-4.2","","91","","","","21","","19","","24.1","","97.95","","","","-9","","NA"
"-52.75","47.62","ST. JOHN'S INTL A","8403505","2021-03-05 07:30","2021","03","05","07:30","-2.0","","-3.5","","89","","","","21","","22","","24.1","","98.06","","","","-8","","NA"
"-52.75","47.62","ST. JOHN'S INTL A","8403505","2021-03-05 08:30","2021","03","05","08:30","-0.9","","-2.8","","87","","","","20","","25","","24.1","","98.13","","","","-7","","Mostly Cloudy"
"-52.75","47.62","ST. JOHN'S INTL A","8403505","2021-03-05 09:30","2021","03","05","09:30","0.7","","-2.2","","81","","","","22","","24","","24.1","","98.15","","","","","","NA"
"-52.75","47.62","ST. JOHN'S INTL A","8403505","2021-03-05 10:30","2021","03","05","10:30","0.8","","-1.3","","86","","","","21","","22","","24.1","","98.19","","","","","","Snow"
"-52.75","47.62","ST. JOHN'S INTL A","8403505","2021-03-05 11:30","2021","03","05","11:30","2.7","","-2.1","","71","","","","24","","25","","24.1","","98.16","","","","","","Mostly Cloudy"
"-52.75","47.62","ST. JOHN'S INTL A","8403505","2021-03-05 12:30","2021","03","05","12:30","3.2","","-2.5","","66","","","","24","","26","","24.1","","98.14","","","","","","NA"
"-52.75","47.62","ST. JOHN'S INTL A","8403505","2021-03-05 13:30","2021","03","05","13:30","3.1","","-3.9","","60","","","","23","","35","","24.1","","98.16","","","","","","NA"
"-52.75","47.62","ST. JOHN'S INTL A","8403505","2021-03-05 14:30","2021","03","05","14:30","2.3","","-3.0","","68","","","","22","","25","","24.1","","98.16","","","","","","Mostly Cloudy"
"-52.75","47.62","ST. JOHN'S INTL A","8403505","2021-03-05 15:30","2021","03","05","15:30","1.8","","-2.8","","71","","","","23","","26","","24.1","","98.22","","","","","","NA"
"-52.75","47.62","ST. JOHN'S INTL A","8403505","2021-03-05 16:30","2021","03","05","16:30","2.5","","-3.4","","65","","","","23","","26","","24.1","","98.20","","","","","","NA"
"-52.75","47.62","ST. JOHN'S INTL A","8403505","2021-03-05 17:30","2021","03","05","17:30","1.5","","-3.5","","70","","","","21","","17","","24.1","","98.21","","","","","","Mainly Clear"
"-52.75","47.62","ST. JOHN'S INTL A","8403505","2021-03-05 18:30","2021","03","05","18:30","0.0","","-3.1","","80","","","","20","","17","","24.1","","98.28","","","","-5","","NA"
"-52.75","47.62","ST. JOHN'S INTL A","8403505","2021-03-05 19:30","2021","03","05","19:30","-1.0","","-2.3","","91","","","","20","","27","","24.1","","98.35","","","","-7","","NA"
"-52.75","47.62","ST. JOHN'S INTL A","8403505","2021-03-05 20:30","2021","03","05","20:30","-1.1","","-1.8","","95","","","","21","","23","","24.1","","98.37","","","","-7","","Mostly Cloudy"
"-52.75","47.62","ST. JOHN'S INTL A","8403505","2021-03-05 21:30","2021","03","05","21:30","-0.1","","-0.8","","95","","","","21","","21","","24.1","","98.40","","","","-6","","NA"
"-52.75","47.62","ST. JOHN'S INTL A","8403505","2021-03-05 22:30","2021","03","05","22:30","0.2","","-1.0","","92","","","","22","","18","","24.1","","98.40","","","","","","NA"
"-52.75","47.62","ST. JOHN'S INTL A","8403505","2021-03-05 23:30","2021","03","05","23:30","0.3","","-0.8","","93","","","","23","","20","","19.3","","98.43","","","","","","Snow Showers"
"-52.75","47.62","ST. JOHN'S INTL A","8403505","2021-03-06 00:30","2021","03","06","00:30","0.3","","-0.5","","95","","","","22","","15","","24.1","","98.46","","","","","","Snow Showers"
"-52.75","47.62","ST. JOHN'S INTL A","8403505","2021-03-06 01:30","2021","03","06","01:30","0.3","","-0.4","","95","","","","25","","16","","24.1","","98.49","","","","","","Snow Showers"
"-52.75","47.62","ST. JOHN'S INTL A","8403505","2021-03-06 02:30","2021","03","06","02:30","-0.1","","-0.8","","95","","","","26","","15","","24.1","","98.48","","","","-5","","Snow Showers"
"-52.75","47.62","ST. JOHN'S INTL A","8403505","2021-03-06 03:30","2021","03","06","03:30","-0.8","","-2.2","","90","","","","27","","19","","24.1","","98.53","","","","-6","","NA"
"-52.75","47.62","ST. JOHN'S INTL A","8403505","2021-03-06 04:30","2021","03","06","04:30","-1.1","","-2.5","","90","","","","26","","13","","24.1","","98.59","","","","-5","","NA"
"-52.75","47.62","ST. JOHN'S INTL A","8403505","2021-03-06 05:30","2021","03","06","05:30","-1.1","","-2.8","","89","","","","25","","13","","24.1","","98.65","","","","-5","","Cloudy"
"-52.75","47.62","ST. JOHN'S INTL A","8403505","2021-03-06 06:30","2021","03","06","06:30","-2.6","","-3.8","","92","","","","22","","12","","24.1","","98.72","","","","-7","","NA"
"-52.75","47.62","ST. JOHN'S INTL A","8403505","2021-03-06 07:30","2021","03","06","07:30","-2.1","","-3.4","","91","","","","19","","19","","24.1","","98.75","","","","-8","","NA"
"-52.75","47.62","ST. JOHN'S INTL A","8403505","2021-03-06 08:30","2021","03","06","08:30","-0.1","","-3.7","","77","","","","20","","26","","24.1","","98.83","","","","-6","","Mostly Cloudy"
"-52.75","47.62","ST. JOHN'S INTL A","8403505","2021-03-06 09:30","2021","03","06","09:30","0.6","","-2.7","","79","","","","23","","29","","19.3","","98.88","","","","","","NA"
"-52.75","47.62","ST. JOHN'S INTL A","8403505","2021-03-06 10:30","2021","03","06","10:30","0.3","","-4.0","","73","","","","26","","31","","24.1","","98.93","","","","","","NA"
"-52.75","47.62","ST. JOHN'S INTL A","8403505","2021-03-06 11:30","2021","03","06","11:30","1.0","","-4.2","","69","","","","23","","43","","24.1","","98.95","","","","","","Cloudy"
"-52.75","47.62","ST. JOHN'S INTL A","8403505","2021-03-06 12:30","2021","03","06","12:30","1.0","","-3.8","","70","","","","24","","35","","24.1","","98.99","","","","","","NA"
"-52.75","47.62","ST. JOHN'S INTL A","8403505","2021-03-06 13:30","2021","03","06","13:30","0.8","","-4.2","","69","","","","24","","33","","24.1","","99.01","","","","","","NA"
"-52.75","47.62","ST. JOHN'S INTL A","8403505","2021-03-06 14:30","2021","03","06","14:30","0.8","","-5.5","","63","","","","25","","48","","24.1","","99.06","","","","","","Mostly Cloudy"
"-52.75","47.62","ST. JOHN'S INTL A","8403505","2021-03-06 15:30","2021","03","06","15:30","0.5","","-6.3","","60","","","","26","","50","","24.1","","99.16","","","","","","NA"
"-52.75","47.62","ST. JOHN'S INTL A","8403505","2021-03-06 16:30","2021","03","06","16:30","-0.5","","-6.7","","63","","","","25","","38","","24.1","","99.27","","","","-8","","NA"
"-52.75","47.62","ST. JOHN'S INTL A","8403505","2021-03-06 17:30","2021","03","06","17:30","-1.4","","-6.8","","66","","","","25","","27","","24.1","","99.38","","","","-8","","Mainly Clear"
"-52.75","47.62","ST. JOHN'S INTL A","8403505","2021-03-06 18:30","2021","03","06","18:30","-2.0","","-6.3","","72","","","","24","","18","","24.1","","99.51","","","","-7","","NA"
"-52.75","47.62","ST. JOHN'S INTL A","8403505","2021-03-06 19:30","2021","03","06","19:30","-2.6","","-6.0","","78","","","","21","","17","","24.1","","99.55","","","","-8","","NA"
"-52.75","47.62","ST. JOHN'S INTL A","8403505","2021-03-06 20:30","2021","03","06","20:30","-3.2","","-5.8","","82","","","","21","","21","","24.1","","99.65","","","","-9","","Mainly Clear"
"-52.75","47.62","ST. JOHN'S INTL A","8403505","2021-03-06 21:30","2021","03","06","21:30","-3.0","","-4.8","","87","","","","20","","26","","24.1","","99.67","","","","-10","","NA"
"-52.75","47.62","ST. JOHN'S INTL A","8403505","2021-03-06 22:30","2021","03","06","22:30","-2.0","","-4.5","","83","","","","22","","24","","24.1","","99.69","","","","-8","","Snow Showers"
"-52.75","47.62","ST. JOHN'S INTL A","8403505","2021-03-06 23:30","2021","03","06","23:30","-1.6","","-3.9","","85","","","","22","","25","","24.1","","99.74","","","","-8","","Snow Showers"
"-52.75","47.62","ST. JOHN'S INTL A","8403505","2021-03-07 00:30","2021","03","07","00:30","-2.0","","-5.2","","79","","","","26","","26","","16.1","","99.78","","","","-9","","Snow Showers"
"-52.75","47.62","ST. JOHN'S INTL A","8403505","2021-03-07 01:30","2021","03","07","01:30","-2.2","","-6.2","","74","","","","25","","22","","24.1","","99.84","","","","-8","","NA"
"-52.75","47.62","ST. JOHN'S INTL A","8403505","2021-03-07 02:30","2021","03","07","02:30","-2.6","","-6.6","","74","","","","25","","25","","24.1","","99.86","","","","-9","","Mostly Cloudy"
"-52.75","47.62","ST. JOHN'S INTL A","8403505","2021-03-07 03:30","2021","03","07","03:30","-3.1","","-6.8","","75","","","","26","","22","","24.1","","99.90","","","","-9","","NA"
"-52.75","47.62","ST. JOHN'S INTL A","8403505","2021-03-07 04:30","2021","03","07","04:30","-3.1","","-7.5","","72","","","","27","","26","","24.1","","99.93","","","","-10","","NA"
"-52.75","47.62","ST. JOHN'S INTL A","8403505","2021-03-07 05:30","2021","03","07","05:30","-3.1","","-7.4","","73","","","","26","","18","","24.1","","100.01","","","","-9","","Mostly Cloudy"
"-52.75","47.62","ST. JOHN'S INTL A","8403505","2021-03-07 06:30","2021","03","07","06:30","-2.8","","-7.6","","69","","","","26","","31","","24.1","","100.12","","","","-10","","NA"
"-52.75","47.62","ST. JOHN'S INTL A","8403505","2021-03-07 07:30","2021","03","07","07:30","-2.5","","-7.2","","70","","","","26","","24","","24.1","","100.16","","","","-9","","NA"
"-52.75","47.62","ST. JOHN'S INTL A","8403505","2021-03-07 08:30","2021","03","07","08:30","-1.9","","-6.9","","69","","","","26","","34","","24.1","","100.22","","","","-9","","Mostly Cloudy"
"-52.75","47.62","ST. JOHN'S INTL A","8403505","2021-03-07 09:30","2021","03","07","09:30","-1.4","","-6.5","","68","","","","25","","33","","24.1","","100.23","","","","-9","","NA"
"-52.75","47.62","ST. JOHN'S INTL A","8403505","2021-03-07 10:30","2021","03","07","10:30","-0.8","","-6.2","","67","","","","25","","27","","24.1","","100.23","","","","-7","","NA"
"-52.75","47.62","ST. JOHN'S INTL A","8403505","2021-03-07 11:30","2021","03","07","11:30","-0.6","","-6.0","","67","","","","26","","32","","24.1","","100.28","","","","-7","","Cloudy"
"-52.75","47.62","ST. JOHN'S INTL A","8403505","2021-03-07 12:30","2021","03","07","12:30","0.3","","-5.9","","63","","","","25","","35","","24.1","","100.19","","","","","","NA"
"-52.75","47.62","ST. JOHN'S INTL A","8403505","2021-03-07 13:30","2021","03","07","13:30","0.0","","-5.6","","66","","","","26","","29","","24.1","","100.21","","","","-6","","NA"
"-52.75","47.62","ST. JOHN'S INTL A","8403505","2021-03-07 14:30","2021","03","07","14:30","0.1","","-5.4","","67","","","","26","","28","","24.1","","100.16","","","","","","Mostly Cloudy"
"-52.75","47.62","ST. JOHN'S INTL A","8403505","2021-03-07 15:30","2021","03","07","15:30","-0.2","","-5.6","","67","","","","25","","32","","24.1","","100.19","","","","-7","","NA"
"-52.75","47.62","ST. JOHN'S INTL A","8403505","2021-03-07 16:30","2021","03","07","16:30","-0.7","","-4.9","","73","","","","27","","34","","24.1","","100.19","","","","-8","","NA"
"-52.75","47.62","ST. JOHN'S INTL A","8403505","2021-03-07 17:30","2021","03","07","17:30","-1.1","","-5.6","","72","","","","27","","28","","24.1","","100.22","","","","-8","","Mostly Cloudy"
"-52.75","47.62","ST. JOHN'S INTL A","8403505","2021-03-07 18:30","2021","03","07","18:30","-1.8","","-6.6","","70","","","","26","","30","","24.1","","100.26","","","","-9","","NA"
"-52.75","47.62","ST. JOHN'S INTL A","8403505","2021-03-07 19:30","2021","03","07","19:30","-2.9","","-7.4","","71","","","","26","","17","","24.1","","100.26","","","","-8","","NA"
"-52.75","47.62","ST. JOHN'S INTL A","8403505","2021-03-07 20:30","2021","03","07","20:30","-3.1","","-7.5","","72","","","","27","","19","","24.1","","100.30","","","","-9","","Mostly Cloudy"
"-52.75","47.62","ST. JOHN'S INTL A","8403505","2021-03-07 21:30","2021","03","07","21:30","-3.0","","-7.0","","74","","","","24","","16","","24.1","","100.30","","","","-8","","NA"
"-52.75","47.62","ST. JOHN'S INTL A","8403505","2021-03-07 22:30","2021","03","07","22:30","-2.5","","-6.5","","74","","","","26","","21","","24.1","","100.28","","","","-9","","NA"
"-52.75","47.62","ST. JOHN'S INTL A","8403505","2021-03-07 23:30","2021","03","07","23:30","-2.1","","-6.5","","72","","","","27","","19","","24.1","","100.27","","","","-8","","Cloudy"
"-52.75","47.62","ST. JOHN'S INTL A","8403505","2021-03-08 00:30","2021","03","08","00:30","-2.3","","-6.5","","73","","","","28","","16","","24.1","","100.25","","","","-7","","NA"
"-52.75","47.62","ST. JOHN'S INTL A","8403505","2021-03-08 01:30","2021","03","08","01:30","-4.0","","-6.9","","81","","","","32","","10","","24.1","","100.23","","","","-8","","NA"
"-52.75","47.62","ST. JOHN'S INTL A","8403505","2021-03-08 02:30","2021","03","08","02:30","-5.4","","-7.9","","83","","","","31","","8","","24.1","","100.20","","","","-9","","Mainly Clear"
"-52.75","47.62","ST. JOHN'S INTL A","8403505","2021-03-08 03:30","2021","03","08","03:30","-6.7","","-8.8","","86","","","","31","","9","","24.1","","100.16","","","","-11","","NA"
"-52.75","47.62","ST. JOHN'S INTL A","8403505","2021-03-08 04:30","2021","03","08","04:30","-7.1","","-9.6","","83","","","","29","","10","","24.1","","100.18","","","","-12","","NA"
"-52.75","47.62","ST. JOHN'S INTL A","8403505","2021-03-08 05:30","2021","03","08","05:30","-8.2","","-10.7","","82","","","","30","","14","","24.1","","100.20","","","","-14","","Mainly Clear"
"-52.75","47.62","ST. JOHN'S INTL A","8403505","2021-03-08 06:30","2021","03","08","06:30","-7.7","","-10.5","","81","","","","31","","14","","24.1","","100.23","","","","-14","","NA"
"-52.75","47.62","ST. JOHN'S INTL A","8403505","2021-03-08 07:30","2021","03","08","07:30","-7.4","","-10.1","","81","","","","30","","16","","24.1","","100.23","","","","-14","","NA"
"-52.75","47.62","ST. JOHN'S INTL A","8403505","2021-03-08 08:30","2021","03","08","08:30","-5.0","","-8.2","","78","","","","30","","18","","24.1","","100.31","","","","-11","","Mainly Clear"
"-52.75","47.62","ST. JOHN'S INTL A","8403505","2021-03-08 09:30","2021","03","08","09:30","-4.0","","-8.3","","72","","","","31","","16","","24.1","","100.30","","","","-10","","NA"
"-52.75","47.62","ST. JOHN'S INTL A","8403505","2021-03-08 10:30","2021","03","08","10:30","-2.5","","-8.4","","64","","","","33","","14","","24.1","","100.32","","","","-7","","NA"
"-52.75","47.62","ST. JOHN'S INTL A","8403505","2021-03-08 11:30","2021","03","08","11:30","-1.8","","-10.0","","54","","","","2","","8","","24.1","","100.24","","","","-5","","Mainly Clear"
"-52.75","47.62","ST. JOHN'S INTL A","8403505","2021-03-08 12:30","2021","03","08","12:30","-1.6","","-9.8","","54","","","","35","","16","","24.1","","100.16","","","","-7","","NA"
"-52.75","47.62","ST. JOHN'S INTL A","8403505","2021-03-08 13:30","2021","03","08","13:30","-1.9","","-10.0","","54","","","","30","","10","","24.1","","100.19","","","","-6","","NA"
"-52.75","47.62","ST. JOHN'S INTL A","8403505","2021-03-08 14:30","2021","03","08","14:30","-1.8","","-9.9","","54","","","","30","","9","","24.1","","100.21","","","","-5","","Mostly Cloudy"
"-52.75","47.62","ST. JOHN'S INTL A","8403505","2021-03-08 15:30","2021","03","08","15:30","-2.2","","-8.6","","62","","","","7","","13","","24.1","","100.06","","","","-7","","NA"
"-52.75","47.62","ST. JOHN'S INTL A","8403505","2021-03-08 16:30","2021","03","08","16:30","-2.5","","-8.5","","64","","","","5","","10","","24.1","","100.02","","","","-6","","NA"
"-52.75","47.62","ST. JOHN'S INTL A","8403505","2021-03-08 17:30","2021","03","08","17:30","-3.3","","-8.8","","66","","","","6","","11","","24.1","","100.06","","","","-8","","Mostly Cloudy"
"-52.75","47.62","ST. JOHN'S INTL A","8403505","2021-03-08 18:30","2021","03","08","18:30","-3.9","","-8.3","","71","","","","6","","7","","24.1","","100.06","","","","-7","","NA"
"-52.75","47.62","ST. JOHN'S INTL A","8403505","2021-03-08 19:30","2021","03","08","19:30","-4.1","","-8.7","","70","","","","9","","6","","24.1","","100.09","","","","-7","","NA"
"-52.75","47.62","ST. JOHN'S INTL A","8403505","2021-03-08 20:30","2021","03","08","20:30","-4.8","","-8.5","","75","","","","34","","3","","24.1","","100.01","","","","-6","","Mostly Cloudy"
"-52.75","47.62","ST. JOHN'S INTL A","8403505","2021-03-08 21:30","2021","03","08","21:30","-4.8","","-8.5","","76","","","","1","","4","","24.1","","99.95","","","","-7","","NA"
"-52.75","47.62","ST. JOHN'S INTL A","8403505","2021-03-08 22:30","2021","03","08","22:30","-5.2","","-8.8","","76","","","","36","","4","","24.1","","99.89","","","","-7","","NA"
"-52.75","47.62","ST. JOHN'S INTL A","8403505","2021-03-08 23:30","2021","03","08","23:30","-5.2","","-8.4","","78","","","","1","","12","","24.1","","99.72","","","","-10","","Cloudy"
"-52.75","47.62","ST. JOHN'S INTL A","8403505","2021-03-09 00:30","2021","03","09","00:30","-4.1","","-7.3","","78","","","","1","","13","","24.1","","99.66","","","","-9","","NA"
"-52.75","47.62","ST. JOHN'S INTL A","8403505","2021-03-09 01:30","2021","03","09","01:30","-3.5","","-6.4","","80","","","","2","","20","","24.1","","99.65","","","","-10","","NA"
"-52.75","47.62","ST. JOHN'S INTL A","8403505","2021-03-09 02:30","2021","03","09","02:30","-3.8","","-6.7","","80","","","","2","","25","","24.1","","99.50","","","","-11","","Cloudy"
"-52.75","47.62","ST. JOHN'S INTL A","8403505","2021-03-09 03:30","2021","03","09","03:30","-4.0","","-7.0","","79","","","","2","","23","","24.1","","99.49","","","","-11","","NA"
"-52.75","47.62","ST. JOHN'S INTL A","8403505","2021-03-09 04:30","2021","03","09","04:30","-4.1","","-6.6","","83","","","","2","","23","","24.1","","99.47","","","","-11","","NA"
"-52.75","47.62","ST. JOHN'S INTL A","8403505","2021-03-09 05:30","2021","03","09","05:30","-4.2","","-5.8","","88","","","","2","","23","","24.1","","99.48","","","","-11","","Cloudy"
"-52.75","47.62","ST. JOHN'S INTL A","8403505","2021-03-09 06:30","2021","03","09","06:30","-4.3","","-5.6","","91","","","","36","","27","","24.1","","99.48","","","","-12","","NA"
"-52.75","47.62","ST. JOHN'S INTL A","8403505","2021-03-09 07:30","2021","03","09","07:30","-4.2","","-5.5","","91","","","","1","","19","","24.1","","99.55","","","","-10","","NA"
"-52.75","47.62","ST. JOHN'S INTL A","8403505","2021-03-09 08:30","2021","03","09","08:30","-4.3","","-6.0","","88","","","","36","","22","","24.1","","99.62","","","","-11","","Cloudy"
"-52.75","47.62","ST. JOHN'S INTL A","8403505","2021-03-09 09:30","2021","03","09","09:30","-4.0","","-6.3","","84","","","","35","","28","","24.1","","99.64","","","","-11","","NA"
"-52.75","47.62","ST. JOHN'S INTL A","8403505","2021-03-09 10:30","2021","03","09","10:30","-3.6","","-6.5","","80","","","","34","","34","","22.5","","99.71","","","","-12","","NA"
"-52.75","47.62","ST. JOHN'S INTL A","8403505","2021-03-09 11:30","2021","03","09","11:30","-3.2","","-6.5","","78","","","","35","","27","","24.1","","99.77","","","","-10","","Cloudy"
"-52.75","47.62","ST. JOHN'S INTL A","8403505","2021-03-09 12:30","2021","03","09","12:30","-2.7","","-6.9","","73","","","","33","","32","","24.1","","99.81","","","","-10","","NA"
"-52.75","47.62","ST. JOHN'S INTL A","8403505","2021-03-09 13:30","2021","03","09","13:30","-2.8","","-6.8","","74","","","","32","","35","","24.1","","99.83","","","","-11","","NA"
"-52.75","47.62","ST. JOHN'S INTL A","8403505","2021-03-09 14:30","2021","03","09","14:30","-2.2","","-6.8","","71","","","","32","","28","","24.1","","99.86","","","","-9","","Cloudy"
"-52.75","47.62","ST. JOHN'S INTL A","8403505","2021-03-09 15:30","2021","03","09","15:30","-2.0","","-6.9","","69","","","","31","","22","","24.1","","99.91","","","","-8","","NA"
"-52.75","47.62","ST. JOHN'S INTL A","8403505","2021-03-09 16:30","2021","03","09","16:30","-2.3","","-6.5","","73","","","","30","","30","","24.1","","99.97","","","","-9","","NA"
"-52.75","47.62","ST. JOHN'S INTL A","8403505","2021-03-09 17:30","2021","03","09","17:30","-3.2","","-7.5","","72","","","","30","","30","","24.1","","100.05","","","","-11","","Cloudy"
"-52.75","47.62","ST. JOHN'S INTL A","8403505","2021-03-09 18:30","2021","03","09","18:30","-4.0","","-8.4","","72","","","","30","","23","","24.1","","100.15","","","","-11","","NA"
"-52.75","47.62","ST. JOHN'S INTL A","8403505","2021-03-09 19:30","2021","03","09","19:30","-5.2","","-8.5","","77","","","","29","","16","","24.1","","100.20","","","","-11","","NA"
"-52.75","47.62","ST. JOHN'S INTL A","8403505","2021-03-09 20:30","2021","03","09","20:30","-4.5","","-7.9","","77","","","","28","","21","","24.1","","100.24","","","","-11","","Mainly Clear"
"-52.75","47.62","ST. JOHN'S INTL A","8403505","2021-03-09 21:30","2021","03","09","21:30","-4.5","","-7.1","","82","","","","28","","27","","24.1","","100.27","","","","-12","","NA"
"-52.75","47.62","ST. JOHN'S INTL A","8403505","2021-03-09 22:30","2021","03","09","22:30","-3.9","","-6.0","","85","","","","29","","31","","24.1","","100.32","","","","-12","","NA"
"-52.75","47.62","ST. JOHN'S INTL A","8403505","2021-03-09 23:30","2021","03","09","23:30","-4.1","","-6.1","","86","","","","29","","26","","24.1","","100.37","","","","-11","","Mainly Clear"
"-52.75","47.62","ST. JOHN'S INTL A","8403505","2021-03-10 00:30","2021","03","10","00:30","-4.6","","-6.5","","86","","","","29","","20","","24.1","","100.42","","","","-11","","NA"
"-52.75","47.62","ST. JOHN'S INTL A","8403505","2021-03-10 01:30","2021","03","10","01:30","-4.7","","-6.8","","85","","","","29","","26","","24.1","","100.47","","","","-12","","NA"
"-52.75","47.62","ST. JOHN'S INTL A","8403505","2021-03-10 02:30","2021","03","10","02:30","-4.6","","-6.8","","85","","","","28","","19","","24.1","","100.49","","","","-11","","Mainly Clear"
"-52.75","47.62","ST. JOHN'S INTL A","8403505","2021-03-10 03:30","2021","03","10","03:30","-5.0","","-7.3","","84","","","","29","","22","","24.1","","100.52","","","","-12","","NA"
"-52.75","47.62","ST. JOHN'S INTL A","8403505","2021-03-10 04:30","2021","03","10","04:30","-5.2","","-6.9","","88","","","","30","","28","","24.1","","100.58","","","","-13","","NA"
"-52.75","47.62","ST. JOHN'S INTL A","8403505","2021-03-10 05:30","2021","03","10","05:30","-4.6","","-6.8","","85","","","","30","","35","","24.1","","100.61","","","","-13","","Mostly Cloudy"
"-52.75","47.62","ST. JOHN'S INTL A","8403505","2021-03-10 06:30","2021","03","10","06:30","-4.7","","-6.9","","85","","","","30","","28","","24.1","","100.73","","","","-12","","NA"
"-52.75","47.62","ST. JOHN'S INTL A","8403505","2021-03-10 07:30","2021","03","10","07:30","-4.6","","-6.8","","85","","","","29","","17","","24.1","","100.80","","","","-10","","NA"
"-52.75","47.62","ST. JOHN'S INTL A","8403505","2021-03-10 08:30","2021","03","10","08:30","-4.0","","-6.8","","81","","","","31","","22","","24.1","","100.85","","","","-11","","Mostly Cloudy"
"-52.75","47.62","ST. JOHN'S INTL A","8403505","2021-03-10 09:30","2021","03","10","09:30","-2.9","","-6.1","","79","","","","29","","35","","24.1","","100.89","","","","-11","","NA"
"-52.75","47.62","ST. JOHN'S INTL A","8403505","2021-03-10 10:30","2021","03","10","10:30","-1.7","","-5.7","","74","","","","30","","32","","24.1","","100.91","","","","-9","","NA"
"-52.75","47.62","ST. JOHN'S INTL A","8403505","2021-03-10 11:30","2021","03","10","11:30","-1.1","","-5.5","","72","","","","30","","35","","24.1","","100.91","","","","-8","","Mainly Clear"
"-52.75","47.62","ST. JOHN'S INTL A","8403505","2021-03-10 12:30","2021","03","10","12:30","-0.3","","-5.5","","68","","","","29","","29","","24.1","","100.90","","","","-7","","NA"
"-52.75","47.62","ST. JOHN'S INTL A","8403505","2021-03-10 13:30","2021","03","10","13:30","0.6","","-5.7","","63","","","","29","","28","","24.1","","100.87","","","","","","NA"
"-52.75","47.62","ST. JOHN'S INTL A","8403505","2021-03-10 14:30","2021","03","10","14:30","1.0","","-6.4","","58","","","","28","","27","","24.1","","100.86","","","","","","Mainly Clear"
"-52.75","47.62","ST. JOHN'S INTL A","8403505","2021-03-10 15:30","2021","03","10","15:30","0.9","","-5.2","","64","","","","28","","26","","24.1","","100.89","","","","","","NA"
"-52.75","47.62","ST. JOHN'S INTL A","8403505","2021-03-10 16:30","2021","03","10","16:30","0.6","","-5.3","","64","","","","28","","24","","24.1","","100.91","","","","","","NA"
"-52.75","47.62","ST. JOHN'S INTL A","8403505","2021-03-10 17:30","2021","03","10","17:30","-0.4","","-5.0","","72","","","","28","","22","","24.1","","100.94","","","","-6","","Mainly Clear"
"-52.75","47.62","ST. JOHN'S INTL A","8403505","2021-03-10 18:30","2021","03","10","18:30","-1.2","","-5.0","","76","","","","28","","19","","24.1","","100.98","","","","-7","","NA"
"-52.75","47.62","ST. JOHN'S INTL A","8403505","2021-03-10 19:30","2021","03","10","19:30","-1.6","","-5.3","","76","","","","29","","32","","24.1","","101.00","","","","-9","","NA"
"-52.75","47.62","ST. JOHN'S INTL A","8403505","2021-03-10 20:30","2021","03","10","20:30","-2.3","","-5.3","","80","","","","28","","25","","24.1","","100.99","","","","-9","","Clear"
"-52.75","47.62","ST. JOHN'S INTL A","8403505","2021-03-10 21:30","2021","03","10","21:30","-2.5","","-5.2","","81","","","","28","","33","","24.1","","100.95","","","","-10","","NA"
"-52.75","47.62","ST. JOHN'S INTL A","8403505","2021-03-10 22:30","2021","03","10","22:30","-3.3","","-5.3","","86","","","","29","","22","","24.1","","100.97","","","","-10","","NA"
"-52.75","47.62","ST. JOHN'S INTL A","8403505","2021-03-10 23:30","2021","03","10","23:30","-3.0","","-5.4","","83","","","","28","","23","","24.1","","100.94","","","","-9","","Clear"
"-52.75","47.62","ST. JOHN'S INTL A","8403505","2021-03-11 00:30","2021","03","11","00:30","-4.0","","-5.9","","87","","","","25","","9","","24.1","","100.94","","","","-8","","NA"
"-52.75","47.62","ST. JOHN'S INTL A","8403505","2021-03-11 01:30","2021","03","11","01:30","-3.6","","-5.0","","90","","","","26","","22","","24.1","","100.88","","","","-10","","NA"
"-52.75","47.62","ST. JOHN'S INTL A","8403505","2021-03-11 02:30","2021","03","11","02:30","-3.5","","-4.5","","93","","","","27","","36","","24.1","","100.82","","","","-12","","Mainly Clear"
"-52.75","47.62","ST. JOHN'S INTL A","8403505","2021-03-11 03:30","2021","03","11","03:30","-3.6","","-4.6","","93","","","","28","","36","","24.1","","100.75","","","","-12","","NA"
"-52.75","47.62","ST. JOHN'S INTL A","8403505","2021-03-11 04:30","2021","03","11","04:30","-3.4","","-4.6","","91","","","","27","","35","","24.1","","100.79","","","","-11","","NA"
"-52.75","47.62","ST. JOHN'S INTL A","8403505","2021-03-11 05:30","2021","03","11","05:30","-3.3","","-4.5","","91","","","","28","","34","","24.1","","100.75","","","","-11","","Mainly Clear"
"-52.75","47.62","ST. JOHN'S INTL A","8403505","2021-03-11 06:30","2021","03","11","06:30","-2.7","","-4.8","","86","","","","26","","29","","24.1","","100.74","","","","-10","","NA"
"-52.75","47.62","ST. JOHN'S INTL A","8403505","2021-03-11 07:30","2021","03","11","07:30","-2.0","","-4.5","","83","","","","27","","39","","24.1","","100.72","","","","-10","","NA"
"-52.75","47.62","ST. JOHN'S INTL A","8403505","2021-03-11 08:30","2021","03","11","08:30","-0.6","","-4.3","","76","","","","27","","42","","24.1","","100.66","","","","-8","","Mostly Cloudy"
"-52.75","47.62","ST. JOHN'S INTL A","8403505","2021-03-11 09:30","2021","03","11","09:30","0.8","","-4.7","","67","","","","27","","51","","24.1","","100.64","","","","","","NA"
"-52.75","47.62","ST. JOHN'S INTL A","8403505","2021-03-11 10:30","2021","03","11","10:30","1.6","","-4.4","","64","","","","26","","45","","24.1","","100.57","","","","","","NA"
"-52.75","47.62","ST. JOHN'S INTL A","8403505","2021-03-11 11:30","2021","03","11","11:30","2.1","","-6.0","","55","","","","27","","58","","24.1","","100.50","","","","","","Mostly Cloudy"
"-52.75","47.62","ST. JOHN'S INTL A","8403505","2021-03-11 12:30","2021","03","11","12:30","2.4","","-6.0","","54","","","","27","","52","","24.1","","100.39","","","","","","NA"
"-52.75","47.62","ST. JOHN'S INTL A","8403505","2021-03-11 13:30","2021","03","11","13:30","2.4","","-5.4","","56","","","","27","","45","","24.1","","100.29","","","","","","NA"
"-52.75","47.62","ST. JOHN'S INTL A","8403505","2021-03-11 14:30","2021","03","11","14:30","2.1","","-3.4","","67","","","","27","","44","","24.1","","100.29","","","","","","Cloudy"
"-52.75","47.62","ST. JOHN'S INTL A","8403505","2021-03-11 15:30","2021","03","11","15:30","1.5","","-3.0","","72","","","","26","","38","","24.1","","100.31","","","","","","NA"
"-52.75","47.62","ST. JOHN'S INTL A","8403505","2021-03-11 16:30","2021","03","11","16:30","1.2","","-2.8","","75","","","","26","","40","","24.1","","100.34","","","","","","NA"
"-52.75","47.62","ST. JOHN'S INTL A","8403505","2021-03-11 17:30","2021","03","11","17:30","0.6","","-2.1","","83","","","","27","","39","","24.1","","100.34","","","","","","Cloudy"
"-52.75","47.62","ST. JOHN'S INTL A","8403505","2021-03-11 18:30","2021","03","11","18:30","0.2","","-1.6","","87","","","","27","","41","","24.1","","100.34","","","","","","NA"
"-52.75","47.62","ST. JOHN'S INTL A","8403505","2021-03-11 19:30","2021","03","11","19:30","0.2","","-1.6","","88","","","","28","","39","","24.1","","100.32","","","","","","NA"
"-52.75","47.62","ST. JOHN'S INTL A","8403505","2021-03-11 20:30","2021","03","11","20:30","-0.1","","-1.2","","92","","","","29","","39","","24.1","","100.29","","","","-7","","Cloudy"
"-52.75","47.62","ST. JOHN'S INTL A","8403505","2021-03-11 21:30","2021","03","11","21:30","-0.1","","-1.0","","93","","","","28","","35","","24.1","","100.25","","","","-7","","NA"
"-52.75","47.62","ST. JOHN'S INTL A","8403505","2021-03-11 22:30","2021","03","11","22:30","0.0","","-0.9","","94","","","","28","","34","","24.1","","100.21","","","","-7","","NA"
"-52.75","47.62","ST. JOHN'S INTL A","8403505","2021-03-11 23:30","2021","03","11","23:30","0.0","","-0.8","","94","","","","28","","24","","24.1","","100.23","","","","-6","","Cloudy"
"-52.75","47.62","ST. JOHN'S INTL A","8403505","2021-03-12 00:30","2021","03","12","00:30","0.1","","-0.6","","95","","","","26","","25","","24.1","","100.18","","","","","","NA"
"-52.75","47.62","ST. JOHN'S INTL A","8403505","2021-03-12 01:30","2021","03","12","01:30","0.2","","-0.5","","95","","","","24","","17","","24.1","","100.12","","","","","","NA"
"-52.75","47.62","ST. JOHN'S INTL A","8403505","2021-03-12 02:30","2021","03","12","02:30","0.5","","-0.3","","95","","","","26","","22","","24.1","","100.03","","","","","","Cloudy"
"-52.75","47.62","ST. JOHN'S INTL A","8403505","2021-03-12 03:30","2021","03","12","03:30","0.7","","-0.1","","94","","","","24","","17","","24.1","","99.91","","","","","","NA"
"-52.75","47.62","ST. JOHN'S INTL A","8403505","2021-03-12 04:30","2021","03","12","04:30","1.0","","0.0","","93","","","","23","","12","","24.1","","99.81","","","","","","NA"
"-52.75","47.62","ST. JOHN'S INTL A","8403505","2021-03-12 05:30","2021","03","12","05:30","1.3","","0.5","","94","","","","26","","31","","24.1","","99.71","","","","","","Cloudy"
"-52.75","47.62","ST. JOHN'S INTL A","8403505","2021-03-12 06:30","2021","03","12","06:30","2.2","","1.3","","94","","","","24","","28","","24.1","","99.59","","","","","","NA"
"-52.75","47.62","ST. JOHN'S INTL A","8403505","2021-03-12 07:30","2021","03","12","07:30","2.8","","2.4","","97","","","","25","","36","","9.7","","99.50","","","","","","Fog"
"-52.75","47.62","ST. JOHN'S INTL A","8403505","2021-03-12 08:30","2021","03","12","08:30","3.5","","2.9","","96","","","","24","","36","","24.1","","99.38","","","","","","Cloudy"
"-52.75","47.62","ST. JOHN'S INTL A","8403505","2021-03-12 09:30","2021","03","12","09:30","5.2","","3.3","","88","","","","26","","43","","24.1","","99.34","","","","","","NA"
"-52.75","47.62","ST. JOHN'S INTL A","8403505","2021-03-12 10:30","2021","03","12","10:30","7.1","","2.3","","72","","","","26","","42","","24.1","","99.25","","","","","","NA"
"-52.75","47.62","ST. JOHN'S INTL A","8403505","2021-03-12 11:30","2021","03","12","11:30","7.0","","2.1","","71","","","","25","","39","","24.1","","99.14","","","","","","Mostly Cloudy"
"-52.75","47.62","ST. JOHN'S INTL A","8403505","2021-03-12 12:30","2021","03","12","12:30","6.7","","2.5","","75","","","","25","","43","","24.1","","98.97","","","","","","NA"
"-52.75","47.62","ST. JOHN'S INTL A","8403505","2021-03-12 13:30","2021","03","12","13:30","7.3","","4.4","","82","","","","26","","48","","24.1","","98.82","","","","","","NA"
"-52.75","47.62","ST. JOHN'S INTL A","8403505","2021-03-12 14:30","2021","03","12","14:30","6.6","","5.7","","94","","","","25","","53","","19.3","","98.65","","","","","","Cloudy"
"-52.75","47.62","ST. JOHN'S INTL A","8403505","2021-03-12 15:30","2021","03","12","15:30","6.9","","5.8","","93","","","","24","","45","","24.1","","98.50","","","","","","NA"
"-52.75","47.62","ST. JOHN'S INTL A","8403505","2021-03-12 16:30","2021","03","12","16:30","6.7","","6.0","","95","","","","25","","51","","19.3","","98.34","","","","","","NA"
"-52.75","47.62","ST. JOHN'S INTL A","8403505","2021-03-12 17:30","2021","03","12","17:30","6.4","","6.0","","97","","","","25","","58","","8.1","","98.21","","","","","","Drizzle,Fog"
"-52.75","47.62","ST. JOHN'S INTL A","8403505","2021-03-12 18:30","2021","03","12","18:30","5.4","","5.0","","97","","","","26","","57","","24.1","","98.18","","","","","","NA"
"-52.75","47.62","ST. JOHN'S INTL A","8403505","2021-03-12 19:30","2021","03","12","19:30","4.6","","4.2","","98","","","","25","","58","","19.3","","98.18","","","","","","NA"
"-52.75","47.62","ST. JOHN'S INTL A","8403505","2021-03-12 20:30","2021","03","12","20:30","4.0","","3.8","","98","","","","26","","44","","12.9","","98.13","","","","","","Cloudy"
"-52.75","47.62","ST. JOHN'S INTL A","8403505","2021-03-12 21:30","2021","03","12","21:30","3.4","","3.1","","98","","","","26","","48","","8.1","","98.10","","","","","","Drizzle,Fog"
"-52.75","47.62","ST. JOHN'S INTL A","8403505","2021-03-12 22:30","2021","03","12","22:30","2.7","","2.0","","95","","","","26","","45","","24.1","","98.12","","","","","","NA"
"-52.75","47.62","ST. JOHN'S INTL A","8403505","2021-03-12 23:30","2021","03","12","23:30","2.0","","0.9","","93","","","","27","","43","","24.1","","98.12","","","","","","Mainly Clear"
"-52.75","47.62","ST. JOHN'S INTL A","8403505","2021-03-13 00:30","2021","03","13","00:30","1.9","","0.0","","87","","","","26","","41","","24.1","","98.09","","","","","","NA"
"-52.75","47.62","ST. JOHN'S INTL A","8403505","2021-03-13 01:30","2021","03","13","01:30","1.6","","-1.0","","83","","","","26","","40","","24.1","","98.16","","","","","","NA"
"-52.75","47.62","ST. JOHN'S INTL A","8403505","2021-03-13 02:30","2021","03","13","02:30","1.2","","-2.1","","78","","","","27","","36","","24.1","","98.16","","","","","","Clear"
"-52.75","47.62","ST. JOHN'S INTL A","8403505","2021-03-13 03:30","2021","03","13","03:30","0.8","","-2.8","","76","","","","27","","32","","24.1","","98.15","","","","","","NA"
"-52.75","47.62","ST. JOHN'S INTL A","8403505","2021-03-13 04:30","2021","03","13","04:30","0.2","","-3.4","","76","","","","25","","19","","24.1","","98.20","","","","","","NA"
"-52.75","47.62","ST. JOHN'S INTL A","8403505","2021-03-13 05:30","2021","03","13","05:30","-0.2","","-3.9","","76","","","","23","","16","","24.1","","98.21","","","","-5","","Clear"
"-52.75","47.62","ST. JOHN'S INTL A","8403505","2021-03-13 06:30","2021","03","13","06:30","-2.1","","-4.3","","85","","","","21","","14","","24.1","","98.22","","","","-7","","NA"
"-52.75","47.62","ST. JOHN'S INTL A","8403505","2021-03-13 07:30","2021","03","13","07:30","-1.2","","-4.6","","78","","","","18","","12","","24.1","","98.16","","","","-5","","NA"
"-52.75","47.62","ST. JOHN'S INTL A","8403505","2021-03-13 08:30","2021","03","13","08:30","1.3","","-3.3","","71","","","","20","","24","","24.1","","98.12","","","","","","Mainly Clear"
"-52.75","47.62","ST. JOHN'S INTL A","8403505","2021-03-13 09:30","2021","03","13","09:30","3.9","","-4.2","","55","","","","20","","28","","24.1","","98.05","","","","","","NA"
"-52.75","47.62","ST. JOHN'S INTL A","8403505","2021-03-13 10:30","2021","03","13","10:30","4.8","","-2.3","","60","","","","20","","36","","24.1","","97.98","","","","","","NA"
"-52.75","47.62","ST. JOHN'S INTL A","8403505","2021-03-13 11:30","2021","03","13","11:30","5.9","","-1.0","","61","","","","20","","25","","24.1","","97.92","","","","","","Mainly Clear"
"-52.75","47.62","ST. JOHN'S INTL A","8403505","2021-03-13 12:30","2021","03","13","12:30","6.4","","-2.8","","52","","","","25","","25","","24.1","","97.84","","","","","","NA"
"-52.75","47.62","ST. JOHN'S INTL A","8403505","2021-03-13 13:30","2021","03","13","13:30","6.2","","-5.1","","44","","","","28","","30","","24.1","","97.76","","","","","","NA"
"-52.75","47.62","ST. JOHN'S INTL A","8403505","2021-03-13 14:30","2021","03","13","14:30","6.4","","-5.2","","43","","","","27","","27","","24.1","","97.67","","","","","","Mainly Clear"
"-52.75","47.62","ST. JOHN'S INTL A","8403505","2021-03-13 15:30","2021","03","13","15:30","6.0","","-5.4","","44","","","","28","","23","","24.1","","97.59","","","","","","NA"
"-52.75","47.62","ST. JOHN'S INTL A","8403505","2021-03-13 16:30","2021","03","13","16:30","5.9","","-6.0","","42","","","","28","","19","","24.1","","97.49","","","","","","NA"
"-52.75","47.62","ST. JOHN'S INTL A","8403505","2021-03-13 17:30","2021","03","13","17:30","4.6","","-5.7","","47","","","","26","","10","","24.1","","97.44","","","","","","Mostly Cloudy"
"-52.75","47.62","ST. JOHN'S INTL A","8403505","2021-03-13 18:30","2021","03","13","18:30","2.0","","-4.2","","63","","","","29","","13","","24.1","","97.46","","","","","","NA"
"-52.75","47.62","ST. JOHN'S INTL A","8403505","2021-03-13 19:30","2021","03","13","19:30","1.0","","-3.3","","73","","","","29","","17","","24.1","","97.39","","","","","","NA"
"-52.75","47.62","ST. JOHN'S INTL A","8403505","2021-03-13 20:30","2021","03","13","20:30","0.1","","-2.7","","81","","","","30","","21","","24.1","","97.36","","","","","","Cloudy"
"-52.75","47.62","ST. JOHN'S INTL A","8403505","2021-03-13 21:30","2021","03","13","21:30","-0.7","","-1.5","","94","","","","28","","32","","2.0","","97.31","","","","-8","","Snow Showers"
"-52.75","47.62","ST. JOHN'S INTL A","8403505","2021-03-13 22:30","2021","03","13","22:30","-1.3","","-2.1","","94","","","","30","","31","","9.7","","97.30","","","","-8","","Snow Showers"
"-52.75","47.62","ST. JOHN'S INTL A","8403505","2021-03-13 23:30","2021","03","13","23:30","-2.6","","-4.9","","84","","","","29","","36","","24.1","","97.26","","","","-10","","Snow Showers"
"-52.75","47.62","ST. JOHN'S INTL A","8403505","2021-03-14 00:30","2021","03","14","00:30","-3.2","","-5.6","","84","","","","29","","34","","24.1","","97.24","","","","-11","","NA"
"-52.75","47.62","ST. JOHN'S INTL A","8403505","2021-03-14 01:30","2021","03","14","01:30","-3.9","","-7.0","","79","","","","29","","28","","24.1","","97.27","","","","-11","","NA"
"-52.75","47.62","ST. JOHN'S INTL A","8403505","2021-03-14 02:30","2021","03","14","02:30","-4.3","","-7.4","","79","","","","28","","23","","24.1","","97.23","","","","-11","","Mainly Clear"
"-52.75","47.62","ST. JOHN'S INTL A","8403505","2021-03-14 03:30","2021","03","14","03:30","-3.9","","-6.7","","81","","","","27","","36","","24.1","","97.19","","","","-12","","NA"
"-52.75","47.62","ST. JOHN'S INTL A","8403505","2021-03-14 04:30","2021","03","14","04:30","-3.9","","-5.3","","90","","","","29","","32","","1.2","","97.22","","","","-12","","Snow Showers"
"-52.75","47.62","ST. JOHN'S INTL A","8403505","2021-03-14 05:30","2021","03","14","05:30","-3.7","","-4.5","","94","","","","30","","27","","0.8","","97.29","","","","-11","","Moderate Snow Showers,Blowing Snow"
"-52.75","47.62","ST. JOHN'S INTL A","8403505","2021-03-14 06:30","2021","03","14","06:30","-3.4","","-4.3","","93","","","","32","","26","","1.2","","97.36","","","","-10","","Snow Showers,Blowing Snow"
"-52.75","47.62","ST. JOHN'S INTL A","8403505","2021-03-14 07:30","2021","03","14","07:30","-3.5","","-4.9","","90","","","","30","","31","","12.9","","97.47","","","","-11","","Snow Showers"
"-52.75","47.62","ST. JOHN'S INTL A","8403505","2021-03-14 08:30","2021","03","14","08:30","-3.4","","-4.7","","91","","","","30","","32","","1.6","","97.57","","","","-11","","Snow Showers"
"-52.75","47.62","ST. JOHN'S INTL A","8403505","2021-03-14 09:30","2021","03","14","09:30","-2.6","","-4.8","","85","","","","30","","38","","24.1","","97.59","","","","-11","","NA"
"-52.75","47.62","ST. JOHN'S INTL A","8403505","2021-03-14 10:30","2021","03","14","10:30","-2.3","","-5.9","","76","","","","31","","41","","24.1","","97.65","","","","-11","","NA"
"-52.75","47.62","ST. JOHN'S INTL A","8403505","2021-03-14 11:30","2021","03","14","11:30","-2.3","","-6.1","","76","","","","31","","31","","24.1","","97.72","","","","-10","","Mostly Cloudy"
"-52.75","47.62","ST. JOHN'S INTL A","8403505","2021-03-14 12:30","2021","03","14","12:30","-2.0","","-6.1","","74","","","","31","","24","","24.1","","97.78","","","","-8","","NA"
"-52.75","47.62","ST. JOHN'S INTL A","8403505","2021-03-14 13:30","2021","03","14","13:30","-1.4","","-7.2","","65","","","","31","","31","","24.1","","97.77","","","","-8","","NA"
"-52.75","47.62","ST. JOHN'S INTL A","8403505","2021-03-14 14:30","2021","03","14","14:30","-0.7","","-6.7","","64","","","","31","","26","","24.1","","97.78","","","","-7","","Mostly Cloudy"
"-52.75","47.62","ST. JOHN'S INTL A","8403505","2021-03-14 15:30","2021","03","14","15:30","-1.4","","-7.0","","66","","","","29","","21","","24.1","","97.83","","","","-7","","NA"
"-52.75","47.62","ST. JOHN'S INTL A","8403505","2021-03-14 16:30","2021","03","14","16:30","-1.6","","-7.3","","65","","","","31","","16","","24.1","","97.87","","","","-7","","NA"
"-52.75","47.62","ST. JOHN'S INTL A","8403505","2021-03-14 17:30","2021","03","14","17:30","-1.9","","-6.9","","69","","","","31","","10","","24.1","","97.90","","","","-6","","Cloudy"
"-52.75","47.62","ST. JOHN'S INTL A","8403505","2021-03-14 18:30","2021","03","14","18:30","-2.4","","-6.5","","74","","","","35","","7","","24.1","","97.92","","","","-5","","NA"
"-52.75","47.62","ST. JOHN'S INTL A","8403505","2021-03-14 19:30","2021","03","14","19:30","-3.2","","-4.7","","89","","","","30","","6","","4.8","","97.99","","","","-6","","Snow"
"-52.75","47.62","ST. JOHN'S INTL A","8403505","2021-03-14 20:30","2021","03","14","20:30","-3.5","","-4.4","","93","","","","36","","2","","9.7","","98.03","","","","-4","","Snow"
"-52.75","47.62","ST. JOHN'S INTL A","8403505","2021-03-14 21:30","2021","03","14","21:30","-3.4","","-4.6","","92","","","","25","","9","","6.4","","98.06","","","","-7","","Snow"
"-52.75","47.62","ST. JOHN'S INTL A","8403505","2021-03-14 22:30","2021","03","14","22:30","-3.6","","-4.6","","93","","","","24","","6","","1.6","","98.04","","","","-6","","Snow Showers,Fog"
"-52.75","47.62","ST. JOHN'S INTL A","8403505","2021-03-14 23:30","2021","03","14","23:30","-4.0","","-5.2","","92","","","","26","","10","","8.1","","97.99","","","","-8","","Snow Showers"
"-52.75","47.62","ST. JOHN'S INTL A","8403505","2021-03-15 00:30","2021","03","15","00:30","-4.5","","-5.6","","92","","","","26","","16","","8.1","","97.94","","","","-10","","Snow Showers"
"-52.75","47.62","ST. JOHN'S INTL A","8403505","2021-03-15 01:30","2021","03","15","01:30","-5.1","","-6.3","","91","","","","27","","17","","19.3","","97.91","","","","-11","","Snow Showers"
"-52.75","47.62","ST. JOHN'S INTL A","8403505","2021-03-15 02:30","2021","03","15","02:30","-6.3","","-7.5","","92","","","","26","","18","","24.1","","97.87","","","","-13","","Snow Showers"
"-52.75","47.62","ST. JOHN'S INTL A","8403505","2021-03-15 03:30","2021","03","15","03:30","-7.3","","-8.4","","92","","","","27","","17","","24.1","","97.85","","","","-14","","NA"
"-52.75","47.62","ST. JOHN'S INTL A","8403505","2021-03-15 04:30","2021","03","15","04:30","-6.7","","-7.9","","91","","","","26","","18","","24.1","","97.83","","","","-13","","NA"
"-52.75","47.62","ST. JOHN'S INTL A","8403505","2021-03-15 05:30","2021","03","15","05:30","-6.6","","-7.8","","92","","","","27","","22","","24.1","","97.87","","","","-14","","Mainly Clear"
"-52.75","47.62","ST. JOHN'S INTL A","8403505","2021-03-15 06:30","2021","03","15","06:30","-7.1","","-8.3","","91","","","","26","","19","","24.1","","97.94","","","","-14","","NA"
"-52.75","47.62","ST. JOHN'S INTL A","8403505","2021-03-15 07:30","2021","03","15","07:30","-5.4","","-7.4","","86","","","","27","","19","","24.1","","97.98","","","","-12","","NA"
"-52.75","47.62","ST. JOHN'S INTL A","8403505","2021-03-15 08:30","2021","03","15","08:30","-4.9","","-7.6","","82","","","","27","","26","","24.1","","98.01","","","","-12","","Mostly Cloudy"
"-52.75","47.62","ST. JOHN'S INTL A","8403505","2021-03-15 09:30","2021","03","15","09:30","-3.8","","-7.8","","74","","","","26","","24","","22.5","","98.02","","","","-11","","NA"
"-52.75","47.62","ST. JOHN'S INTL A","8403505","2021-03-15 10:30","2021","03","15","10:30","-3.4","","-9.2","","64","","","","29","","28","","24.1","","98.01","","","","-11","","NA"
"-52.75","47.62","ST. JOHN'S INTL A","8403505","2021-03-15 11:30","2021","03","15","11:30","-2.8","","-9.4","","61","","","","30","","19","","24.1","","97.97","","","","-9","","Mainly Clear"
"-52.75","47.62","ST. JOHN'S INTL A","8403505","2021-03-15 12:30","2021","03","15","12:30","-3.0","","-9.4","","61","","","","32","","13","","24.1","","97.95","","","","-8","","NA"
"-52.75","47.62","ST. JOHN'S INTL A","8403505","2021-03-15 13:30","2021","03","15","13:30","-2.6","","-9.8","","58","","","","34","","10","","24.1","","97.91","","","","-6","","NA"
"-52.75","47.62","ST. JOHN'S INTL A","8403505","2021-03-15 14:30","2021","03","15","14:30","-4.1","","-6.9","","81","","","","19","","5","","1.6","","97.93","","","","-6","","Snow Showers"
"-52.75","47.62","ST. JOHN'S INTL A","8403505","2021-03-15 15:30","2021","03","15","15:30","-4.3","","-6.3","","86","","","","8","","8","","1.6","","97.95","","","","-8","","Snow Showers"
"-52.75","47.62","ST. JOHN'S INTL A","8403505","2021-03-15 16:30","2021","03","15","16:30","-4.6","","-7.1","","83","","","","9","","7","","19.3","","97.93","","","","-8","","Snow Showers"
"-52.75","47.62","ST. JOHN'S INTL A","8403505","2021-03-15 17:30","2021","03","15","17:30","-4.7","","-7.5","","81","","","","36","","1","","24.1","","97.97","","","","-5","","Snow Showers"
"-52.75","47.62","ST. JOHN'S INTL A","8403505","2021-03-15 18:30","2021","03","15","18:30","-4.7","","-8.1","","77","","","","36","","2","","24.1","","98.02","","","","-6","","NA"
"-52.75","47.62","ST. JOHN'S INTL A","8403505","2021-03-15 19:30","2021","03","15","19:30","-4.6","","-8.4","","75","","","","36","","2","","24.1","","98.04","","","","-5","","NA"
"-52.75","47.62","ST. JOHN'S INTL A","8403505","2021-03-15 20:30","2021","03","15","20:30","-6.3","","-7.9","","88","","","","30","","8","","24.1","","98.04","","","","-10","","Mostly Cloudy"
"-52.75","47.62","ST. JOHN'S INTL A","8403505","2021-03-15 21:30","2021","03","15","21:30","-6.2","","-8.1","","87","","","","34","","8","","24.1","","98.06","","","","-10","","NA"
"-52.75","47.62","ST. JOHN'S INTL A","8403505","2021-03-15 22:30","2021","03","15","22:30","-8.2","","-9.3","","92","","","","32","","13","","24.1","","98.02","","","","-14","","NA"
"-52.75","47.62","ST. JOHN'S INTL A","8403505","2021-03-15 23:30","2021","03","15","23:30","-8.6","","-9.5","","93","","","","34","","13","","24.1","","98.01","","","","-15","","Mostly Cloudy"
"-52.75","47.62","ST. JOHN'S INTL A","8403505","2021-03-16 00:30","2021","03","16","00:30","-6.3","","-7.5","","91","","","","34","","13","","19.3","","98.00","","","","-12","","Snow Showers"
"-52.75","47.62","ST. JOHN'S INTL A","8403505","2021-03-16 01:30","2021","03","16","01:30","-5.0","","-6.1","","92","","","","2","","27","","19.3","","98.05","","","","-13","","Snow Showers"
"-52.75","47.62","ST. JOHN'S INTL A","8403505","2021-03-16 02:30","2021","03","16","02:30","-5.3","","-6.4","","92","","","","3","","24","","1.2","","98.04","","","","-13","","Snow Showers"
"-52.75","47.62","ST. JOHN'S INTL A","8403505","2021-03-16 03:30","2021","03","16","03:30","-5.7","","-6.9","","92","","","","3","","20","","4.8","","98.07","","","","-12","","Snow Showers"
"-52.75","47.62","ST. JOHN'S INTL A","8403505","2021-03-16 04:30","2021","03","16","04:30","-5.7","","-7.0","","91","","","","3","","18","","4.8","","98.16","","","","-12","","Snow Showers"
"-52.75","47.62","ST. JOHN'S INTL A","8403505","2021-03-16 05:30","2021","03","16","05:30","-6.0","","-8.8","","81","","","","1","","23","","24.1","","98.19","","","","-13","","Snow Showers"
"-52.75","47.62","ST. JOHN'S INTL A","8403505","2021-03-16 06:30","2021","03","16","06:30","-6.3","","-8.9","","82","","","","36","","26","","24.1","","98.16","","","","-14","","NA"
"-52.75","47.62","ST. JOHN'S INTL A","8403505","2021-03-16 07:30","2021","03","16","07:30","-6.8","","-10.0","","78","","","","35","","22","","24.1","","98.24","","","","-14","","NA"
"-52.75","47.62","ST. JOHN'S INTL A","8403505","2021-03-16 08:30","2021","03","16","08:30","-6.4","","-10.0","","76","","","","34","","22","","24.1","","98.27","","","","-14","","Blowing Snow"
"-52.75","47.62","ST. JOHN'S INTL A","8403505","2021-03-16 09:30","2021","03","16","09:30","-5.8","","-9.3","","76","","","","35","","30","","24.1","","98.22","","","","-14","","NA"
"-52.75","47.62","ST. JOHN'S INTL A","8403505","2021-03-16 10:30","2021","03","16","10:30","-5.2","","-8.5","","78","","","","33","","40","","24.1","","98.17","","","","-14","","NA"
"-52.75","47.62","ST. JOHN'S INTL A","8403505","2021-03-16 11:30","2021","03","16","11:30","-4.6","","-7.4","","81","","","","33","","35","","6.4","","98.12","","","","-13","","Snow Showers,Blowing Snow"
"-52.75","47.62","ST. JOHN'S INTL A","8403505","2021-03-16 12:30","2021","03","16","12:30","-4.0","","-5.8","","88","","","","33","","33","","8.1","","98.11","","","","-12","","Snow Showers,Blowing Snow"
"-52.75","47.62","ST. JOHN'S INTL A","8403505","2021-03-16 13:30","2021","03","16","13:30","-2.6","","-4.1","","89","","","","1","","34","","4.8","","98.11","","","","-10","","Snow Showers,Blowing Snow"
"-52.75","47.62","ST. JOHN'S INTL A","8403505","2021-03-16 14:30","2021","03","16","14:30","-2.5","","-4.4","","87","","","","1","","43","","4.8","","98.15","","","","-11","","Snow Showers,Blowing Snow"
"-52.75","47.62","ST. JOHN'S INTL A","8403505","2021-03-16 15:30","2021","03","16","15:30","-2.8","","-4.8","","87","","","","1","","39","","4.8","","98.18","","","","-11","","Snow Showers"
"-52.75","47.62","ST. JOHN'S INTL A","8403505","2021-03-16 16:30","2021","03","16","16:30","-3.1","","-5.5","","84","","","","36","","41","","19.3","","98.20","","","","-12","","Snow Showers"
"-52.75","47.62","ST. JOHN'S INTL A","8403505","2021-03-16 17:30","2021","03","16","17:30","-3.5","","-5.8","","85","","","","36","","35","","19.3","","98.26","","","","-12","","Snow Showers,Blowing Snow"
"-52.75","47.62","ST. JOHN'S INTL A","8403505","2021-03-16 18:30","2021","03","16","18:30","-3.8","","-5.9","","85","","","","36","","40","","19.3","","98.33","","","","-12","","Snow Showers,Blowing Snow"
"-52.75","47.62","ST. JOHN'S INTL A","8403505","2021-03-16 19:30","2021","03","16","19:30","-3.8","","-6.2","","84","","","","36","","45","","16.1","","98.40","","","","-13","","Snow Showers,Blowing Snow"
"-52.75","47.62","ST. JOHN'S INTL A","8403505","2021-03-16 20:30","2021","03","16","20:30","-4.2","","-5.7","","89","","","","36","","39","","2.4","","98.45","","","","-13","","Snow Showers,Blowing Snow"
"-52.75","47.62","ST. JOHN'S INTL A","8403505","2021-03-16 21:30","2021","03","16","21:30","-4.5","","-6.0","","89","","","","36","","44","","4.0","","98.50","","","","-14","","Snow Showers,Blowing Snow"
"-52.75","47.62","ST. JOHN'S INTL A","8403505","2021-03-16 22:30","2021","03","16","22:30","-5.0","","-7.1","","85","","","","35","","40","","24.1","","98.55","","","","-14","","Blowing Snow"
"-52.75","47.62","ST. JOHN'S INTL A","8403505","2021-03-16 23:30","2021","03","16","23:30","-5.4","","-7.1","","88","","","","34","","39","","24.1","","98.62","","","","-15","","Blowing Snow"
"-52.75","47.62","ST. JOHN'S INTL A","8403505","2021-03-17 00:30","2021","03","17","00:30","-5.7","","-7.9","","85","","","","35","","40","","24.1","","98.66","","","","-15","","Blowing Snow"
"-52.75","47.62","ST. JOHN'S INTL A","8403505","2021-03-17 01:30","2021","03","17","01:30","-5.7","","-8.1","","83","","","","34","","31","","24.1","","98.76","","","","-14","","Blowing Snow"
"-52.75","47.62","ST. JOHN'S INTL A","8403505","2021-03-17 02:30","2021","03","17","02:30","-6.2","","-8.9","","81","","","","34","","34","","24.1","","98.81","","","","-15","","Blowing Snow"
"-52.75","47.62","ST. JOHN'S INTL A","8403505","2021-03-17 03:30","2021","03","17","03:30","-6.4","","-9.3","","80","","","","32","","36","","24.1","","98.86","","","","-16","","Blowing Snow"
"-52.75","47.62","ST. JOHN'S INTL A","8403505","2021-03-17 04:30","2021","03","17","04:30","-7.4","","-10.2","","81","","","","33","","48","","24.1","","98.90","","","","-18","","Blowing Snow"
"-52.75","47.62","ST. JOHN'S INTL A","8403505","2021-03-17 05:30","2021","03","17","05:30","-7.5","","-10.4","","80","","","","33","","41","","24.1","","99.03","","","","-18","","Blowing Snow"
"-52.75","47.62","ST. JOHN'S INTL A","8403505","2021-03-17 06:30","2021","03","17","06:30","-7.4","","-10.8","","77","","","","33","","30","","24.1","","99.15","","","","-16","","Blowing Snow"
"-52.75","47.62","ST. JOHN'S INTL A","8403505","2021-03-17 07:30","2021","03","17","07:30","-6.7","","-10.1","","77","","","","33","","27","","24.1","","99.27","","","","-15","","Blowing Snow"
"-52.75","47.62","ST. JOHN'S INTL A","8403505","2021-03-17 08:30","2021","03","17","08:30","-6.0","","-9.9","","75","","","","33","","28","","24.1","","99.41","","","","-14","","Mainly Clear"
"-52.75","47.62","ST. JOHN'S INTL A","8403505","2021-03-17 09:30","2021","03","17","09:30","-5.4","","-9.6","","73","","","","32","","28","","24.1","","99.49","","","","-13","","NA"
"-52.75","47.62","ST. JOHN'S INTL A","8403505","2021-03-17 10:30","2021","03","17","10:30","-4.8","","-9.7","","68","","","","31","","25","","24.1","","99.57","","","","-12","","NA"
"-52.75","47.62","ST. JOHN'S INTL A","8403505","2021-03-17 11:30","2021","03","17","11:30","-4.2","","-10.1","","64","","","","33","","23","","24.1","","99.61","","","","-11","","Mainly Clear"
"-52.75","47.62","ST. JOHN'S INTL A","8403505","2021-03-17 12:30","2021","03","17","12:30","-3.6","","-12.1","","52","","","","30","","22","","24.1","","99.61","","","","-10","","NA"
"-52.75","47.62","ST. JOHN'S INTL A","8403505","2021-03-17 13:30","2021","03","17","13:30","-2.8","","-13.2","","45","","","","28","","28","","24.1","","99.60","","","","-10","","NA"
"-52.75","47.62","ST. JOHN'S INTL A","8403505","2021-03-17 14:30","2021","03","17","14:30","-2.0","","-11.7","","48","","","","29","","24","","24.1","","99.63","","","","-8","","Mainly Clear"
"-52.75","47.62","ST. JOHN'S INTL A","8403505","2021-03-17 15:30","2021","03","17","15:30","-2.3","","-12.4","","46","","","","28","","30","","24.1","","99.68","","","","-9","","NA"
"-52.75","47.62","ST. JOHN'S INTL A","8403505","2021-03-17 16:30","2021","03","17","16:30","-2.8","","-10.6","","55","","","","28","","27","","24.1","","99.75","","","","-10","","NA"
"-52.75","47.62","ST. JOHN'S INTL A","8403505","2021-03-17 17:30","2021","03","17","17:30","-3.4","","-10.0","","60","","","","28","","26","","24.1","","99.83","","","","-10","","Cloudy"
"-52.75","47.62","ST. JOHN'S INTL A","8403505","2021-03-17 18:30","2021","03","17","18:30","-4.7","","-7.9","","79","","","","26","","17","","24.1","","99.93","","","","-11","","Snow Showers"
"-52.75","47.62","ST. JOHN'S INTL A","8403505","2021-03-17 19:30","2021","03","17","19:30","-4.7","","-8.3","","76","","","","27","","16","","24.1","","100.01","","","","-10","","NA"
"-52.75","47.62","ST. JOHN'S INTL A","8403505","2021-03-17 20:30","2021","03","17","20:30","-4.8","","-8.5","","75","","","","30","","20","","24.1","","100.12","","","","-11","","Cloudy"
"-52.75","47.62","ST. JOHN'S INTL A","8403505","2021-03-17 21:30","2021","03","17","21:30","-4.9","","-9.3","","72","","","","29","","25","","24.1","","100.21","","","","-12","","NA"
"-52.75","47.62","ST. JOHN'S INTL A","8403505","2021-03-17 22:30","2021","03","17","22:30","-5.2","","-10.0","","69","","","","31","","21","","24.1","","100.28","","","","-12","","NA"
"-52.75","47.62","ST. JOHN'S INTL A","8403505","2021-03-17 23:30","2021","03","17","23:30","-6.3","","-11.5","","67","","","","28","","5","","24.1","","100.33","","","","-9","","Mainly Clear"
"-52.75","47.62","ST. JOHN'S INTL A","8403505","2021-03-18 00:30","2021","03","18","00:30","-7.5","","-12.2","","70","","","","27","","10","","24.1","","100.40","","","","-12","","NA"
"-52.75","47.62","ST. JOHN'S INTL A","8403505","2021-03-18 01:30","2021","03","18","01:30","-8.9","","-11.9","","79","","","","20","","8","","24.1","","100.47","","","","-13","","NA"
"-52.75","47.62","ST. JOHN'S INTL A","8403505","2021-03-18 02:30","2021","03","18","02:30","-7.9","","-11.4","","76","","","","25","","16","","24.1","","100.50","","","","-14","","Cloudy"
"-52.75","47.62","ST. JOHN'S INTL A","8403505","2021-03-18 03:30","2021","03","18","03:30","-7.2","","-9.4","","84","","","","26","","9","","19.3","","100.52","","","","-12","","Snow Showers"
"-52.75","47.62","ST. JOHN'S INTL A","8403505","2021-03-18 04:30","2021","03","18","04:30","-6.6","","-8.6","","86","","","","25","","9","","24.1","","100.57","","","","-11","","Snow Showers"
"-52.75","47.62","ST. JOHN'S INTL A","8403505","2021-03-18 05:30","2021","03","18","05:30","-9.2","","-10.7","","89","","","","16","","4","","24.1","","100.58","","","","-11","","Mostly Cloudy"
"-52.75","47.62","ST. JOHN'S INTL A","8403505","2021-03-18 06:30","2021","03","18","06:30","-7.2","","-9.2","","86","","","","23","","8","","24.1","","100.61","","","","-11","","NA"
"-52.75","47.62","ST. JOHN'S INTL A","8403505","2021-03-18 07:30","2021","03","18","07:30","-4.9","","-7.4","","83","","","","21","","14","","16.1","","100.68","","","","-10","","Snow Showers"
"-52.75","47.62","ST. JOHN'S INTL A","8403505","2021-03-18 08:30","2021","03","18","08:30","-4.3","","-6.6","","85","","","","18","","19","","16.1","","100.67","","","","-10","","Snow Showers"
"-52.75","47.62","ST. JOHN'S INTL A","8403505","2021-03-18 09:30","2021","03","18","09:30","-2.2","","-5.0","","81","","","","19","","24","","24.1","","100.69","","","","-9","","Snow Showers"
"-52.75","47.62","ST. JOHN'S INTL A","8403505","2021-03-18 10:30","2021","03","18","10:30","-1.4","","-3.7","","84","","","","20","","26","","24.1","","100.68","","","","-8","","Snow Showers"
"-52.75","47.62","ST. JOHN'S INTL A","8403505","2021-03-18 11:30","2021","03","18","11:30","-0.4","","-2.9","","83","","","","19","","21","","24.1","","100.64","","","","-6","","Snow Showers"
"-52.75","47.62","ST. JOHN'S INTL A","8403505","2021-03-18 12:30","2021","03","18","12:30","0.5","","-2.6","","80","","","","19","","17","","24.1","","100.58","","","","","","NA"
"-52.75","47.62","ST. JOHN'S INTL A","8403505","2021-03-18 13:30","2021","03","18","13:30","2.6","","-4.5","","59","","","","28","","26","","24.1","","100.50","","","","","","NA"
"-52.75","47.62","ST. JOHN'S INTL A","8403505","2021-03-18 14:30","2021","03","18","14:30","3.4","","-4.4","","57","","","","26","","25","","24.1","","100.53","","","","","","Mostly Cloudy"
"-52.75","47.62","ST. JOHN'S INTL A","8403505","2021-03-18 15:30","2021","03","18","15:30","2.7","","-3.2","","65","","","","23","","18","","24.1","","100.53","","","","","","NA"
"-52.75","47.62","ST. JOHN'S INTL A","8403505","2021-03-18 16:30","2021","03","18","16:30","1.5","","-3.2","","71","","","","24","","30","","24.1","","100.50","","","","","","NA"
"-52.75","47.62","ST. JOHN'S INTL A","8403505","2021-03-18 17:30","2021","03","18","17:30","1.0","","-2.5","","78","","","","24","","26","","24.1","","100.54","","","","","","Mostly Cloudy"
"-52.75","47.62","ST. JOHN'S INTL A","8403505","2021-03-18 18:30","2021","03","18","18:30","0.6","","-2.5","","80","","","","22","","21","","24.1","","100.51","","","","","","NA"
"-52.75","47.62","ST. JOHN'S INTL A","8403505","2021-03-18 19:30","2021","03","18","19:30","0.5","","-1.8","","84","","","","21","","23","","24.1","","100.48","","","","","","NA"
"-52.75","47.62","ST. JOHN'S INTL A","8403505","2021-03-18 20:30","2021","03","18","20:30","0.6","","-1.7","","85","","","","20","","28","","24.1","","100.42","","","","","","Cloudy"
"-52.75","47.62","ST. JOHN'S INTL A","8403505","2021-03-18 21:30","2021","03","18","21:30","0.8","","-0.5","","91","","","","20","","34","","24.1","","100.34","","","","","","NA"
"-52.75","47.62","ST. JOHN'S INTL A","8403505","2021-03-18 22:30","2021","03","18","22:30","1.3","","-0.2","","90","","","","21","","35","","24.1","","100.23","","","","","","NA"
"-52.75","47.62","ST. JOHN'S INTL A","8403505","2021-03-18 23:30","2021","03","18","23:30","1.6","","-0.2","","87","","","","20","","39","","24.1","","100.13","","","","","","Cloudy"
"-52.75","47.62","ST. JOHN'S INTL A","8403505","2021-03-19 00:30","2021","03","19","00:30","1.7","","-0.1","","88","","","","21","","39","","24.1","","100.07","","","","","","NA"
"-52.75","47.62","ST. JOHN'S INTL A","8403505","2021-03-19 01:30","2021","03","19","01:30","1.9","","0.8","","92","","","","20","","45","","24.1","","99.97","","","","","","Rain"
"-52.75","47.62","ST. JOHN'S INTL A","8403505","2021-03-19 02:30","2021","03","19","02:30","1.6","","0.8","","94","","","","20","","53","","19.3","","99.90","","","","","","Rain"
"-52.75","47.62","ST. JOHN'S INTL A","8403505","2021-03-19 03:30","2021","03","19","03:30","1.5","","0.8","","95","","","","20","","44","","19.3","","99.83","","","","","","Rain"
"-52.75","47.62","ST. JOHN'S INTL A","8403505","2021-03-19 04:30","2021","03","19","04:30","1.7","","1.1","","96","","","","20","","50","","19.3","","99.77","","","","","","Rain"
"-52.75","47.62","ST. JOHN'S INTL A","8403505","2021-03-19 05:30","2021","03","19","05:30","1.6","","1.1","","96","","","","20","","48","","19.3","","99.73","","","","","","Rain"
"-52.75","47.62","ST. JOHN'S INTL A","8403505","2021-03-19 06:30","2021","03","19","06:30","2.0","","1.4","","96","","","","20","","45","","24.1","","99.69","","","","","","Rain"
"-52.75","47.62","ST. JOHN'S INTL A","8403505","2021-03-19 07:30","2021","03","19","07:30","2.3","","1.7","","96","","","","20","","46","","24.1","","99.65","","","","","","Rain"
"-52.75","47.62","ST. JOHN'S INTL A","8403505","2021-03-19 08:30","2021","03","19","08:30","2.7","","2.0","","95","","","","20","","48","","24.1","","99.59","","","","","","Rain"
"-52.75","47.62","ST. JOHN'S INTL A","8403505","2021-03-19 09:30","2021","03","19","09:30","3.0","","2.2","","95","","","","20","","51","","24.1","","99.55","","","","","","Rain"
"-52.75","47.62","ST. JOHN'S INTL A","8403505","2021-03-19 10:30","2021","03","19","10:30","3.6","","2.6","","93","","","","20","","49","","24.1","","99.47","","","","","","Rain"
"-52.75","47.62","ST. JOHN'S INTL A","8403505","2021-03-19 11:30","2021","03","19","11:30","4.0","","2.9","","93","","","","20","","52","","19.3","","99.42","","","","","","Cloudy"
"-52.75","47.62","ST. JOHN'S INTL A","8403505","2021-03-19 12:30","2021","03","19","12:30","4.6","","3.3","","91","","","","20","","54","","24.1","","99.35","","","","","","NA"
"-52.75","47.62","ST. JOHN'S INTL A","8403505","2021-03-19 13:30","2021","03","19","13:30","5.0","","3.5","","90","","","","21","","58","","24.1","","99.19","","","","","","NA"
"-52.75","47.62","ST. JOHN'S INTL A","8403505","2021-03-19 14:30","2021","03","19","14:30","5.0","","3.4","","90","","","","20","","60","","24.1","","99.03","","","","","","Cloudy"
"-52.75","47.62","ST. JOHN'S INTL A","8403505","2021-03-19 15:30","2021","03","19","15:30","4.8","","3.8","","93","","","","20","","64","","19.3","","98.93","","","","","","Rain"
"-52.75","47.62","ST. JOHN'S INTL A","8403505","2021-03-19 16:30","2021","03","19","16:30","4.6","","3.8","","95","","","","20","","73","","19.3","","98.74","","","","","","Rain"
"-52.75","47.62","ST. JOHN'S INTL A","8403505","2021-03-19 17:30","2021","03","19","17:30","5.1","","4.4","","95","","","","20","","61","","16.1","","98.60","","","","","","Rain"
"-52.75","47.62","ST. JOHN'S INTL A","8403505","2021-03-19 18:30","2021","03","19","18:30","5.1","","4.5","","96","","","","20","","70","","12.9","","98.48","","","","","","Moderate Rain"
"-52.75","47.62","ST. JOHN'S INTL A","8403505","2021-03-19 19:30","2021","03","19","19:30","5.5","","4.9","","96","","","","20","","62","","9.7","","98.38","","","","","","Rain"
"-52.75","47.62","ST. JOHN'S INTL A","8403505","2021-03-19 20:30","2021","03","19","20:30","6.2","","5.7","","97","","","","20","","71","","16.1","","98.25","","","","","","Rain"
"-52.75","47.62","ST. JOHN'S INTL A","8403505","2021-03-19 21:30","2021","03","19","21:30","6.1","","5.8","","98","","","","23","","28","","16.1","","98.31","","","","","","Rain"
"-52.75","47.62","ST. JOHN'S INTL A","8403505","2021-03-19 22:30","2021","03","19","22:30","6.3","","5.4","","94","","","","23","","37","","19.3","","98.24","","","","","","Rain"
"-52.75","47.62","ST. JOHN'S INTL A","8403505","2021-03-19 23:30","2021","03","19","23:30","5.5","","5.0","","97","","","","25","","19","","24.1","","98.22","","","","","","Rain"
"-52.75","47.62","ST. JOHN'S INTL A","8403505","2021-03-20 00:30","2021","03","20","00:30","2.5","","2.0","","97","","","","32","","29","","4.8","","98.31","","","","","","Rain,Fog"
"-52.75","47.62","ST. JOHN'S INTL A","8403505","2021-03-20 01:30","2021","03","20","01:30","-0.8","","-1.2","","97","","","","2","","20","","19.3","","98.39","","","","-6","","Freezing Rain"
"-52.75","47.62","ST. JOHN'S INTL A","8403505","2021-03-20 02:30","2021","03","20","02:30","-1.9","","-2.5","","95","","","","35","","18","","9.7","","98.51","","","","-7","","Snow"
"-52.75","47.62","ST. JOHN'S INTL A","8403505","2021-03-20 03:30","2021","03","20","03:30","-2.5","","-3.2","","95","","","","34","","21","","2.0","","98.56","","","","-9","","Snow"
"-52.75","47.62","ST. JOHN'S INTL A","8403505","2021-03-20 04:30","2021","03","20","04:30","-2.9","","-4.0","","92","","","","33","","31","","24.1","","98.71","","","","-10","","NA"
"-52.75","47.62","ST. JOHN'S INTL A","8403505","2021-03-20 05:30","2021","03","20","05:30","-3.3","","-4.6","","90","","","","33","","30","","24.1","","98.87","","","","-11","","Snow"
"-52.75","47.62","ST. JOHN'S INTL A","8403505","2021-03-20 06:30","2021","03","20","06:30","-3.4","","-4.5","","92","","","","33","","27","","19.3","","99.03","","","","-11","","Snow"
"-52.75","47.62","ST. JOHN'S INTL A","8403505","2021-03-20 07:30","2021","03","20","07:30","-3.6","","-5.1","","89","","","","33","","25","","24.1","","99.21","","","","-11","","Snow"
"-52.75","47.62","ST. JOHN'S INTL A","8403505","2021-03-20 08:30","2021","03","20","08:30","-4.0","","-6.1","","85","","","","34","","25","","24.1","","99.40","","","","-11","","Snow"
"-52.75","47.62","ST. JOHN'S INTL A","8403505","2021-03-20 09:30","2021","03","20","09:30","-3.7","","-6.5","","81","","","","33","","28","","24.1","","99.55","","","","-11","","NA"
"-52.75","47.62","ST. JOHN'S INTL A","8403505","2021-03-20 10:30","2021","03","20","10:30","-4.0","","-7.1","","79","","","","33","","24","","24.1","","99.64","","","","-11","","NA"
"-52.75","47.62","ST. JOHN'S INTL A","8403505","2021-03-20 11:30","2021","03","20","11:30","-3.8","","-7.5","","75","","","","31","","36","","24.1","","99.70","","","","-12","","Cloudy"
"-52.75","47.62","ST. JOHN'S INTL A","8403505","2021-03-20 12:30","2021","03","20","12:30","-3.4","","-7.2","","75","","","","31","","24","","24.1","","99.76","","","","-10","","NA"
"-52.75","47.62","ST. JOHN'S INTL A","8403505","2021-03-20 13:30","2021","03","20","13:30","-3.5","","-7.6","","73","","","","30","","30","","24.1","","99.82","","","","-11","","NA"
"-52.75","47.62","ST. JOHN'S INTL A","8403505","2021-03-20 14:30","2021","03","20","14:30","-3.9","","-8.8","","69","","","","30","","35","","24.1","","99.88","","","","-12","","Mostly Cloudy"
"-52.75","47.62","ST. JOHN'S INTL A","8403505","2021-03-20 15:30","2021","03","20","15:30","-4.1","","-8.7","","71","","","","31","","28","","24.1","","99.98","","","","-12","","NA"
"-52.75","47.62","ST. JOHN'S INTL A","8403505","2021-03-20 16:30","2021","03","20","16:30","-4.5","","-9.2","","70","","","","31","","30","","24.1","","100.07","","","","-12","","NA"
"-52.75","47.62","ST. JOHN'S INTL A","8403505","2021-03-20 17:30","2021","03","20","17:30","-4.6","","-10.0","","66","","","","30","","28","","24.1","","100.18","","","","-12","","Mostly Cloudy"
"-52.75","47.62","ST. JOHN'S INTL A","8403505","2021-03-20 18:30","2021","03","20","18:30","-4.9","","-9.8","","69","","","","31","","24","","24.1","","100.30","","","","-12","","NA"
"-52.75","47.62","ST. JOHN'S INTL A","8403505","2021-03-20 19:30","2021","03","20","19:30","-5.1","","-10.2","","68","","","","31","","23","","24.1","","100.43","","","","-12","","NA"
"-52.75","47.62","ST. JOHN'S INTL A","8403505","2021-03-20 20:30","2021","03","20","20:30","-5.6","","-10.3","","70","","","","31","","23","","24.1","","100.53","","","","-13","","Mainly Clear"
"-52.75","47.62","ST. JOHN'S INTL A","8403505","2021-03-20 21:30","2021","03","20","21:30","-5.6","","-10.3","","70","","","","32","","27","","24.1","","100.61","","","","-13","","NA"
"-52.75","47.62","ST. JOHN'S INTL A","8403505","2021-03-20 22:30","2021","03","20","22:30","-5.7","","-11.0","","66","","","","31","","27","","24.1","","100.64","","","","-14","","NA"
"-52.75","47.62","ST. JOHN'S INTL A","8403505","2021-03-20 23:30","2021","03","20","23:30","-6.0","","-10.9","","69","","","","32","","25","","24.1","","100.68","","","","-14","","Mainly Clear"
"-52.75","47.62","ST. JOHN'S INTL A","8403505","2021-03-21 00:30","2021","03","21","00:30","-6.3","","-11.0","","69","","","","31","","27","","24.1","","100.71","","","","-14","","NA"
"-52.75","47.62","ST. JOHN'S INTL A","8403505","2021-03-21 01:30","2021","03","21","01:30","-6.6","","-11.5","","68","","","","31","","28","","24.1","","100.74","","","","-15","","NA"
"-52.75","47.62","ST. JOHN'S INTL A","8403505","2021-03-21 02:30","2021","03","21","02:30","-7.1","","-11.2","","73","","","","31","","23","","24.1","","100.76","","","","-15","","Mainly Clear"
"-52.75","47.62","ST. JOHN'S INTL A","8403505","2021-03-21 03:30","2021","03","21","03:30","-7.1","","-11.7","","70","","","","31","","23","","24.1","","100.77","","","","-15","","NA"
"-52.75","47.62","ST. JOHN'S INTL A","8403505","2021-03-21 04:30","2021","03","21","04:30","-7.3","","-11.1","","75","","","","29","","9","","24.1","","100.87","","","","-12","","NA"
"-52.75","47.62","ST. JOHN'S INTL A","8403505","2021-03-21 05:30","2021","03","21","05:30","-7.1","","-10.0","","80","","","","28","","13","","24.1","","100.91","","","","-13","","Mostly Cloudy"
"-52.75","47.62","ST. JOHN'S INTL A","8403505","2021-03-21 06:30","2021","03","21","06:30","-5.8","","-9.0","","79","","","","27","","11","","24.1","","100.93","","","","-11","","NA"
"-52.75","47.62","ST. JOHN'S INTL A","8403505","2021-03-21 07:30","2021","03","21","07:30","-4.9","","-8.2","","78","","","","25","","12","","24.1","","100.97","","","","-10","","NA"
"-52.75","47.62","ST. JOHN'S INTL A","8403505","2021-03-21 08:30","2021","03","21","08:30","-3.5","","-7.5","","74","","","","28","","24","","24.1","","100.98","","","","-10","","Mostly Cloudy"
"-52.75","47.62","ST. JOHN'S INTL A","8403505","2021-03-21 09:30","2021","03","21","09:30","-2.6","","-6.8","","73","","","","26","","27","","24.1","","101.00","","","","-10","","NA"
"-52.75","47.62","ST. JOHN'S INTL A","8403505","2021-03-21 10:30","2021","03","21","10:30","-1.8","","-7.4","","66","","","","29","","28","","24.1","","101.00","","","","-9","","NA"
"-52.75","47.62","ST. JOHN'S INTL A","8403505","2021-03-21 11:30","2021","03","21","11:30","-0.9","","-8.4","","57","","","","30","","32","","24.1","","100.96","","","","-8","","Mainly Clear"
"-52.75","47.62","ST. JOHN'S INTL A","8403505","2021-03-21 12:30","2021","03","21","12:30","-0.1","","-7.1","","59","","","","29","","26","","24.1","","100.95","","","","-6","","NA"
"-52.75","47.62","ST. JOHN'S INTL A","8403505","2021-03-21 13:30","2021","03","21","13:30","0.4","","-6.9","","58","","","","28","","30","","24.1","","100.90","","","","","","NA"
"-52.75","47.62","ST. JOHN'S INTL A","8403505","2021-03-21 14:30","2021","03","21","14:30","0.9","","-7.0","","55","","","","25","","29","","24.1","","100.85","","","","","","Mainly Clear"
"-52.75","47.62","ST. JOHN'S INTL A","8403505","2021-03-21 15:30","2021","03","21","15:30","1.4","","-6.1","","57","","","","28","","25","","24.1","","100.83","","","","","","NA"
"-52.75","47.62","ST. JOHN'S INTL A","8403505","2021-03-21 16:30","2021","03","21","16:30","1.1","","-5.5","","61","","","","29","","25","","24.1","","100.82","","","","","","NA"
"-52.75","47.62","ST. JOHN'S INTL A","8403505","2021-03-21 17:30","2021","03","21","17:30","0.2","","-5.0","","68","","","","27","","27","","24.1","","100.82","","","","","","Mostly Cloudy"
"-52.75","47.62","ST. JOHN'S INTL A","8403505","2021-03-21 18:30","2021","03","21","18:30","-0.3","","-5.8","","66","","","","27","","28","","24.1","","100.82","","","","-7","","NA"
"-52.75","47.62","ST. JOHN'S INTL A","8403505","2021-03-21 19:30","2021","03","21","19:30","-0.5","","-5.5","","69","","","","25","","23","","24.1","","100.80","","","","-6","","NA"
"-52.75","47.62","ST. JOHN'S INTL A","8403505","2021-03-21 20:30","2021","03","21","20:30","-1.0","","-4.7","","76","","","","24","","23","","24.1","","100.75","","","","-7","","Mostly Cloudy"
"-52.75","47.62","ST. JOHN'S INTL A","8403505","2021-03-21 21:30","2021","03","21","21:30","-0.8","","-6.1","","67","","","","27","","27","","24.1","","100.68","","","","-7","","NA"
"-52.75","47.62","ST. JOHN'S INTL A","8403505","2021-03-21 22:30","2021","03","21","22:30","-0.6","","-4.9","","73","","","","26","","36","","24.1","","100.62","","","","-8","","NA"
"-52.75","47.62","ST. JOHN'S INTL A","8403505","2021-03-21 23:30","2021","03","21","23:30","-0.5","","-3.5","","80","","","","26","","35","","24.1","","100.54","","","","-8","","Mainly Clear"
"-52.75","47.62","ST. JOHN'S INTL A","8403505","2021-03-22 00:30","2021","03","22","00:30","0.0","","-2.7","","82","","","","27","","27","","24.1","","100.49","","","","-6","","NA"
"-52.75","47.62","ST. JOHN'S INTL A","8403505","2021-03-22 01:30","2021","03","22","01:30","0.7","","-2.5","","79","","","","27","","35","","24.1","","100.40","","","","","","NA"
"-52.75","47.62","ST. JOHN'S INTL A","8403505","2021-03-22 02:30","2021","03","22","02:30","1.0","","-2.4","","78","","","","26","","33","","24.1","","100.31","","","","","","Mostly Cloudy"
"-52.75","47.62","ST. JOHN'S INTL A","8403505","2021-03-22 03:30","2021","03","22","03:30","1.8","","-2.2","","74","","","","27","","34","","24.1","","100.25","","","","","","NA"
"-52.75","47.62","ST. JOHN'S INTL A","8403505","2021-03-22 04:30","2021","03","22","04:30","2.2","","-2.2","","72","","","","28","","37","","24.1","","100.21","","","","","","NA"
"-52.75","47.62","ST. JOHN'S INTL A","8403505","2021-03-22 05:30","2021","03","22","05:30","1.6","","-2.1","","77","","","","27","","33","","24.1","","100.21","","","","","","Mainly Clear"
"-52.75","47.62","ST. JOHN'S INTL A","8403505","2021-03-22 06:30","2021","03","22","06:30","1.4","","-2.0","","78","","","","26","","34","","24.1","","100.23","","","","","","NA"
"-52.75","47.62","ST. JOHN'S INTL A","8403505","2021-03-22 07:30","2021","03","22","07:30","2.5","","-1.8","","73","","","","26","","29","","24.1","","100.23","","","","","","NA"
"-52.75","47.62","ST. JOHN'S INTL A","8403505","2021-03-22 08:30","2021","03","22","08:30","3.5","","-1.8","","69","","","","27","","31","","24.1","","100.23","","","","","","Mostly Cloudy"
"-52.75","47.62","ST. JOHN'S INTL A","8403505","2021-03-22 09:30","2021","03","22","09:30","6.2","","-1.8","","56","","","","26","","30","","24.1","","100.18","","","","","","NA"
"-52.75","47.62","ST. JOHN'S INTL A","8403505","2021-03-22 10:30","2021","03","22","10:30","7.6","","-1.9","","51","","","","27","","37","","24.1","","100.16","","","","","","NA"
"-52.75","47.62","ST. JOHN'S INTL A","8403505","2021-03-22 11:30","2021","03","22","11:30","8.5","","-1.6","","49","","","","28","","32","","24.1","","100.14","","","","","","Mostly Cloudy"
"-52.75","47.62","ST. JOHN'S INTL A","8403505","2021-03-22 12:30","2021","03","22","12:30","8.7","","-1.8","","48","","","","28","","39","","24.1","","100.03","","","","","","NA"
"-52.75","47.62","ST. JOHN'S INTL A","8403505","2021-03-22 13:30","2021","03","22","13:30","9.1","","-2.2","","45","","","","28","","48","","24.1","","99.97","","","","","","NA"
"-52.75","47.62","ST. JOHN'S INTL A","8403505","2021-03-22 14:30","2021","03","22","14:30","9.1","","-2.7","","44","","","","29","","51","","24.1","","99.95","","","","","","Mostly Cloudy"
"-52.75","47.62","ST. JOHN'S INTL A","8403505","2021-03-22 15:30","2021","03","22","15:30","9.1","","-2.8","","43","","","","28","","44","","24.1","","99.97","","","","","","NA"
"-52.75","47.62","ST. JOHN'S INTL A","8403505","2021-03-22 16:30","2021","03","22","16:30","8.2","","-2.8","","46","","","","28","","32","","24.1","","100.03","","","","","","NA"
"-52.75","47.62","ST. JOHN'S INTL A","8403505","2021-03-22 17:30","2021","03","22","17:30","6.8","","-3.1","","49","","","","27","","33","","24.1","","100.12","","","","","","Mostly Cloudy"
"-52.75","47.62","ST. JOHN'S INTL A","8403505","2021-03-22 18:30","2021","03","22","18:30","5.0","","-2.9","","57","","","","27","","28","","24.1","","100.18","","","","","","NA"
"-52.75","47.62","ST. JOHN'S INTL A","8403505","2021-03-22 19:30","2021","03","22","19:30","4.8","","-3.2","","56","","","","26","","40","","24.1","","100.23","","","","","","NA"
"-52.75","47.62","ST. JOHN'S INTL A","8403505","2021-03-22 20:30","2021","03","22","20:30","4.1","","-3.5","","58","","","","28","","35","","24.1","","100.23","","","","","","Mainly Clear"
"-52.75","47.62","ST. JOHN'S INTL A","8403505","2021-03-22 21:30","2021","03","22","21:30","4.1","","-4.0","","55","","","","28","","40","","24.1","","100.19","","","","","","NA"
"-52.75","47.62","ST. JOHN'S INTL A","8403505","2021-03-22 22:30","2021","03","22","22:30","4.1","","-4.7","","53","","","","28","","32","","24.1","","100.22","","","","","","NA"
"-52.75","47.62","ST. JOHN'S INTL A","8403505","2021-03-22 23:30","2021","03","22","23:30","3.0","","-4.8","","57","","","","28","","32","","24.1","","100.23","","","","","","Clear"
"-52.75","47.62","ST. JOHN'S INTL A","8403505","2021-03-23 00:30","2021","03","23","00:30","2.4","","-5.0","","58","","","","28","","31","","24.1","","100.22","","","","","","NA"
"-52.75","47.62","ST. JOHN'S INTL A","8403505","2021-03-23 01:30","2021","03","23","01:30","2.2","","-5.3","","57","","","","27","","35","","24.1","","100.24","","","","","","NA"
"-52.75","47.62","ST. JOHN'S INTL A","8403505","2021-03-23 02:30","2021","03","23","02:30","1.7","","-5.0","","61","","","","27","","40","","24.1","","100.28","","","","","","Clear"
"-52.75","47.62","ST. JOHN'S INTL A","8403505","2021-03-23 03:30","2021","03","23","03:30","1.7","","-5.1","","60","","","","28","","38","","24.1","","100.29","","","","","","NA"
"-52.75","47.62","ST. JOHN'S INTL A","8403505","2021-03-23 04:30","2021","03","23","04:30","1.6","","-5.0","","62","","","","28","","39","","24.1","","100.31","","","","","","NA"
"-52.75","47.62","ST. JOHN'S INTL A","8403505","2021-03-23 05:30","2021","03","23","05:30","1.9","","-5.2","","59","","","","27","","41","","24.1","","100.33","","","","","","Clear"
"-52.75","47.62","ST. JOHN'S INTL A","8403505","2021-03-23 06:30","2021","03","23","06:30","2.3","","-4.9","","59","","","","28","","38","","24.1","","100.37","","","","","","NA"
"-52.75","47.62","ST. JOHN'S INTL A","8403505","2021-03-23 07:30","2021","03","23","07:30","4.3","","-4.7","","52","","","","28","","37","","24.1","","100.40","","","","","","NA"
"-52.75","47.62","ST. JOHN'S INTL A","8403505","2021-03-23 08:30","2021","03","23","08:30","6.0","","-4.7","","46","","","","28","","35","","24.1","","100.41","","","","","","Mainly Clear"
"-52.75","47.62","ST. JOHN'S INTL A","8403505","2021-03-23 09:30","2021","03","23","09:30","8.2","","-4.5","","40","","","","28","","35","","24.1","","100.44","","","","","","NA"
"-52.75","47.62","ST. JOHN'S INTL A","8403505","2021-03-23 10:30","2021","03","23","10:30","9.6","","-3.5","","40","","","","28","","40","","24.1","","100.43","","","","","","NA"
"-52.75","47.62","ST. JOHN'S INTL A","8403505","2021-03-23 11:30","2021","03","23","11:30","11.8","","-3.2","","35","","","","28","","30","","24.1","","100.40","","","","","","Clear"
"-52.75","47.62","ST. JOHN'S INTL A","8403505","2021-03-23 12:30","2021","03","23","12:30","13.4","","-4.0","","30","","","","27","","40","","24.1","","100.39","","","","","","NA"
"-52.75","47.62","ST. JOHN'S INTL A","8403505","2021-03-23 13:30","2021","03","23","13:30","13.6","","-4.6","","28","","","","28","","40","","24.1","","100.34","","","","","","NA"
"-52.75","47.62","ST. JOHN'S INTL A","8403505","2021-03-23 14:30","2021","03","23","14:30","13.4","","-5.2","","27","","","","28","","44","","24.1","","100.32","","","","","","Mainly Clear"
"-52.75","47.62","ST. JOHN'S INTL A","8403505","2021-03-23 15:30","2021","03","23","15:30","13.0","","-4.9","","28","","","","28","","40","","24.1","","100.31","","","","","","NA"
"-52.75","47.62","ST. JOHN'S INTL A","8403505","2021-03-23 16:30","2021","03","23","16:30","11.9","","-4.7","","31","","","","28","","39","","24.1","","100.36","","","","","","NA"
"-52.75","47.62","ST. JOHN'S INTL A","8403505","2021-03-23 17:30","2021","03","23","17:30","10.4","","-4.9","","34","","","","28","","36","","24.1","","100.40","","","","","","Mostly Cloudy"
"-52.75","47.62","ST. JOHN'S INTL A","8403505","2021-03-23 18:30","2021","03","23","18:30","8.0","","-4.5","","41","","","","28","","44","","24.1","","100.39","","","","","","NA"
"-52.75","47.62","ST. JOHN'S INTL A","8403505","2021-03-23 19:30","2021","03","23","19:30","6.1","","-4.5","","47","","","","29","","36","","24.1","","100.46","","","","","","NA"
"-52.75","47.62","ST. JOHN'S INTL A","8403505","2021-03-23 20:30","2021","03","23","20:30","6.2","","-6.0","","41","","","","27","","39","","24.1","","100.49","","","","","","Mostly Cloudy"
"-52.75","47.62","ST. JOHN'S INTL A","8403505","2021-03-23 21:30","2021","03","23","21:30","4.6","","-6.1","","46","","","","27","","40","","24.1","","100.49","","","","","","NA"
"-52.75","47.62","ST. JOHN'S INTL A","8403505","2021-03-23 22:30","2021","03","23","22:30","4.1","","-6.1","","47","","","","27","","37","","24.1","","100.50","","","","","","NA"
"-52.75","47.62","ST. JOHN'S INTL A","8403505","2021-03-23 23:30","2021","03","23","23:30","3.0","","-5.3","","55","","","","28","","28","","24.1","","100.53","","","","","","Cloudy"
"-52.75","47.62","ST. JOHN'S INTL A","8403505","2021-03-24 00:30","2021","03","24","00:30","2.5","","-4.8","","59","","","","27","","32","","24.1","","100.54","","","","","","NA"
"-52.75","47.62","ST. JOHN'S INTL A","8403505","2021-03-24 01:30","2021","03","24","01:30","2.2","","-4.8","","60","","","","27","","31","","24.1","","100.55","","","","","","NA"
"-52.75","47.62","ST. JOHN'S INTL A","8403505","2021-03-24 02:30","2021","03","24","02:30","3.0","","-5.5","","53","","","","28","","30","","24.1","","100.54","","","","","","Clear"
"-52.75","47.62","ST. JOHN'S INTL A","8403505","2021-03-24 03:30","2021","03","24","03:30","3.1","","-5.5","","53","","","","28","","28","","24.1","","100.57","","","","","","NA"
"-52.75","47.62","ST. JOHN'S INTL A","8403505","2021-03-24 04:30","2021","03","24","04:30","2.5","","-4.9","","58","","","","28","","31","","24.1","","100.57","","","","","","NA"
"-52.75","47.62","ST. JOHN'S INTL A","8403505","2021-03-24 05:30","2021","03","24","05:30","1.7","","-4.3","","64","","","","27","","31","","24.1","","100.58","","","","","","Mainly Clear"
"-52.75","47.62","ST. JOHN'S INTL A","8403505","2021-03-24 06:30","2021","03","24","06:30","2.0","","-4.0","","65","","","","28","","24","","24.1","","100.64","","","","","","NA"
"-52.75","47.62","ST. JOHN'S INTL A","8403505","2021-03-24 07:30","2021","03","24","07:30","3.9","","-3.4","","59","","","","28","","31","","24.1","","100.68","","","","","","NA"
"-52.75","47.62","ST. JOHN'S INTL A","8403505","2021-03-24 08:30","2021","03","24","08:30","5.7","","-3.1","","53","","","","27","","30","","24.1","","100.69","","","","","","Cloudy"
"-52.75","47.62","ST. JOHN'S INTL A","8403505","2021-03-24 09:30","2021","03","24","09:30","8.0","","-2.5","","48","","","","26","","30","","24.1","","100.71","","","","","","NA"
"-52.75","47.62","ST. JOHN'S INTL A","8403505","2021-03-24 10:30","2021","03","24","10:30","9.8","","-2.3","","42","","","","27","","35","","24.1","","100.74","","","","","","NA"
"-52.75","47.62","ST. JOHN'S INTL A","8403505","2021-03-24 11:30","2021","03","24","11:30","11.4","","-2.7","","37","","","","27","","31","","24.1","","100.72","","","","","","Mostly Cloudy"
"-52.75","47.62","ST. JOHN'S INTL A","8403505","2021-03-24 12:30","2021","03","24","12:30","13.1","","-1.9","","35","","","","28","","34","","24.1","","100.75","","","","","","NA"
"-52.75","47.62","ST. JOHN'S INTL A","8403505","2021-03-24 13:30","2021","03","24","13:30","13.2","","-1.9","","35","","","","28","","26","","24.1","","100.78","","","","","","NA"
"-52.75","47.62","ST. JOHN'S INTL A","8403505","2021-03-24 14:30","2021","03","24","14:30","13.2","","-2.2","","34","","","","29","","32","","24.1","","100.81","","","","","","Mostly Cloudy"
"-52.75","47.62","ST. JOHN'S INTL A","8403505","2021-03-24 15:30","2021","03","24","15:30","13.3","","-1.4","","36","","","","30","","29","","24.1","","100.84","","","","","","NA"
"-52.75","47.62","ST. JOHN'S INTL A","8403505","2021-03-24 16:30","2021","03","24","16:30","12.2","","-1.1","","40","","","","29","","24","","24.1","","100.87","","","","","","NA"
"-52.75","47.62","ST. JOHN'S INTL A","8403505","2021-03-24 17:30","2021","03","24","17:30","10.6","","-1.2","","44","","","","32","","10","","24.1","","100.99","","","","","","Mainly Clear"
"-52.75","47.62","ST. JOHN'S INTL A","8403505","2021-03-24 18:30","2021","03","24","18:30","1.6","","-3.1","","71","","","","6","","16","","24.1","","101.12","","","","","","NA"
"-52.75","47.62","ST. JOHN'S INTL A","8403505","2021-03-24 19:30","2021","03","24","19:30","0.5","","-3.1","","77","","","","7","","6","","24.1","","101.20","","","","","","NA"
"-52.75","47.62","ST. JOHN'S INTL A","8403505","2021-03-24 20:30","2021","03","24","20:30","0.7","","-4.0","","71","","","","9","","9","","24.1","","101.23","","","","","","Mostly Cloudy"
"-52.75","47.62","ST. JOHN'S INTL A","8403505","2021-03-24 21:30","2021","03","24","21:30","1.0","","-4.7","","66","","","","15","","9","","24.1","","101.23","","","","","","NA"
"-52.75","47.62","ST. JOHN'S INTL A","8403505","2021-03-24 22:30","2021","03","24","22:30","0.9","","-4.5","","68","","","","16","","14","","24.1","","101.23","","","","","","NA"
"-52.75","47.62","ST. JOHN'S INTL A","8403505","2021-03-24 23:30","2021","03","24","23:30","1.0","","-4.8","","65","","","","14","","5","","24.1","","101.23","","","","","","Cloudy"
"-52.75","47.62","ST. JOHN'S INTL A","8403505","2021-03-25 00:30","2021","03","25","00:30","0.7","","-4.7","","67","","","","14","","9","","24.1","","101.20","","","","","","NA"
"-52.75","47.62","ST. JOHN'S INTL A","8403505","2021-03-25 01:30","2021","03","25","01:30","-0.1","","-4.3","","73","","","","11","","10","","24.1","","101.17","","","","-3","","NA"
"-52.75","47.62","ST. JOHN'S INTL A","8403505","2021-03-25 02:30","2021","03","25","02:30","0.0","","-2.9","","81","","","","12","","12","","24.1","","101.13","","","","-4","","Mostly Cloudy"
"-52.75","47.62","ST. JOHN'S INTL A","8403505","2021-03-25 03:30","2021","03","25","03:30","0.0","","-2.2","","85","","","","13","","9","","24.1","","101.06","","","","-3","","NA"
"-52.75","47.62","ST. JOHN'S INTL A","8403505","2021-03-25 04:30","2021","03","25","04:30","-0.8","","-2.5","","88","","","","12","","8","","24.1","","101.04","","","","-4","","NA"
"-52.75","47.62","ST. JOHN'S INTL A","8403505","2021-03-25 05:30","2021","03","25","05:30","-1.3","","-2.5","","91","","","","13","","8","","24.1","","101.02","","","","-4","","Mostly Cloudy"
"-52.75","47.62","ST. JOHN'S INTL A","8403505","2021-03-25 06:30","2021","03","25","06:30","-1.4","","-2.3","","94","","","","8","","7","","24.1","","101.04","","","","-4","","NA"
"-52.75","47.62","ST. JOHN'S INTL A","8403505","2021-03-25 07:30","2021","03","25","07:30","0.1","","-1.0","","92","","","","11","","9","","24.1","","101.03","","","","","","NA"
"-52.75","47.62","ST. JOHN'S INTL A","8403505","2021-03-25 08:30","2021","03","25","08:30","1.5","","-0.4","","87","","","","10","","9","","24.1","","100.99","","","","","","Mostly Cloudy"
"-52.75","47.62","ST. JOHN'S INTL A","8403505","2021-03-25 09:30","2021","03","25","09:30","3.2","","0.1","","80","","","","15","","8","","24.1","","100.96","","","","","","NA"
"-52.75","47.62","ST. JOHN'S INTL A","8403505","2021-03-25 10:30","2021","03","25","10:30","5.4","","0.5","","71","","","","15","","10","","24.1","","100.85","","","","","","NA"
"-52.75","47.62","ST. JOHN'S INTL A","8403505","2021-03-25 11:30","2021","03","25","11:30","5.7","","0.6","","70","","","","15","","11","","24.1","","100.77","","","","","","Mostly Cloudy"
"-52.75","47.62","ST. JOHN'S INTL A","8403505","2021-03-25 12:30","2021","03","25","12:30","7.7","","1.6","","65","","","","14","","8","","24.1","","100.70","","","","","","NA"
"-52.75","47.62","ST. JOHN'S INTL A","8403505","2021-03-25 13:30","2021","03","25","13:30","8.7","","4.1","","73","","","","16","","11","","24.1","","100.61","","","","","","NA"
"-52.75","47.62","ST. JOHN'S INTL A","8403505","2021-03-25 14:30","2021","03","25","14:30","5.2","","3.6","","89","","","","17","","12","","24.1","","100.53","","","","","","Cloudy"
"-52.75","47.62","ST. JOHN'S INTL A","8403505","2021-03-25 15:30","2021","03","25","15:30","6.6","","6.3","","98","","","","16","","7","","4.0","","100.44","","","","","","Drizzle,Fog"
"-52.75","47.62","ST. JOHN'S INTL A","8403505","2021-03-25 16:30","2021","03","25","16:30","7.7","","7.5","","98","","","","36","","3","","8.1","","100.36","","","","","","Drizzle,Fog"
"-52.75","47.62","ST. JOHN'S INTL A","8403505","2021-03-25 17:30","2021","03","25","17:30","7.6","","7.2","","97","","","","36","","1","","12.9","","100.24","","","","","","Cloudy"
"-52.75","47.62","ST. JOHN'S INTL A","8403505","2021-03-25 18:30","2021","03","25","18:30","6.9","","6.7","","99","","","","32","","5","","12.9","","100.17","","","","","","NA"
"-52.75","47.62","ST. JOHN'S INTL A","8403505","2021-03-25 19:30","2021","03","25","19:30","6.0","","5.8","","99","","","","29","","8","","9.7","","100.13","","","","","","Fog"
"-52.75","47.62","ST. JOHN'S INTL A","8403505","2021-03-25 20:30","2021","03","25","20:30","5.7","","5.6","","99","","","","29","","14","","0.4","","100.06","","","","","","Fog"
"-52.75","47.62","ST. JOHN'S INTL A","8403505","2021-03-25 21:30","2021","03","25","21:30","5.0","","4.9","","99","","","","27","","11","","0.8","","99.97","","","","","","Fog"
"-52.75","47.62","ST. JOHN'S INTL A","8403505","2021-03-25 22:30","2021","03","25","22:30","5.4","","5.3","","100","","","","28","","15","","0.8","","99.91","","","","","","Fog"
"-52.75","47.62","ST. JOHN'S INTL A","8403505","2021-03-25 23:30","2021","03","25","23:30","4.6","","4.5","","100","","","","27","","17","","19.3","","99.80","","","","","","Mostly Cloudy"
"-52.75","47.62","ST. JOHN'S INTL A","8403505","2021-03-26 00:30","2021","03","26","00:30","4.8","","4.7","","99","","","","26","","22","","24.1","","99.70","","","","","","NA"
"-52.75","47.62","ST. JOHN'S INTL A","8403505","2021-03-26 01:30","2021","03","26","01:30","5.6","","5.6","","99","","","","26","","26","","0.6","","99.65","","","","","","Fog"
"-52.75","47.62","ST. JOHN'S INTL A","8403505","2021-03-26 02:30","2021","03","26","02:30","5.9","","5.8","","100","","","","27","","33","","0.8","","99.61","","","","","","Fog"
"-52.75","47.62","ST. JOHN'S INTL A","8403505","2021-03-26 03:30","2021","03","26","03:30","5.3","","5.3","","100","","","","27","","41","","0.8","","99.55","","","","","","Fog"
"-52.75","47.62","ST. JOHN'S INTL A","8403505","2021-03-26 04:30","2021","03","26","04:30","4.8","","4.8","","100","","","","28","","40","","0.8","","99.52","","","","","","Fog"
"-52.75","47.62","ST. JOHN'S INTL A","8403505","2021-03-26 05:30","2021","03","26","05:30","5.0","","5.0","","100","","","","28","","36","","2.4","","99.42","","","","","","Fog"
"-52.75","47.62","ST. JOHN'S INTL A","8403505","2021-03-26 06:30","2021","03","26","06:30","5.0","","4.9","","100","","","","28","","37","","1.6","","99.40","","","","","","Fog"
"-52.75","47.62","ST. JOHN'S INTL A","8403505","2021-03-26 07:30","2021","03","26","07:30","5.4","","5.3","","100","","","","28","","43","","1.6","","99.39","","","","","","Fog"
"-52.75","47.62","ST. JOHN'S INTL A","8403505","2021-03-26 08:30","2021","03","26","08:30","5.9","","5.8","","99","","","","28","","36","","12.9","","99.43","","","","","","Cloudy"
"-52.75","47.62","ST. JOHN'S INTL A","8403505","2021-03-26 09:30","2021","03","26","09:30","6.4","","6.3","","99","","","","28","","35","","8.1","","99.43","","","","","","Fog"
"-52.75","47.62","ST. JOHN'S INTL A","8403505","2021-03-26 10:30","2021","03","26","10:30","7.5","","6.9","","96","","","","27","","33","","24.1","","99.33","","","","","","NA"
"-52.75","47.62","ST. JOHN'S INTL A","8403505","2021-03-26 11:30","2021","03","26","11:30","8.1","","6.5","","89","","","","28","","43","","24.1","","99.30","","","","","","Cloudy"
"-52.75","47.62","ST. JOHN'S INTL A","8403505","2021-03-26 12:30","2021","03","26","12:30","8.9","","6.6","","86","","","","29","","43","","24.1","","99.24","","","","","","NA"
"-52.75","47.62","ST. JOHN'S INTL A","8403505","2021-03-26 13:30","2021","03","26","13:30","9.2","","6.2","","81","","","","29","","43","","24.1","","99.24","","","","","","NA"
"-52.75","47.62","ST. JOHN'S INTL A","8403505","2021-03-26 14:30","2021","03","26","14:30","9.8","","6.2","","79","","","","28","","41","","24.1","","99.18","","","","","","Cloudy"
"-52.75","47.62","ST. JOHN'S INTL A","8403505","2021-03-26 15:30","2021","03","26","15:30","8.9","","5.8","","81","","","","29","","40","","24.1","","99.24","","","","","","NA"
"-52.75","47.62","ST. JOHN'S INTL A","8403505","2021-03-26 16:30","2021","03","26","16:30","8.6","","5.8","","83","","","","27","","27","","24.1","","99.25","","","","","","NA"
"-52.75","47.62","ST. JOHN'S INTL A","8403505","2021-03-26 17:30","2021","03","26","17:30","8.1","","6.4","","89","","","","27","","30","","24.1","","99.25","","","","","","Cloudy"
"-52.75","47.62","ST. JOHN'S INTL A","8403505","2021-03-26 18:30","2021","03","26","18:30","7.0","","5.7","","91","","","","27","","21","","24.1","","99.31","","","","","","NA"
"-52.75","47.62","ST. JOHN'S INTL A","8403505","2021-03-26 19:30","2021","03","26","19:30","6.4","","5.5","","94","","","","28","","21","","24.1","","99.26","","","","","","NA"
"-52.75","47.62","ST. JOHN'S INTL A","8403505","2021-03-26 20:30","2021","03","26","20:30","6.1","","5.5","","96","","","","27","","23","","24.1","","99.31","","","","","","Cloudy"
"-52.75","47.62","ST. JOHN'S INTL A","8403505","2021-03-26 21:30","2021","03","26","21:30","0.9","","0.4","","96","","","","3","","25","","24.1","","99.37","","","","","","Rain"
"-52.75","47.62","ST. JOHN'S INTL A","8403505","2021-03-26 22:30","2021","03","26","22:30","-0.4","","-0.7","","98","","","","4","","26","","19.3","","99.35","","","","-7","","Freezing Rain"
"-52.75","47.62","ST. JOHN'S INTL A","8403505","2021-03-26 23:30","2021","03","26","23:30","-0.7","","-0.9","","98","","","","5","","27","","1.2","","99.30","","","","-7","","Freezing Rain,Fog"
"-52.75","47.62","ST. JOHN'S INTL A","8403505","2021-03-27 00:30","2021","03","27","00:30","-0.6","","-0.8","","99","","","","6","","30","","0.8","","99.18","","","","-7","","Freezing Rain,Freezing Fog"
"-52.75","47.62","ST. JOHN'S INTL A","8403505","2021-03-27 01:30","2021","03","27","01:30","-0.5","","-0.7","","99","","","","7","","26","","0.8","","99.15","","","","-7","","Freezing Rain,Freezing Fog"
"-52.75","47.62","ST. JOHN'S INTL A","8403505","2021-03-27 02:30","2021","03","27","02:30","-0.8","","-1.0","","99","","","","7","","33","","2.0","","99.05","","","","-8","","Snow,Blowing Snow"
"-52.75","47.62","ST. JOHN'S INTL A","8403505","2021-03-27 03:30","2021","03","27","03:30","-1.2","","-1.3","","99","","","","8","","37","","9.7","","98.90","","","","-9","","Ice Pellets"
"-52.75","47.62","ST. JOHN'S INTL A","8403505","2021-03-27 04:30","2021","03","27","04:30","-1.2","","-1.4","","99","","","","7","","33","","1.2","","98.91","","","","-8","","Snow,Blowing Snow"
"-52.75","47.62","ST. JOHN'S INTL A","8403505","2021-03-27 05:30","2021","03","27","05:30","-1.4","","-1.5","","99","","","","7","","41","","0.8","","98.74","","","","-9","","Moderate Snow,Blowing Snow"
"-52.75","47.62","ST. JOHN'S INTL A","8403505","2021-03-27 06:30","2021","03","27","06:30","-1.4","","-1.6","","99","","","","7","","43","","1.2","","98.73","","","","-10","","Snow,Blowing Snow"
"-52.75","47.62","ST. JOHN'S INTL A","8403505","2021-03-27 07:30","2021","03","27","07:30","-1.3","","-1.5","","99","","","","7","","39","","0.8","","98.67","","","","-9","","Moderate Snow,Blowing Snow"
"-52.75","47.62","ST. JOHN'S INTL A","8403505","2021-03-27 08:30","2021","03","27","08:30","-1.2","","-1.4","","99","","","","7","","37","","0.8","","98.69","","","","-9","","Moderate Snow,Blowing Snow"
"-52.75","47.62","ST. JOHN'S INTL A","8403505","2021-03-27 09:30","2021","03","27","09:30","-1.2","","-1.4","","99","","","","6","","41","","0.8","","98.66","","","","-9","","Moderate Snow,Blowing Snow"
"-52.75","47.62","ST. JOHN'S INTL A","8403505","2021-03-27 10:30","2021","03","27","10:30","-1.3","","-1.5","","99","","","","6","","46","","1.0","","98.67","","","","-10","","Snow,Blowing Snow"
"-52.75","47.62","ST. JOHN'S INTL A","8403505","2021-03-27 11:30","2021","03","27","11:30","-1.6","","-1.8","","98","","","","7","","49","","1.2","","98.59","","","","-10","","Snow,Blowing Snow"
"-52.75","47.62","ST. JOHN'S INTL A","8403505","2021-03-27 12:30","2021","03","27","12:30","-1.7","","-2.0","","98","","","","6","","50","","1.2","","98.57","","","","-10","","Snow,Blowing Snow"
"-52.75","47.62","ST. JOHN'S INTL A","8403505","2021-03-27 13:30","2021","03","27","13:30","-1.9","","-2.2","","98","","","","5","","51","","0.4","","98.58","","","","-11","","Heavy Snow,Blowing Snow"
"-52.75","47.62","ST. JOHN'S INTL A","8403505","2021-03-27 14:30","2021","03","27","14:30","-2.0","","-2.4","","97","","","","6","","44","","0.4","","98.59","","","","-10","","Heavy Snow,Blowing Snow"
"-52.75","47.62","ST. JOHN'S INTL A","8403505","2021-03-27 15:30","2021","03","27","15:30","-2.4","","-2.8","","97","","","","5","","37","","0.8","","98.80","","","","-10","","Moderate Snow,Blowing Snow"
"-52.75","47.62","ST. JOHN'S INTL A","8403505","2021-03-27 16:30","2021","03","27","16:30","-2.6","","-3.0","","97","","","","5","","51","","2.0","","98.86","","","","-12","","Snow,Blowing Snow"
"-52.75","47.62","ST. JOHN'S INTL A","8403505","2021-03-27 17:30","2021","03","27","17:30","-2.7","","-3.3","","96","","","","5","","53","","4.8","","98.98","","","","-12","","Snow,Blowing Snow"
"-52.75","47.62","ST. JOHN'S INTL A","8403505","2021-03-27 18:30","2021","03","27","18:30","-3.2","","-3.7","","96","","","","5","","52","","1.0","","99.12","","","","-13","","Snow,Blowing Snow"
"-52.75","47.62","ST. JOHN'S INTL A","8403505","2021-03-27 19:30","2021","03","27","19:30","-3.0","","-3.7","","95","","","","4","","44","","1.2","","99.26","","","","-12","","Snow,Blowing Snow"
"-52.75","47.62","ST. JOHN'S INTL A","8403505","2021-03-27 20:30","2021","03","27","20:30","-3.0","","-4.7","","88","","","","4","","49","","19.3","","99.38","","","","-12","","Snow"
"-52.75","47.62","ST. JOHN'S INTL A","8403505","2021-03-27 21:30","2021","03","27","21:30","-3.1","","-4.9","","88","","","","4","","49","","16.1","","99.50","","","","-12","","Blowing Snow"
"-52.75","47.62","ST. JOHN'S INTL A","8403505","2021-03-27 22:30","2021","03","27","22:30","-3.2","","-5.1","","87","","","","3","","32","","16.1","","99.62","","","","-11","","Blowing Snow"
"-52.75","47.62","ST. JOHN'S INTL A","8403505","2021-03-27 23:30","2021","03","27","23:30","-3.5","","-5.5","","86","","","","3","","36","","19.3","","99.73","","","","-12","","Blowing Snow"
"-52.75","47.62","ST. JOHN'S INTL A","8403505","2021-03-28 00:30","2021","03","28","00:30","-3.7","","-5.7","","87","","","","3","","30","","19.3","","99.86","","","","-11","","Blowing Snow"
"-52.75","47.62","ST. JOHN'S INTL A","8403505","2021-03-28 01:30","2021","03","28","01:30","-3.7","","-5.9","","85","","","","3","","40","","24.1","","99.94","","","","-12","","NA"
"-52.75","47.62","ST. JOHN'S INTL A","8403505","2021-03-28 02:30","2021","03","28","02:30","-3.8","","-6.2","","84","","","","2","","36","","24.1","","100.05","","","","-12","","Cloudy"
"-52.75","47.62","ST. JOHN'S INTL A","8403505","2021-03-28 03:30","2021","03","28","03:30","-4.0","","-6.6","","82","","","","3","","35","","24.1","","100.16","","","","-12","","NA"
"-52.75","47.62","ST. JOHN'S INTL A","8403505","2021-03-28 04:30","2021","03","28","04:30","-4.3","","-6.9","","82","","","","2","","32","","24.1","","100.25","","","","-12","","NA"
"-52.75","47.62","ST. JOHN'S INTL A","8403505","2021-03-28 05:30","2021","03","28","05:30","-4.3","","-7.8","","77","","","","2","","33","","24.1","","100.34","","","","-12","","Mostly Cloudy"
"-52.75","47.62","ST. JOHN'S INTL A","8403505","2021-03-28 06:30","2021","03","28","06:30","-4.4","","-7.0","","82","","","","1","","27","","24.1","","100.47","","","","-12","","Snow Showers"
"-52.75","47.62","ST. JOHN'S INTL A","8403505","2021-03-28 07:30","2021","03","28","07:30","-4.2","","-6.6","","83","","","","2","","28","","19.3","","100.57","","","","-12","","Snow Showers,Blowing Snow"
"-52.75","47.62","ST. JOHN'S INTL A","8403505","2021-03-28 08:30","2021","03","28","08:30","-4.2","","-6.1","","86","","","","36","","23","","24.1","","100.69","","","","-11","","Snow Showers,Blowing Snow"
"-52.75","47.62","ST. JOHN'S INTL A","8403505","2021-03-28 09:30","2021","03","28","09:30","-3.6","","-5.6","","86","","","","1","","18","","19.3","","100.81","","","","-9","","Snow Showers"
"-52.75","47.62","ST. JOHN'S INTL A","8403505","2021-03-28 10:30","2021","03","28","10:30","-3.3","","-5.8","","82","","","","1","","25","","24.1","","100.84","","","","-10","","Snow Showers"
"-52.75","47.62","ST. JOHN'S INTL A","8403505","2021-03-28 11:30","2021","03","28","11:30","-3.4","","-5.6","","85","","","","35","","24","","24.1","","100.91","","","","-10","","Snow Showers"
"-52.75","47.62","ST. JOHN'S INTL A","8403505","2021-03-28 12:30","2021","03","28","12:30","-3.3","","-5.7","","83","","","","35","","21","","24.1","","100.97","","","","-10","","Snow Showers"
"-52.75","47.62","ST. JOHN'S INTL A","8403505","2021-03-28 13:30","2021","03","28","13:30","-3.4","","-6.6","","79","","","","1","","21","","24.1","","100.99","","","","-10","","Snow Showers"
"-52.75","47.62","ST. JOHN'S INTL A","8403505","2021-03-28 14:30","2021","03","28","14:30","-3.0","","-6.8","","75","","","","1","","16","","24.1","","101.05","","","","-8","","Mostly Cloudy"
"-52.75","47.62","ST. JOHN'S INTL A","8403505","2021-03-28 15:30","2021","03","28","15:30","-3.2","","-8.2","","69","","","","35","","18","","24.1","","101.10","","","","-9","","NA"
"-52.75","47.62","ST. JOHN'S INTL A","8403505","2021-03-28 16:30","2021","03","28","16:30","-3.2","","-8.2","","69","","","","1","","9","","24.1","","101.07","","","","-7","","NA"
"-52.75","47.62","ST. JOHN'S INTL A","8403505","2021-03-28 17:30","2021","03","28","17:30","-3.9","","-7.8","","75","","","","2","","9","","24.1","","101.08","","","","-8","","Mainly Clear"
"-52.75","47.62","ST. JOHN'S INTL A","8403505","2021-03-28 18:30","2021","03","28","18:30","-3.8","","-7.8","","74","","","","4","","8","","24.1","","101.10","","","","-7","","NA"
"-52.75","47.62","ST. JOHN'S INTL A","8403505","2021-03-28 19:30","2021","03","28","19:30","-4.0","","-9.1","","68","","","","36","","4","","24.1","","101.14","","","","-6","","NA"
"-52.75","47.62","ST. JOHN'S INTL A","8403505","2021-03-28 20:30","2021","03","28","20:30","-5.6","","-8.4","","81","","","","22","","7","","24.1","","101.20","","","","-9","","Mostly Cloudy"
"-52.75","47.62","ST. JOHN'S INTL A","8403505","2021-03-28 21:30","2021","03","28","21:30","-5.3","","-8.5","","78","","","","23","","13","","24.1","","101.20","","","","-10","","NA"
"-52.75","47.62","ST. JOHN'S INTL A","8403505","2021-03-28 22:30","2021","03","28","22:30","-5.2","","-9.2","","73","","","","21","","9","","24.1","","101.15","","","","-9","","NA"
"-52.75","47.62","ST. JOHN'S INTL A","8403505","2021-03-28 23:30","2021","03","28","23:30","-4.9","","-8.1","","79","","","","23","","11","","24.1","","101.15","","","","-9","","Cloudy"
"-52.75","47.62","ST. JOHN'S INTL A","8403505","2021-03-29 00:30","2021","03","29","00:30","-4.8","","-8.1","","78","","","","21","","10","","24.1","","101.05","","","","-9","","NA"
"-52.75","47.62","ST. JOHN'S INTL A","8403505","2021-03-29 01:30","2021","03","29","01:30","-4.4","","-7.7","","78","","","","22","","20","","24.1","","100.99","","","","-11","","NA"
"-52.75","47.62","ST. JOHN'S INTL A","8403505","2021-03-29 02:30","2021","03","29","02:30","-4.2","","-7.1","","81","","","","21","","13","","24.1","","100.91","","","","-9","","Cloudy"
"-52.75","47.62","ST. JOHN'S INTL A","8403505","2021-03-29 03:30","2021","03","29","03:30","-4.1","","-6.6","","82","","","","20","","16","","24.1","","100.84","","","","-10","","NA"
"-52.75","47.62","ST. JOHN'S INTL A","8403505","2021-03-29 04:30","2021","03","29","04:30","-3.9","","-6.4","","83","","","","21","","18","","24.1","","100.80","","","","-10","","NA"
"-52.75","47.62","ST. JOHN'S INTL A","8403505","2021-03-29 05:30","2021","03","29","05:30","-3.7","","-6.3","","82","","","","18","","28","","24.1","","100.69","","","","-11","","Cloudy"
"-52.75","47.62","ST. JOHN'S INTL A","8403505","2021-03-29 06:30","2021","03","29","06:30","-3.4","","-6.0","","82","","","","19","","40","","24.1","","100.52","","","","-12","","NA"
"-52.75","47.62","ST. JOHN'S INTL A","8403505","2021-03-29 07:30","2021","03","29","07:30","-2.9","","-5.2","","84","","","","18","","45","","24.1","","100.41","","","","-12","","NA"
"-52.75","47.62","ST. JOHN'S INTL A","8403505","2021-03-29 08:30","2021","03","29","08:30","-2.4","","-4.7","","85","","","","19","","51","","24.1","","100.30","","","","-11","","Cloudy"
"-52.75","47.62","ST. JOHN'S INTL A","8403505","2021-03-29 09:30","2021","03","29","09:30","-2.2","","-4.0","","88","","","","18","","45","","9.7","","100.12","","","","-11","","Ice Pellets,Blowing Snow"
"-52.75","47.62","ST. JOHN'S INTL A","8403505","2021-03-29 10:30","2021","03","29","10:30","-2.3","","-3.2","","94","","","","18","","53","","1.0","","99.96","","","","-11","","Snow,Ice Pellets,Blowing Snow"
"-52.75","47.62","ST. JOHN'S INTL A","8403505","2021-03-29 11:30","2021","03","29","11:30","-1.6","","-2.8","","92","","","","18","","48","","19.3","","99.83","","","","-10","","Snow"
"-52.75","47.62","ST. JOHN'S INTL A","8403505","2021-03-29 12:30","2021","03","29","12:30","-1.2","","-2.3","","92","","","","18","","56","","3.2","","99.63","","","","-10","","Snow,Blowing Snow"
"-52.75","47.62","ST. JOHN'S INTL A","8403505","2021-03-29 13:30","2021","03","29","13:30","-0.9","","-1.9","","93","","","","18","","71","","9.7","","99.38","","","","-11","","Freezing Rain,Fog"
"-52.75","47.62","ST. JOHN'S INTL A","8403505","2021-03-29 14:30","2021","03","29","14:30","-0.5","","-1.2","","95","","","","17","","67","","6.4","","99.08","","","","-10","","Freezing Rain,Fog"
"-52.75","47.62","ST. JOHN'S INTL A","8403505","2021-03-29 15:30","2021","03","29","15:30","-0.1","","-0.6","","97","","","","18","","66","","4.8","","98.81","","","","-9","","Freezing Rain,Fog"
"-52.75","47.62","ST. JOHN'S INTL A","8403505","2021-03-29 16:30","2021","03","29","16:30","0.3","","-0.1","","97","","","","18","","63","","6.4","","98.55","","","","","","Rain,Fog"
"-52.75","47.62","ST. JOHN'S INTL A","8403505","2021-03-29 17:30","2021","03","29","17:30","0.9","","0.6","","98","","","","18","","62","","4.8","","98.30","","","","","","Rain,Fog"
"-52.75","47.62","ST. JOHN'S INTL A","8403505","2021-03-29 18:30","2021","03","29","18:30","2.0","","1.7","","98","","","","19","","70","","4.8","","98.13","","","","","","Moderate Rain,Fog"
"-52.75","47.62","ST. JOHN'S INTL A","8403505","2021-03-29 19:30","2021","03","29","19:30","2.6","","2.2","","97","","","","20","","59","","6.4","","98.10","","","","","","Rain,Fog"
"-52.75","47.62","ST. JOHN'S INTL A","8403505","2021-03-29 20:30","2021","03","29","20:30","3.0","","2.7","","98","","","","19","","40","","24.1","","97.93","","","","","","Rain"
"-52.75","47.62","ST. JOHN'S INTL A","8403505","2021-03-29 21:30","2021","03","29","21:30","4.4","","3.8","","96","","","","22","","34","","24.1","","97.97","","","","","","NA"
"-52.75","47.62","ST. JOHN'S INTL A","8403505","2021-03-29 22:30","2021","03","29","22:30","2.8","","1.3","","90","","","","24","","40","","24.1","","97.96","","","","","","NA"
"-52.75","47.62","ST. JOHN'S INTL A","8403505","2021-03-29 23:30","2021","03","29","23:30","2.3","","0.9","","90","","","","24","","35","","24.1","","97.96","","","","","","Cloudy"
"-52.75","47.62","ST. JOHN'S INTL A","8403505","2021-03-30 00:30","2021","03","30","00:30","2.2","","0.9","","91","","","","25","","48","","24.1","","97.93","","","","","","NA"
"-52.75","47.62","ST. JOHN'S INTL A","8403505","2021-03-30 01:30","2021","03","30","01:30","1.8","","0.8","","92","","","","26","","43","","24.1","","97.96","","","","","","NA"
"-52.75","47.62","ST. JOHN'S INTL A","8403505","2021-03-30 02:30","2021","03","30","02:30","1.5","","0.6","","94","","","","26","","58","","24.1","","98.03","","","","","","Cloudy"
"-52.75","47.62","ST. JOHN'S INTL A","8403505","2021-03-30 03:30","2021","03","30","03:30","0.4","","-1.8","","85","","","","27","","48","","24.1","","98.07","","","","","","NA"
"-52.75","47.62","ST. JOHN'S INTL A","8403505","2021-03-30 04:30","2021","03","30","04:30","0.0","","-2.4","","84","","","","27","","43","","24.1","","98.14","","","","-8","","NA"
"-52.75","47.62","ST. JOHN'S INTL A","8403505","2021-03-30 05:30","2021","03","30","05:30","0.0","","-2.6","","82","","","","28","","40","","24.1","","98.34","","","","-7","","Cloudy"
"-52.75","47.62","ST. JOHN'S INTL A","8403505","2021-03-30 06:30","2021","03","30","06:30","0.0","","-3.0","","80","","","","27","","40","","24.1","","98.52","","","","-7","","NA"
"-52.75","47.62","ST. JOHN'S INTL A","8403505","2021-03-30 07:30","2021","03","30","07:30","-0.2","","-3.2","","81","","","","28","","37","","24.1","","98.68","","","","-7","","Snow Showers"
"-52.75","47.62","ST. JOHN'S INTL A","8403505","2021-03-30 08:30","2021","03","30","08:30","-0.5","","-3.6","","79","","","","29","","41","","19.3","","98.79","","","","-8","","Snow Showers"
"-52.75","47.62","ST. JOHN'S INTL A","8403505","2021-03-30 09:30","2021","03","30","09:30","-0.3","","-6.7","","62","","","","30","","48","","24.1","","98.95","","","","-8","","NA"
"-52.75","47.62","ST. JOHN'S INTL A","8403505","2021-03-30 10:30","2021","03","30","10:30","-0.4","","-6.9","","62","","","","30","","47","","24.1","","99.06","","","","-8","","NA"
"-52.75","47.62","ST. JOHN'S INTL A","8403505","2021-03-30 11:30","2021","03","30","11:30","-0.9","","-7.9","","59","","","","30","","48","","24.1","","99.16","","","","-9","","Mostly Cloudy"
"-52.75","47.62","ST. JOHN'S INTL A","8403505","2021-03-30 12:30","2021","03","30","12:30","-1.1","","-7.1","","64","","","","30","","46","","24.1","","99.26","","","","-9","","NA"
"-52.75","47.62","ST. JOHN'S INTL A","8403505","2021-03-30 13:30","2021","03","30","13:30","-0.9","","-8.5","","57","","","","31","","56","","24.1","","99.38","","","","-10","","NA"
"-52.75","47.62","ST. JOHN'S INTL A","8403505","2021-03-30 14:30","2021","03","30","14:30","-1.4","","-8.0","","61","","","","32","","42","","24.1","","99.52","","","","-9","","Mostly Cloudy"
"-52.75","47.62","ST. JOHN'S INTL A","8403505","2021-03-30 15:30","2021","03","30","15:30","-1.3","","-8.7","","58","","","","32","","39","","24.1","","99.68","","","","-9","","NA"
"-52.75","47.62","ST. JOHN'S INTL A","8403505","2021-03-30 16:30","2021","03","30","16:30","-1.2","","-9.2","","55","","","","32","","37","","24.1","","99.84","","","","-9","","NA"
"-52.75","47.62","ST. JOHN'S INTL A","8403505","2021-03-30 17:30","2021","03","30","17:30","-1.8","","-9.8","","54","","","","33","","35","","24.1","","100.03","","","","-9","","Mainly Clear"
"-52.75","47.62","ST. JOHN'S INTL A","8403505","2021-03-30 18:30","2021","03","30","18:30","-2.2","","-10.1","","55","","","","35","","27","","24.1","","100.23","","","","-9","","NA"
"-52.75","47.62","ST. JOHN'S INTL A","8403505","2021-03-30 19:30","2021","03","30","19:30","-2.5","","-9.9","","57","","","","34","","26","","24.1","","100.37","","","","-9","","NA"
"-52.75","47.62","ST. JOHN'S INTL A","8403505","2021-03-30 20:30","2021","03","30","20:30","-3.6","","-9.0","","67","","","","36","","23","","24.1","","100.54","","","","-10","","Cloudy"
"-52.75","47.62","ST. JOHN'S INTL A","8403505","2021-03-30 21:30","2021","03","30","21:30","-3.8","","-8.6","","70","","","","36","","21","","24.1","","100.66","","","","-10","","Snow Showers"
"-52.75","47.62","ST. JOHN'S INTL A","8403505","2021-03-30 22:30","2021","03","30","22:30","-4.4","","-9.9","","66","","","","35","","29","","24.1","","100.74","","","","-12","","NA"
"-52.75","47.62","ST. JOHN'S INTL A","8403505","2021-03-30 23:30","2021","03","30","23:30","-4.5","","-9.8","","67","","","","36","","32","","24.1","","100.82","","","","-13","","Cloudy"
"-52.75","47.62","ST. JOHN'S INTL A","8403505","2021-03-31 00:30","2021","03","31","00:30","-4.6","","-9.1","","71","","","","36","","32","","24.1","","100.88","","","","-13","","Snow Showers"
"-52.75","47.62","ST. JOHN'S INTL A","8403505","2021-03-31 01:30","2021","03","31","01:30","-4.7","","-9.5","","69","","","","36","","32","","24.1","","100.92","","","","-13","","NA"
"-52.75","47.62","ST. JOHN'S INTL A","8403505","2021-03-31 02:30","2021","03","31","02:30","-4.8","","-9.5","","70","","","","36","","28","","24.1","","100.95","","","","-12","","Cloudy"
"-52.75","47.62","ST. JOHN'S INTL A","8403505","2021-03-31 03:30","2021","03","31","03:30","-4.8","","-9.5","","70","","","","35","","33","","24.1","","100.99","","","","-13","","NA"
"-52.75","47.62","ST. JOHN'S INTL A","8403505","2021-03-31 04:30","2021","03","31","04:30","-4.8","","-9.2","","72","","","","36","","25","","24.1","","101.06","","","","-12","","NA"
"-52.75","47.62","ST. JOHN'S INTL A","8403505","2021-03-31 05:30","2021","03","31","05:30","-4.8","","-8.7","","75","","","","1","","26","","24.1","","101.06","","","","-12","","Cloudy"
"-52.75","47.62","ST. JOHN'S INTL A","8403505","2021-03-31 06:30","2021","03","31","06:30","-4.5","","-8.2","","76","","","","36","","28","","24.1","","101.16","","","","-12","","NA"
"-52.75","47.62","ST. JOHN'S INTL A","8403505","2021-03-31 07:30","2021","03","31","07:30","-4.3","","-8.0","","75","","","","36","","31","","24.1","","101.17","","","","-12","","NA"
"-52.75","47.62","ST. JOHN'S INTL A","8403505","2021-03-31 08:30","2021","03","31","08:30","-3.1","","-7.4","","72","","","","36","","29","","24.1","","101.15","","","","-10","","Mostly Cloudy"
"-52.75","47.62","ST. JOHN'S INTL A","8403505","2021-03-31 09:30","2021","03","31","09:30","-3.1","","-7.5","","72","","","","33","","32","","24.1","","101.16","","","","-11","","NA"
"-52.75","47.62","ST. JOHN'S INTL A","8403505","2021-03-31 10:30","2021","03","31","10:30","-1.9","","-6.7","","70","","","","3","","23","","24.1","","101.12","","","","-8","","NA"
"-52.75","47.62","ST. JOHN'S INTL A","8403505","2021-03-31 11:30","2021","03","31","11:30","-0.9","","-5.8","","70","","","","1","","19","","24.1","","101.03","","","","-6","","Mainly Clear"
"-52.75","47.62","ST. JOHN'S INTL A","8403505","2021-03-31 12:30","2021","03","31","12:30","-0.5","","-5.4","","70","","","","32","","24","","24.1","","100.97","","","","-6","","NA"
"-52.75","47.62","ST. JOHN'S INTL A","8403505","2021-03-31 13:30","2021","03","31","13:30","0.6","","-5.2","","65","","","","36","","23","","24.1","","100.92","","","","","","NA"
"-52.75","47.62","ST. JOHN'S INTL A","8403505","2021-03-31 14:30","2021","03","31","14:30","0.7","","-5.8","","62","","","","1","","20","","24.1","","100.90","","","","","","Mainly Clear"
"-52.75","47.62","ST. JOHN'S INTL A","8403505","2021-03-31 15:30","2021","03","31","15:30","0.6","","-5.8","","62","","","","5","","22","","24.1","","100.90","","","","","","NA"
"-52.75","47.62","ST. JOHN'S INTL A","8403505","2021-03-31 16:30","2021","03","31","16:30","0.8","","-6.8","","57","","","","1","","18","","24.1","","100.91","","","","","","NA"
"-52.75","47.62","ST. JOHN'S INTL A","8403505","2021-03-31 17:30","2021","03","31","17:30","-0.1","","-6.7","","61","","","","3","","11","","24.1","","100.93","","","","-4","","Mainly Clear"
"-52.75","47.62","ST. JOHN'S INTL A","8403505","2021-03-31 18:30","2021","03","31","18:30","-1.6","","-7.5","","64","","","","36","","5","","24.1","","100.92","","","","-3","","NA"
"-52.75","47.62","ST. JOHN'S INTL A","8403505","2021-03-31 19:30","2021","03","31","19:30","-2.9","","-7.6","","70","","","","6","","7","","24.1","","100.90","","","","-6","","NA"
"-52.75","47.62","ST. JOHN'S INTL A","8403505","2021-03-31 20:30","2021","03","31","20:30","-3.0","","-7.4","","72","","","","36","","3","","24.1","","100.92","","","","-4","","Clear"
"-52.75","47.62","ST. JOHN'S INTL A","8403505","2021-03-31 21:30","2021","03","31","21:30","-3.7","","-7.5","","75","","","","29","","4","","24.1","","100.89","","","","-5","","NA"
"-52.75","47.62","ST. JOHN'S INTL A","8403505","2021-03-31 22:30","2021","03","31","22:30","-4.5","","-8.1","","76","","","","28","","14","","24.1","","100.82","","","","-10","","NA"
"-52.75","47.62","ST. JOHN'S INTL A","8403505","2021-03-31 23:30","2021","03","31","23:30","-5.0","","-8.9","","74","","","","28","","13","","24.1","","100.76","","","","-10","","Clear"
